uuid,name,recipient,project_type,category,address,chain,contract_type,transactions_90D,transactions_180D,active_addresses_90D,active_addresses_180D,farcaster_users_90D,farcaster_users_180D,daily_active_addresses_90D,daily_active_addresses_180D,block_explorer
89eb0a1c-36f6-4455-af98-c822064425bb,0x,0xE4EE538019673501F4B75de5aF5CC073Ec0A1487,App,DEX,0xdef1c0ded9bec7f1a1670819833240f027b25eff,Base,dapp_contract,1543115.0,2811827.0,154685.0,361243.0,10746.0,28663.0,3984.0,5434.0,https://basescan.org/address/0xdef1c0ded9bec7f1a1670819833240f027b25eff
9dbc583f-6672-48cd-9ddc-90d35e1a9474,5050IO,0xA89946F00052Bc385B3121b45420316a7cE20E60,App,Donations,0x0ce9a74dc442b8b7dc4b3edd5833cad8ac52afb9,Base,trace_contract,153.0,153.0,12.0,12.0,4.0,4.0,0.0,0.0,https://basescan.org/address/0x0ce9a74dc442b8b7dc4b3edd5833cad8ac52afb9
b4d81636-0080-49bd-8039-0721b3ea716c,Aerodrome Finance,0xc687f7c9BDfF8d40cF4f789FA105f7dCF0771d6a,App,DEX,0x940181a94a35a4569e4529a3cdfb74e38fd98631,Base,token_contract,26251866.0,36012251.0,196067.0,300062.0,14463.0,23948.0,7605.0,7534.0,https://basescan.org/address/0x940181a94a35a4569e4529a3cdfb74e38fd98631
af197310-d16f-4b6d-8b14-6c18a60ef145,AI Frames Creator,0x980F5aC0Fe183479B87f78E7892f8002fB9D5401,Other Application,Frames,0x02e4227ed20379db2999511609b8e2b28f73f0e0,Optimism,dapp_contract,191.0,6531.0,1.0,2.0,1.0,1.0,0.0,0.0,https://optimistic.etherscan.io/address/0x02e4227ed20379db2999511609b8e2b28f73f0e0
c31e36bc-69ad-40e8-a3b9-29f5c1d6d86a,AI,0xf1a871aF236eC0Da070C3b09302270Ccf4E35794,App,Real World Assets,0xf1a871af236ec0da070c3b09302270ccf4e35794,Base,trace_contract,1880.0,2356.0,388.0,475.0,17.0,18.0,9.0,6.0,https://basescan.org/address/0xf1a871af236ec0da070c3b09302270ccf4e35794
795a96c7-4d7e-4c58-8958-aad52d6a8f12,Air3,0x84EC34a8b64e9A40248599fe0f8afA9d66742Fe0,App,Art Marketplace,0xbeebbaee8f085f506ce0ea3591f8fbb9c24af356,Mint,pending_mint,3156.0,3156.0,2168.0,2168.0,328.0,328.0,27.0,13.0,https://explorer.mintchain.io/address/0xbeebbaee8f085f506ce0ea3591f8fbb9c24af356
62729a7e-c90a-4494-8391-3646724a2fce,AlfaFrens,0x908f23Be36C2447db79Df2aE3A8A21c079217546,App,Community & Curation,0x30e0b740acfb45b6edb9eed40094134f24d8f159,Base,factory_contract,1191.0,23174.0,795.0,15395.0,1.0,4.0,9.0,86.0,https://basescan.org/address/0x30e0b740acfb45b6edb9eed40094134f24d8f159
657d3052-63b9-499a-8898-ee74a2d4c0e7,Amazing Hunt,0x9D63038e7f74bc089eb38e61Be8Da937918900D6,App,Art NFTs,0x0db19369d6d62237d065677cf05c1b0a1236bb0a,Optimism,dapp_contract,1179.0,1179.0,3.0,3.0,1.0,1.0,0.0,0.0,https://optimistic.etherscan.io/address/0x0db19369d6d62237d065677cf05c1b0a1236bb0a
3d669a90-f377-4e3b-91f0-8d0818d5f1f3,Another World,0x6cfbF06E8b6612B39333eA7c230208D1d178278d,App,Gaming,0x56edafc97279c53a74c1c105abeebc79e0936c73,Optimism,dapp_contract,57.0,142.0,3.0,5.0,2.0,2.0,0.0,0.0,https://optimistic.etherscan.io/address/0x56edafc97279c53a74c1c105abeebc79e0936c73
564c6ffc-f42b-41d2-aee7-bf808411c32f,Aragon ,0x0000000000000000000000000000000000000000,Other Application,Other Category,0x1b6632d1357d26055d6452e3b3bebd1c1d982e86,Base,factory_contract,847.0,1482.0,414.0,709.0,10.0,25.0,6.0,5.0,https://basescan.org/address/0x1b6632d1357d26055d6452e3b3bebd1c1d982e86
6abc3227-4e7f-4786-863c-abdd23f488a2,ArbiLearn,0x01133c3834a96aDd681a9C9Ad3b2f955968ed60F,App,Community & Curation,0x85ba183fb4c16d435b076dde459dafc8eff864d8,Optimism,trace_contract,18.0,18.0,10.0,10.0,1.0,1.0,0.0,0.0,https://optimistic.etherscan.io/address/0x85ba183fb4c16d435b076dde459dafc8eff864d8
72d91704-0a5f-4ec7-9e6b-92d5d72df0bc,ArbiLearn,0x01133c3834a96aDd681a9C9Ad3b2f955968ed60F,App,Community & Curation,0x85ba183fb4c16d435b076dde459dafc8eff864d8,Optimism,trace_contract,18.0,18.0,10.0,10.0,1.0,1.0,0.0,0.0,https://optimistic.etherscan.io/address/0x85ba183fb4c16d435b076dde459dafc8eff864d8
bfaa1c75-7b03-4b76-bdbb-b8a2916bfab9,Arcadia Finance,0x0000000000000000000000000000000000000000,App,Lending,0xda14fdd72345c4d2511357214c5b89a919768e59,Base,dapp_contract,1030.0,1504.0,407.0,701.0,93.0,181.0,5.0,5.0,https://basescan.org/address/0xda14fdd72345c4d2511357214c5b89a919768e59
df4b7415-d79b-4bdb-86f0-2ce0d2b86dc2,ArtGridz,0x0000000000000000000000000000000000000000,App,Community & Curation,0xc0011bb70cc2f19208ef01f88dd16b43250c7f77,Base,trace_contract,15.0,15.0,10.0,10.0,1.0,1.0,0.0,0.0,https://basescan.org/address/0xc0011bb70cc2f19208ef01f88dd16b43250c7f77
fdceb040-c3e7-4096-a801-6c75adf400ed,Attesta_Mesta,0xA8F0048A0d1A04663Ca5010d0bEaC5BCAEeA0eef,App,Payments,0x42d41fe67832eaead51b75d61a132d16a86892f7,Base,unknown,,,,,,,,,https://basescan.org/address/0x42d41fe67832eaead51b75d61a132d16a86892f7
8de485fb-2822-4eac-b6e1-a064604317d1,Automod,0x704CF202792341d79A9Fd6DD97046aa7eF3F4319,App,Channels,0x704cf202792341d79a9fd6dd97046aa7ef3f4319,Base,trace_contract,53.0,416.0,35.0,127.0,3.0,11.0,0.0,1.0,https://basescan.org/address/0x704cf202792341d79a9fd6dd97046aa7ef3f4319
0592c036-8570-4c55-83bd-759ac99860ad,Avantis ,0xeAb4717efb29f91429dB6322F42Edc53C94F0941,App,Real World Assets,0xa96f577821933d127b491d0f91202405b0dbb1bd,Base,dapp_contract,16391.0,29396.0,14205.0,24583.0,8878.0,14025.0,167.0,148.0,https://basescan.org/address/0xa96f577821933d127b491d0f91202405b0dbb1bd
0ca5ba62-a46f-4ae6-b070-c95df77a8c27,Avantis ,0xeAb4717efb29f91429dB6322F42Edc53C94F0941,App,Real World Assets,0x5ff292d70ba9cd9e7ccb313782811b3d7120535f,Base,dapp_contract,2563101.0,2998214.0,11193.0,18235.0,5506.0,8504.0,594.0,456.0,https://basescan.org/address/0x5ff292d70ba9cd9e7ccb313782811b3d7120535f
b19c03b3-1c99-44bd-af7b-ac398dd1bdee,Avantis ,0xeAb4717efb29f91429dB6322F42Edc53C94F0941,App,Real World Assets,0x83084cb182162473d6feffcd3aa48ba55a7b66f7,Base,token_contract,23346.0,32911.0,8803.0,11180.0,2834.0,3191.0,146.0,99.0,https://basescan.org/address/0x83084cb182162473d6feffcd3aa48ba55a7b66f7
f037bbd9-1611-4f70-8c24-66a8de113c05,Avantis ,0xeAb4717efb29f91429dB6322F42Edc53C94F0941,App,Real World Assets,0xe9fb8c70af1b99f2baaa07aa926fcf3d237348dd,Base,trace_contract,983521.0,1435188.0,10586.0,17343.0,5142.0,7941.0,523.0,398.0,https://basescan.org/address/0xe9fb8c70af1b99f2baaa07aa926fcf3d237348dd
fbb8d2a3-90a3-478a-ae7b-ee6c50cb024a,Avantis ,0xeAb4717efb29f91429dB6322F42Edc53C94F0941,App,Real World Assets,0x944766f715b51967e56afde5f0aa76ceacc9e7f9,Base,token_contract,27349.0,38013.0,9931.0,12029.0,3844.0,4383.0,166.0,112.0,https://basescan.org/address/0x944766f715b51967e56afde5f0aa76ceacc9e7f9
ec433206-94a7-46b5-aefd-f2fe2901df93,Avventura,0x6bAFF8A3449cc2E196F4b873f49e03E09345B1E1,App,Gaming,0x595ab9ace017d77960eeae61d29b3d44bcf53f17,Optimism,unknown,,,,,,,,,https://optimistic.etherscan.io/address/0x595ab9ace017d77960eeae61d29b3d44bcf53f17
9a65dbec-2fb8-4889-9ef3-e1e2bbef14d4,baby Dragon,0xAa66fC4433DFD254F05A720A8c8a2f1F2fbDCB58,App,Meme Community,0xa5f8daa537afeca842cdd39758744fd3155a26cb,Base,token_contract,,,,,,,,,https://basescan.org/address/0xa5f8daa537afeca842cdd39758744fd3155a26cb
0a111b32-b39c-4f9e-8e2c-52452c31016f,Balancer,0x6a2E16EA3a608E8D697B3fc0f59d0012A76901e4,Other Application,DEX,0xba12222222228d8ba445958a75a0704d566bf2c8,Optimism,trace_contract,1329946.0,3012669.0,13674.0,261872.0,4501.0,25848.0,512.0,1900.0,https://optimistic.etherscan.io/address/0xba12222222228d8ba445958a75a0704d566bf2c8
36037695-465b-46bf-8af8-917d96a2d176,Balancer,0x6a2E16EA3a608E8D697B3fc0f59d0012A76901e4,App,DEX,0xba12222222228d8ba445958a75a0704d566bf2c8,Mode,dapp_contract,23711.0,23721.0,2443.0,2447.0,915.0,915.0,51.0,25.0,https://explorer.mode.network/address/0xba12222222228d8ba445958a75a0704d566bf2c8
9bdddd91-6261-4fe4-acc6-9b16acfbda38,Balancer,0x6a2E16EA3a608E8D697B3fc0f59d0012A76901e4,Other Application,DEX,0xba12222222228d8ba445958a75a0704d566bf2c8,Base,trace_contract,1104614.0,2312828.0,25351.0,60401.0,1401.0,3069.0,589.0,752.0,https://basescan.org/address/0xba12222222228d8ba445958a75a0704d566bf2c8
bc122237-96a4-48b9-a568-acd523b799cb,Balancer,0x6a2E16EA3a608E8D697B3fc0f59d0012A76901e4,App,DEX,0xba12222222228d8ba445958a75a0704d566bf2c8,Optimism,trace_contract,1329946.0,3012669.0,13674.0,261872.0,4501.0,25848.0,512.0,1900.0,https://optimistic.etherscan.io/address/0xba12222222228d8ba445958a75a0704d566bf2c8
d8a47ba1-e10c-4499-80f1-17694ed786b1,Balancer,0x6a2E16EA3a608E8D697B3fc0f59d0012A76901e4,App,DEX,0xba12222222228d8ba445958a75a0704d566bf2c8,Base,trace_contract,1104614.0,2312828.0,25351.0,60401.0,1401.0,3069.0,589.0,752.0,https://basescan.org/address/0xba12222222228d8ba445958a75a0704d566bf2c8
51f04987-614d-412f-bd4b-d6ac060f5b41,Bankless Academy,0xe1887fF140BfA9D3b45D0B2077b7471124acD242,App,Other Media NFTs,0x235f3dfe5106f137d8b137c1b7fa115076e8b476,Optimism,unknown,,,,,,,,,https://optimistic.etherscan.io/address/0x235f3dfe5106f137d8b137c1b7fa115076e8b476
b20f0560-d71d-4d4f-aeae-e65092a146ca,Bankless Academy,0xe1887fF140BfA9D3b45D0B2077b7471124acD242,App,Frames,0xbdded96eb5334406b4c204c02b08f9a9fb0a92dc,Base,unknown,,,,,,,,,https://basescan.org/address/0xbdded96eb5334406b4c204c02b08f9a9fb0a92dc
12aef6c3-f681-4483-80be-d754b7f1990a,Bario Entertainment System,0x702ba46435D1E55B18440100BC81EB055574875e,App,Gaming,0x814fe70e85025bec87d4ad3f3b713bdcaac0579b,Base,token_contract,3630.0,3630.0,584.0,584.0,61.0,61.0,9.0,4.0,https://basescan.org/address/0x814fe70e85025bec87d4ad3f3b713bdcaac0579b
08868559-3e11-4d15-9ec4-6a589a2d91f2,Based Bits,0x1d671d1B191323A38490972D58354971E5c1cd2A,App,Art NFTs,0xe842537260634175891925f058498f9099c102eb,Base,dapp_contract,4469.0,6367.0,192.0,294.0,121.0,170.0,49.0,35.0,https://basescan.org/address/0xe842537260634175891925f058498f9099c102eb
2243495c-9a80-4741-9b5c-effae2ec39f5,Based Bodega,0x75C83356987c8d813829D9FBb5DE504b547750A6,Other Application,Other Category,0xb472838c1fb18aa671a63bdd42b0c00e34ce622a,Base,token_contract,374.0,1029.0,74.0,157.0,34.0,65.0,4.0,5.0,https://basescan.org/address/0xb472838c1fb18aa671a63bdd42b0c00e34ce622a
fdb1b477-97c1-40a3-8fba-8cdcd1db580b,BasedChad,0x6E23873AB8dD6Fb4823dF8A92D43643Fff537684,App,Meme Community,0x17931cfc3217261ce0fa21bb066633c463ed8634,Base,token_contract,9051.0,49158.0,1329.0,8860.0,147.0,1202.0,30.0,106.0,https://basescan.org/address/0x17931cfc3217261ce0fa21bb066633c463ed8634
088667fe-da88-4c9d-a185-b48ae63d48ea,Based Onchain Dinos,0x777c47498b42dbe449fB4cB810871A46cD777777,Other Application,Art NFTs,0xd4c5292b9689238f0a51c8505b1d1d6714ce95a0,Base,trace_contract,260.0,1612.0,74.0,486.0,30.0,176.0,1.0,4.0,https://basescan.org/address/0xd4c5292b9689238f0a51c8505b1d1d6714ce95a0
127b9325-9491-42cb-af85-94a69055b52a,Basepaint,0xb48E8dA63c2aFc5633702B7acf4BDe830c1dE48b,App,Art NFTs,0xe6249eafdc9c8a809fe28a5213120b1860f9a75f,Base,dapp_contract,5574.0,12738.0,412.0,661.0,161.0,227.0,43.0,55.0,https://basescan.org/address/0xe6249eafdc9c8a809fe28a5213120b1860f9a75f
83ab7eff-40a3-4d89-bf28-368a5a16faa3,BaseSwap ,0xbD90Fa61ee83123A5c42EB2024Cd00FEDBb932AE,App,DEX,0x2b0a43dccbd7d42c18f6a83f86d1a19fa58d541a,Base,trace_contract,33692.0,104890.0,17.0,54.0,3.0,8.0,2.0,2.0,https://basescan.org/address/0x2b0a43dccbd7d42c18f6a83f86d1a19fa58d541a
550daa9a-e20c-439f-b816-7a0eb229b5c1,BCard,0x74fa01a5D0ef8039f1E14F4d4C8f90e8602e07B4,App,Donations,0xdec5bd388d7eeeee6c613a6eb75abcab0f6e3bdc,Optimism,unknown,,,,,,,,,https://optimistic.etherscan.io/address/0xdec5bd388d7eeeee6c613a6eb75abcab0f6e3bdc
52af194c-b618-47a2-9a64-61c27a21d16b,$BDOOGS,0x823c6115651D915614EB8d9f899d6d1FA939936D,App,Meme Community,0xfcb65dc6758e2cfd8f1dcdfad185bd4648b0e9c5,Base,token_contract,10.0,10.0,7.0,7.0,3.0,3.0,0.0,0.0,https://basescan.org/address/0xfcb65dc6758e2cfd8f1dcdfad185bd4648b0e9c5
02ca9ef9-5bb5-4055-b03f-070f6ad6a96b,Beefy,0xEfCCa47CD11D4b1637e4d52a84Ed5dafFAd38F04,App,Other Category,0x7e240c368272da4bfd77bf5dd0151c8cb57ab609,Optimism,unknown,,,,,,,,,https://optimistic.etherscan.io/address/0x7e240c368272da4bfd77bf5dd0151c8cb57ab609
05a11f31-2eea-4398-99bd-0d0dadfa1b80,Beefy,0xEfCCa47CD11D4b1637e4d52a84Ed5dafFAd38F04,App,Other Category,0x43f6de3d9fb0d5eed93d7e7e14a8a526b98f8a58,Optimism,token_contract,,,,,,,,,https://optimistic.etherscan.io/address/0x43f6de3d9fb0d5eed93d7e7e14a8a526b98f8a58
05b1472f-c1ae-4d15-b416-a412ea8fa632,Beefy,0xEfCCa47CD11D4b1637e4d52a84Ed5dafFAd38F04,App,Other Category,0x4609a582cb1e36b328a9479ccd3fb152cef76b22,Optimism,token_contract,,,,,,,,,https://optimistic.etherscan.io/address/0x4609a582cb1e36b328a9479ccd3fb152cef76b22
08b50257-21cf-4c92-bc52-e57274572d38,Beefy,0xEfCCa47CD11D4b1637e4d52a84Ed5dafFAd38F04,App,Other Category,0x32b2ff41e72ee243c8835bd44476375afe3a38bb,Optimism,token_contract,,,,,,,,,https://optimistic.etherscan.io/address/0x32b2ff41e72ee243c8835bd44476375afe3a38bb
094cdfb8-2eca-4ed7-84a2-5860f0450ea5,Beefy,0xEfCCa47CD11D4b1637e4d52a84Ed5dafFAd38F04,App,Other Category,0x48b3edf0d7412b11c232bd9a5114b590b7f28134,Optimism,token_contract,2.0,26.0,2.0,13.0,1.0,2.0,0.0,0.0,https://optimistic.etherscan.io/address/0x48b3edf0d7412b11c232bd9a5114b590b7f28134
09baa82a-7357-46e3-92f5-e9eee6fcf78f,Beefy,0xEfCCa47CD11D4b1637e4d52a84Ed5dafFAd38F04,App,Other Category,0x55d0efec44ee905fc3e12ccb9f25bbd5cce0ab9c,Optimism,factory_contract,2468.0,2468.0,1658.0,1658.0,1011.0,1011.0,23.0,11.0,https://optimistic.etherscan.io/address/0x55d0efec44ee905fc3e12ccb9f25bbd5cce0ab9c
10bf9064-0058-4f57-91bc-2ac017abf855,Beefy,0xEfCCa47CD11D4b1637e4d52a84Ed5dafFAd38F04,App,Other Category,0x5cd57fe9d760e6302aba167993a0d1cc03895ed9,Optimism,token_contract,4.0,19.0,5.0,19.0,2.0,3.0,0.0,0.0,https://optimistic.etherscan.io/address/0x5cd57fe9d760e6302aba167993a0d1cc03895ed9
16f41f43-ca2e-434e-8f45-36269ef321da,Beefy,0xEfCCa47CD11D4b1637e4d52a84Ed5dafFAd38F04,App,Other Category,0x1c45f783fcbab05abbb93e421bc55b38b1d6c6cb,Optimism,unknown,,,,,,,,,https://optimistic.etherscan.io/address/0x1c45f783fcbab05abbb93e421bc55b38b1d6c6cb
1852c9c0-1300-45e0-9ae6-f8de88569544,Beefy,0xEfCCa47CD11D4b1637e4d52a84Ed5dafFAd38F04,App,Other Category,0x4d153f47f03c237f6360a6eccd185b4ae09c63d0,Optimism,token_contract,1.0,1.0,2.0,2.0,2.0,2.0,0.0,0.0,https://optimistic.etherscan.io/address/0x4d153f47f03c237f6360a6eccd185b4ae09c63d0
2e642ec7-b0a2-4a70-84cd-829121fe1147,Beefy,0xEfCCa47CD11D4b1637e4d52a84Ed5dafFAd38F04,App,Other Category,0xf92129fe0923d766c2540796d4ea31ff9ff65522,Optimism,token_contract,,,,,,,,,https://optimistic.etherscan.io/address/0xf92129fe0923d766c2540796d4ea31ff9ff65522
2fa5e46e-6f1d-40d0-9742-4ea5b5e52f76,Beefy,0xEfCCa47CD11D4b1637e4d52a84Ed5dafFAd38F04,App,Other Category,0x3dd36e64784fdaee7bd202c78322a0d8eb1bb32b,Optimism,token_contract,1.0,1.0,2.0,2.0,1.0,1.0,0.0,0.0,https://optimistic.etherscan.io/address/0x3dd36e64784fdaee7bd202c78322a0d8eb1bb32b
318134f4-8a23-447e-8437-a7ef0d6c8f48,Beefy,0xEfCCa47CD11D4b1637e4d52a84Ed5dafFAd38F04,App,Other Category,0x0fb22a54a749c3babeed908e04a99d27725a2fae,Optimism,token_contract,3.0,5.0,4.0,5.0,2.0,2.0,0.0,0.0,https://optimistic.etherscan.io/address/0x0fb22a54a749c3babeed908e04a99d27725a2fae
3e26cef8-4248-40c5-ba17-f07c65c14b35,Beefy,0xEfCCa47CD11D4b1637e4d52a84Ed5dafFAd38F04,App,Other Category,0xe200cd5ef01b52bb968402f63e3933897cff367b,Optimism,token_contract,2.0,8.0,3.0,9.0,2.0,2.0,0.0,0.0,https://optimistic.etherscan.io/address/0xe200cd5ef01b52bb968402f63e3933897cff367b
44237527-dba5-48a2-b5f1-4015933c6abc,Beefy,0xEfCCa47CD11D4b1637e4d52a84Ed5dafFAd38F04,App,Other Category,0x7e6958dd0437f687ad54557ba1ab15e45373478f,Optimism,token_contract,2.0,2.0,2.0,2.0,1.0,1.0,0.0,0.0,https://optimistic.etherscan.io/address/0x7e6958dd0437f687ad54557ba1ab15e45373478f
479263e5-edb1-4dc1-98b2-ac065b0ba62b,Beefy,0xEfCCa47CD11D4b1637e4d52a84Ed5dafFAd38F04,App,Other Category,0x0521b9c8d92d39d0cabe7bb3dcad72d474ecdc7b,Optimism,token_contract,2.0,3.0,2.0,4.0,1.0,1.0,0.0,0.0,https://optimistic.etherscan.io/address/0x0521b9c8d92d39d0cabe7bb3dcad72d474ecdc7b
4b17f589-8a59-4a7b-87fc-dd9cb080c18a,Beefy,0xEfCCa47CD11D4b1637e4d52a84Ed5dafFAd38F04,App,Other Category,0xe9831aefcf8c35ba3f99239391b19eba05336c10,Optimism,token_contract,2.0,4.0,2.0,3.0,2.0,2.0,0.0,0.0,https://optimistic.etherscan.io/address/0xe9831aefcf8c35ba3f99239391b19eba05336c10
4c61b4b7-84ba-4554-8ba7-88def4cb612c,Beefy,0xEfCCa47CD11D4b1637e4d52a84Ed5dafFAd38F04,App,Other Category,0x5d871ab3171daaf1991e9715fbcee5fa34390cfa,Optimism,unknown,,,,,,,,,https://optimistic.etherscan.io/address/0x5d871ab3171daaf1991e9715fbcee5fa34390cfa
50cd5d36-6936-4117-aa32-884612df314e,Beefy,0xEfCCa47CD11D4b1637e4d52a84Ed5dafFAd38F04,App,Other Category,0x920abfa9d1c99be993e5399634c6d5e1be55a3f4,Optimism,token_contract,18.0,35.0,13.0,28.0,8.0,16.0,0.0,0.0,https://optimistic.etherscan.io/address/0x920abfa9d1c99be993e5399634c6d5e1be55a3f4
510fed45-6658-423d-8667-c2cc89c852db,Beefy,0xEfCCa47CD11D4b1637e4d52a84Ed5dafFAd38F04,App,Other Category,0x3b6ed6a53a9a357a397fbc7a04c96ba8b4aebed2,Optimism,unknown,,,,,,,,,https://optimistic.etherscan.io/address/0x3b6ed6a53a9a357a397fbc7a04c96ba8b4aebed2
51c0df81-19ad-49bb-9a31-22f3b91f8582,Beefy,0xEfCCa47CD11D4b1637e4d52a84Ed5dafFAd38F04,App,Other Category,0xa6d3769fac465fc0415e7e9f16dcdc96b83c240b,Optimism,factory_contract,20008.0,37247.0,8655.0,14908.0,5479.0,7998.0,139.0,149.0,https://optimistic.etherscan.io/address/0xa6d3769fac465fc0415e7e9f16dcdc96b83c240b
5488f94b-595c-4f45-ad07-6a9c17f8a736,Beefy,0xEfCCa47CD11D4b1637e4d52a84Ed5dafFAd38F04,App,Other Category,0x0234ed3ed84639e930e7e49be557e2ed83bde32e,Optimism,token_contract,,,,,,,,,https://optimistic.etherscan.io/address/0x0234ed3ed84639e930e7e49be557e2ed83bde32e
56831539-3442-4e16-8ac8-a52c844d7b6a,Beefy,0xEfCCa47CD11D4b1637e4d52a84Ed5dafFAd38F04,App,Other Category,0xf46346de9c2e5e652fcc37695d3dec3d672c45ba,Optimism,unknown,,,,,,,,,https://optimistic.etherscan.io/address/0xf46346de9c2e5e652fcc37695d3dec3d672c45ba
588898e2-457d-43d7-b051-316668375e73,Beefy,0xEfCCa47CD11D4b1637e4d52a84Ed5dafFAd38F04,App,Other Category,0xff504594edd93e09309d5eab775e7c35f642931b,Optimism,token_contract,2.0,4.0,2.0,5.0,1.0,1.0,0.0,0.0,https://optimistic.etherscan.io/address/0xff504594edd93e09309d5eab775e7c35f642931b
6153f2eb-89d7-42cc-aea5-d027b2ca0f70,Beefy,0xEfCCa47CD11D4b1637e4d52a84Ed5dafFAd38F04,App,Other Category,0xd019fd6267f93ebe5a92debb760135a4f02a75f7,Optimism,token_contract,3.0,28.0,3.0,19.0,1.0,7.0,0.0,0.0,https://optimistic.etherscan.io/address/0xd019fd6267f93ebe5a92debb760135a4f02a75f7
687817f4-bf50-4ff0-865e-c5c8e8048fcb,Beefy,0xEfCCa47CD11D4b1637e4d52a84Ed5dafFAd38F04,App,Other Category,0x3a847e91d632c72a8247727cc09c63a6847f70b4,Optimism,token_contract,2.0,8.0,2.0,5.0,1.0,1.0,0.0,0.0,https://optimistic.etherscan.io/address/0x3a847e91d632c72a8247727cc09c63a6847f70b4
6caa7f68-692e-4d92-b3bd-f9def83c98c8,Beefy,0xEfCCa47CD11D4b1637e4d52a84Ed5dafFAd38F04,App,Other Category,0x587c3e2e17c59b09b120fc2d27e0ead6edd2c71d,Optimism,token_contract,2.0,2.0,2.0,2.0,2.0,2.0,0.0,0.0,https://optimistic.etherscan.io/address/0x587c3e2e17c59b09b120fc2d27e0ead6edd2c71d
6cbf71a4-544a-4192-a35e-655a84a201da,Beefy,0xEfCCa47CD11D4b1637e4d52a84Ed5dafFAd38F04,App,Other Category,0x3a00d6d1d8fc0ed0cf481a8eb835f1c1b8760708,Optimism,token_contract,2.0,3.0,2.0,4.0,1.0,1.0,0.0,0.0,https://optimistic.etherscan.io/address/0x3a00d6d1d8fc0ed0cf481a8eb835f1c1b8760708
775524c2-2274-4779-b587-d959539326c2,Beefy,0xEfCCa47CD11D4b1637e4d52a84Ed5dafFAd38F04,App,Other Category,0x70e793220761418a18febcc556efb24a45da123c,Optimism,unknown,,,,,,,,,https://optimistic.etherscan.io/address/0x70e793220761418a18febcc556efb24a45da123c
7a3ca5c9-377f-40df-a7cf-76454ff3b8fc,Beefy,0xEfCCa47CD11D4b1637e4d52a84Ed5dafFAd38F04,App,Other Category,0x0bf7616889d0ae18382d9715eac00a3302e9ab92,Optimism,token_contract,9.0,36.0,8.0,33.0,2.0,4.0,0.0,0.0,https://optimistic.etherscan.io/address/0x0bf7616889d0ae18382d9715eac00a3302e9ab92
7d689117-c1ff-4471-952f-d4a2fa91557a,Beefy,0xEfCCa47CD11D4b1637e4d52a84Ed5dafFAd38F04,App,Other Category,0x01bff9f1b56c76a619327f681a734c48daa80e74,Optimism,unknown,,,,,,,,,https://optimistic.etherscan.io/address/0x01bff9f1b56c76a619327f681a734c48daa80e74
7e171070-eb97-4332-9861-e4ab89ea8784,Beefy,0xEfCCa47CD11D4b1637e4d52a84Ed5dafFAd38F04,App,Other Category,0x00acfd3420cd652500f5ba1b90ac7c19f694c5c3,Optimism,token_contract,,,,,,,,,https://optimistic.etherscan.io/address/0x00acfd3420cd652500f5ba1b90ac7c19f694c5c3
86a22d5a-30a7-4339-aaa1-c6b8a210300d,Beefy,0xEfCCa47CD11D4b1637e4d52a84Ed5dafFAd38F04,App,Other Category,0x107dbf9c9c0ef2df114159e5c7dc2baf7c444cff,Optimism,token_contract,308.0,1025.0,105.0,291.0,26.0,66.0,2.0,3.0,https://optimistic.etherscan.io/address/0x107dbf9c9c0ef2df114159e5c7dc2baf7c444cff
87336d1e-0777-41a7-bf8a-3bc006567ac3,Beefy,0xEfCCa47CD11D4b1637e4d52a84Ed5dafFAd38F04,App,Other Category,0x613f54c8836fd2c09b910869ac9d4de5e49db1d8,Optimism,token_contract,14.0,57.0,10.0,31.0,2.0,6.0,0.0,0.0,https://optimistic.etherscan.io/address/0x613f54c8836fd2c09b910869ac9d4de5e49db1d8
898711ea-098f-4488-895c-828b5cabcddd,Beefy,0xEfCCa47CD11D4b1637e4d52a84Ed5dafFAd38F04,App,Other Category,0x4eff281247576ec156d7271c46d9ef0f43c6c265,Optimism,unknown,,,,,,,,,https://optimistic.etherscan.io/address/0x4eff281247576ec156d7271c46d9ef0f43c6c265
8a5d9ed0-58fe-46d3-9c73-7281af16e612,Beefy,0xEfCCa47CD11D4b1637e4d52a84Ed5dafFAd38F04,App,Other Category,0x2232455bf4622002c1416153ee59fd32b239863b,Optimism,token_contract,4.0,15.0,3.0,10.0,1.0,4.0,0.0,0.0,https://optimistic.etherscan.io/address/0x2232455bf4622002c1416153ee59fd32b239863b
8b2b66ea-5775-421c-822f-95626b95dd83,Beefy,0xEfCCa47CD11D4b1637e4d52a84Ed5dafFAd38F04,App,Other Category,0x40324434a0b53dd1ed167ba30dcb6b4bd7a9536d,Optimism,token_contract,2.0,3.0,2.0,4.0,1.0,2.0,0.0,0.0,https://optimistic.etherscan.io/address/0x40324434a0b53dd1ed167ba30dcb6b4bd7a9536d
8e279249-b008-42e3-83a8-8334ffe64cf5,Beefy,0xEfCCa47CD11D4b1637e4d52a84Ed5dafFAd38F04,App,Other Category,0x25de69da4469a96974fae79d0c41366a63317fdc,Optimism,token_contract,64.0,254.0,33.0,89.0,3.0,12.0,0.0,1.0,https://optimistic.etherscan.io/address/0x25de69da4469a96974fae79d0c41366a63317fdc
934fd71d-4e66-48a6-8498-734ff260e8ce,Beefy,0xEfCCa47CD11D4b1637e4d52a84Ed5dafFAd38F04,App,Other Category,0x5d946a0efea185df89520ec0bee29d0c3295c447,Optimism,token_contract,2.0,16.0,2.0,10.0,1.0,2.0,0.0,0.0,https://optimistic.etherscan.io/address/0x5d946a0efea185df89520ec0bee29d0c3295c447
946ce23a-34fb-4a4b-a11a-309da444d13a,Beefy,0xEfCCa47CD11D4b1637e4d52a84Ed5dafFAd38F04,App,Other Category,0x62e5b9934dcb87618cfc74b222305d16c997e8c1,Base,token_contract,14374.0,28962.0,6576.0,10589.0,32.0,61.0,132.0,128.0,https://basescan.org/address/0x62e5b9934dcb87618cfc74b222305d16c997e8c1
94c62337-1d37-43e7-902b-089065025ab6,Beefy,0xEfCCa47CD11D4b1637e4d52a84Ed5dafFAd38F04,App,Other Category,0xb8ce10759feb3b63b75557f5f9933bd22127f0ec,Optimism,token_contract,35.0,172.0,34.0,110.0,15.0,36.0,0.0,1.0,https://optimistic.etherscan.io/address/0xb8ce10759feb3b63b75557f5f9933bd22127f0ec
97299943-d8f7-43b3-8972-db7151179fcf,Beefy,0xEfCCa47CD11D4b1637e4d52a84Ed5dafFAd38F04,App,Other Category,0x48ae9c58af01b3ddd522fc3e161ac4318964c4ee,Optimism,token_contract,2.0,4.0,2.0,5.0,1.0,1.0,0.0,0.0,https://optimistic.etherscan.io/address/0x48ae9c58af01b3ddd522fc3e161ac4318964c4ee
97cabf58-7c53-4a67-b012-c41089efca7d,Beefy,0xEfCCa47CD11D4b1637e4d52a84Ed5dafFAd38F04,App,Other Category,0xbc4a342b0c057501e081484a2d24e576e854f823,Base,factory_contract,21327.0,45532.0,8986.0,14851.0,502.0,895.0,178.0,194.0,https://basescan.org/address/0xbc4a342b0c057501e081484a2d24e576e854f823
9a388c97-2ef8-4672-9e6e-d0fbc32bed54,Beefy,0xEfCCa47CD11D4b1637e4d52a84Ed5dafFAd38F04,App,Other Category,0xff504594edd93e09309d5eab775e7c35f642931b,Optimism,token_contract,2.0,4.0,2.0,5.0,1.0,1.0,0.0,0.0,https://optimistic.etherscan.io/address/0xff504594edd93e09309d5eab775e7c35f642931b
a06d5c53-af11-4fdc-a1c1-0d586dbb6e16,Beefy,0xEfCCa47CD11D4b1637e4d52a84Ed5dafFAd38F04,App,Other Category,0x062f29e2b5bd99523dd3508207eb2c2cbaf98d50,Optimism,token_contract,3.0,4.0,4.0,4.0,3.0,3.0,0.0,0.0,https://optimistic.etherscan.io/address/0x062f29e2b5bd99523dd3508207eb2c2cbaf98d50
a13eef6d-d25a-4f41-b95d-028a110ef239,Beefy,0xEfCCa47CD11D4b1637e4d52a84Ed5dafFAd38F04,App,Other Category,0x3246893c1f8c1bf928121094ea4558c7b93bdc9a,Optimism,token_contract,,,,,,,,,https://optimistic.etherscan.io/address/0x3246893c1f8c1bf928121094ea4558c7b93bdc9a
a40d0ed6-10eb-4542-a749-6f5a99ebd0ba,Beefy,0xEfCCa47CD11D4b1637e4d52a84Ed5dafFAd38F04,App,Other Category,0x3532b6f723948ef39d5dcf44c16855239af81082,Optimism,token_contract,2.0,2.0,2.0,2.0,1.0,1.0,0.0,0.0,https://optimistic.etherscan.io/address/0x3532b6f723948ef39d5dcf44c16855239af81082
b0d81cb2-db15-44c5-bfd7-15d5051bb1a8,Beefy,0xEfCCa47CD11D4b1637e4d52a84Ed5dafFAd38F04,App,Other Category,0xbc4a342b0c057501e081484a2d24e576e854f823,Mode,dapp_contract,870.0,1154.0,418.0,471.0,149.0,168.0,7.0,4.0,https://explorer.mode.network/address/0xbc4a342b0c057501e081484a2d24e576e854f823
b1a4c561-f46d-4c2f-b8e1-f043e69cf579,Beefy,0xEfCCa47CD11D4b1637e4d52a84Ed5dafFAd38F04,App,Other Category,0xaf9dd4c1d755402868ffe2a0b7c0e8a6664a0f2f,Optimism,token_contract,,,,,,,,,https://optimistic.etherscan.io/address/0xaf9dd4c1d755402868ffe2a0b7c0e8a6664a0f2f
b37907c2-3ae7-49b1-9bf0-7c5ed1a65a9d,Beefy,0xEfCCa47CD11D4b1637e4d52a84Ed5dafFAd38F04,App,Other Category,0x0495a700407975b2641fa61aef5ccd0106f525cc,Optimism,token_contract,55.0,151.0,36.0,100.0,24.0,56.0,0.0,0.0,https://optimistic.etherscan.io/address/0x0495a700407975b2641fa61aef5ccd0106f525cc
b3825d79-10f7-4788-a437-5ffc6b53dc43,Beefy,0xEfCCa47CD11D4b1637e4d52a84Ed5dafFAd38F04,App,Other Category,0x9f7ed443f5c89b6f2d4fa361d55594e0387dbf57,Optimism,unknown,,,,,,,,,https://optimistic.etherscan.io/address/0x9f7ed443f5c89b6f2d4fa361d55594e0387dbf57
b38fe5e5-ebad-4b7e-8d3d-ac90ecc305c1,Beefy,0xEfCCa47CD11D4b1637e4d52a84Ed5dafFAd38F04,App,Other Category,0x81f2f132465ffb4b3c5d11f3d94582cc5c281c04,Optimism,token_contract,2.0,15.0,2.0,10.0,1.0,3.0,0.0,0.0,https://optimistic.etherscan.io/address/0x81f2f132465ffb4b3c5d11f3d94582cc5c281c04
b3b0a312-beea-4314-bea0-7ce02e412486,Beefy,0xEfCCa47CD11D4b1637e4d52a84Ed5dafFAd38F04,App,Other Category,0xcadc68d5834898d54929e694ed19e833e0117694,Optimism,token_contract,17.0,54.0,9.0,30.0,6.0,17.0,0.0,0.0,https://optimistic.etherscan.io/address/0xcadc68d5834898d54929e694ed19e833e0117694
bec1f575-a3cd-4faa-a7ec-02a3c6bde686,Beefy,0xEfCCa47CD11D4b1637e4d52a84Ed5dafFAd38F04,App,Other Category,0xc9737c178d327b410068a1d0ae2d30ef8e428754,Optimism,token_contract,8.0,38.0,7.0,22.0,1.0,4.0,0.0,0.0,https://optimistic.etherscan.io/address/0xc9737c178d327b410068a1d0ae2d30ef8e428754
bf656d95-e89a-439a-968e-80e6b96902b2,Beefy,0xEfCCa47CD11D4b1637e4d52a84Ed5dafFAd38F04,App,Other Category,0xe2f035f59de6a952ff699b4edd0f99c466f25fec,Optimism,token_contract,3.0,47.0,4.0,41.0,1.0,6.0,0.0,0.0,https://optimistic.etherscan.io/address/0xe2f035f59de6a952ff699b4edd0f99c466f25fec
cf970c70-7eb9-488f-8994-83b3d7c6e9a6,Beefy,0xEfCCa47CD11D4b1637e4d52a84Ed5dafFAd38F04,App,Other Category,0x8e829cfc629fcb61c1508a54d232af4612e48cc9,Optimism,token_contract,6.0,18.0,6.0,10.0,1.0,3.0,0.0,0.0,https://optimistic.etherscan.io/address/0x8e829cfc629fcb61c1508a54d232af4612e48cc9
d72afd9a-db75-4fc8-a6c4-f8b65cb3a653,Beefy,0xEfCCa47CD11D4b1637e4d52a84Ed5dafFAd38F04,App,Other Category,0xfc7a31e1c5c3846d36e49223fae905e28315c1e0,Optimism,token_contract,,,,,,,,,https://optimistic.etherscan.io/address/0xfc7a31e1c5c3846d36e49223fae905e28315c1e0
d8d537b2-b0ce-42a2-8216-2f1f82e34daa,Beefy,0xEfCCa47CD11D4b1637e4d52a84Ed5dafFAd38F04,App,Other Category,0x1a00e13cd8cbc61c8c342afd46592f4234172005,Optimism,token_contract,,,,,,,,,https://optimistic.etherscan.io/address/0x1a00e13cd8cbc61c8c342afd46592f4234172005
dc0cb646-7439-4d21-9ce7-5f42004122db,Beefy,0xEfCCa47CD11D4b1637e4d52a84Ed5dafFAd38F04,App,Other Category,0xe536f8141d8eb7b1f096934af3329cb581bfe995,Optimism,token_contract,13.0,125.0,12.0,97.0,7.0,26.0,0.0,0.0,https://optimistic.etherscan.io/address/0xe536f8141d8eb7b1f096934af3329cb581bfe995
ddc12c53-47c7-44ff-a8f1-b27be7d780eb,Beefy,0xEfCCa47CD11D4b1637e4d52a84Ed5dafFAd38F04,App,Other Category,0x448423356726dd7dc168e714c80addb077f83738,Optimism,token_contract,2.0,17.0,2.0,8.0,1.0,2.0,0.0,0.0,https://optimistic.etherscan.io/address/0x448423356726dd7dc168e714c80addb077f83738
de34f8f7-9636-4bcc-93dd-0db3f4367405,Beefy,0xEfCCa47CD11D4b1637e4d52a84Ed5dafFAd38F04,App,Other Category,0xcccebc4551ff20aca4e0356dad8875806ce8df10,Optimism,unknown,,,,,,,,,https://optimistic.etherscan.io/address/0xcccebc4551ff20aca4e0356dad8875806ce8df10
e9a46dba-84a4-41e6-aece-0fe99a8efb74,Beefy,0xEfCCa47CD11D4b1637e4d52a84Ed5dafFAd38F04,App,Other Category,0x92651e1bbfe0f8423119afc4b0610c747fa125a1,Optimism,token_contract,40.0,177.0,21.0,63.0,5.0,13.0,0.0,0.0,https://optimistic.etherscan.io/address/0x92651e1bbfe0f8423119afc4b0610c747fa125a1
e9bf025c-f80c-4a3d-b556-adaa1196cb47,Beefy,0xEfCCa47CD11D4b1637e4d52a84Ed5dafFAd38F04,App,Other Category,0x7ee71053102d54fc843baebaf07277c2b6db64f1,Optimism,token_contract,130.0,306.0,127.0,278.0,32.0,71.0,2.0,2.0,https://optimistic.etherscan.io/address/0x7ee71053102d54fc843baebaf07277c2b6db64f1
ebea4582-2442-44f7-904c-bc453c9ee202,Beefy,0xEfCCa47CD11D4b1637e4d52a84Ed5dafFAd38F04,App,Other Category,0x28f4cc9552f578b5c6e3a9204d6277cba49a9416,Optimism,token_contract,,,,,,,,,https://optimistic.etherscan.io/address/0x28f4cc9552f578b5c6e3a9204d6277cba49a9416
ee3d3bb1-e3cd-403a-bd75-dfc568ce49bf,Beefy,0xEfCCa47CD11D4b1637e4d52a84Ed5dafFAd38F04,App,Other Category,0xb708038c1b4cf9f91ccb918dad1b9fd757ada5c1,Optimism,token_contract,2.0,24.0,2.0,14.0,1.0,4.0,0.0,0.0,https://optimistic.etherscan.io/address/0xb708038c1b4cf9f91ccb918dad1b9fd757ada5c1
ef6fef12-f54b-490b-b876-a6483a839f0d,Beefy,0xEfCCa47CD11D4b1637e4d52a84Ed5dafFAd38F04,App,Other Category,0x0892a178c363b4739e5ac89e9155b9c30214c0c0,Optimism,token_contract,39.0,168.0,20.0,59.0,1.0,4.0,0.0,0.0,https://optimistic.etherscan.io/address/0x0892a178c363b4739e5ac89e9155b9c30214c0c0
f01aa08d-95e8-4ce0-b3dd-96b3cce9d328,Beefy,0xEfCCa47CD11D4b1637e4d52a84Ed5dafFAd38F04,App,Other Category,0x79149b500f0d796aa7f85e0170d16c7e79bad3c5,Optimism,token_contract,5575.0,14224.0,4538.0,10162.0,4310.0,7340.0,55.0,69.0,https://optimistic.etherscan.io/address/0x79149b500f0d796aa7f85e0170d16c7e79bad3c5
f3e64503-ac75-4eb7-8d55-46c0ec60d638,Beefy,0xEfCCa47CD11D4b1637e4d52a84Ed5dafFAd38F04,App,Other Category,0x7bc78990ac1ef0754cfde935b2d84e9acf13ed29,Base,factory_contract,1712.0,1712.0,1067.0,1067.0,113.0,113.0,16.0,8.0,https://basescan.org/address/0x7bc78990ac1ef0754cfde935b2d84e9acf13ed29
fabc27af-e1be-4107-b877-9e38c05e4675,Beefy,0xEfCCa47CD11D4b1637e4d52a84Ed5dafFAd38F04,App,Other Category,0x01d9cfb8a9d43013a1fdc925640412d8d2d900f0,Optimism,token_contract,2.0,7.0,2.0,6.0,1.0,1.0,0.0,0.0,https://optimistic.etherscan.io/address/0x01d9cfb8a9d43013a1fdc925640412d8d2d900f0
dda6e3ea-38b3-44e8-ae16-2383d8918203,Bend,0x842dff65E92cAEcc462D92FcE91ee565dD22c2C9,App,Payments,0x3fb7476ca9b424cff1156267eca49eb878db0b80,Base,factory_contract,610.0,856.0,4.0,5.0,1.0,2.0,0.0,0.0,https://basescan.org/address/0x3fb7476ca9b424cff1156267eca49eb878db0b80
5523b0e7-3038-46cc-9218-5f5e52042b14,BerryLab,0x76a71d7D72d746B20187461baCE98806ebBa652f,App,Other Category,0x4c3de014695f6330aa8e58731084424ef7ff78fb,Base,dapp_contract,129.0,129.0,106.0,106.0,79.0,79.0,1.0,0.0,https://basescan.org/address/0x4c3de014695f6330aa8e58731084424ef7ff78fb
8bd5539d-ef65-4f2c-9014-3fc11620f12f,BetBase,0x013437412c41716f72B54fE66d7c11858aFe4894,App,Betting & Prediction Markets,0x80f6bcedd3d4fa1035285affa30e38f464db3895,Base,token_contract,12901.0,32785.0,2146.0,4295.0,224.0,496.0,60.0,68.0,https://basescan.org/address/0x80f6bcedd3d4fa1035285affa30e38f464db3895
5225cd1b-ea62-411e-afc6-8b0b28164186,Bitmon ,0x18C18eFB421B205a77d5cE858eb640059542F6a5,App,Community & Curation,0x684f866bb78bdd2def3474152ca3426cdc9c8d4a,Cyber,pending_cyber,1424017.0,1424017.0,86939.0,86939.0,1.0,1.0,2920.0,1460.0,https://cyberscan.co/address/0x684f866bb78bdd2def3474152ca3426cdc9c8d4a
f921c6a9-824a-4423-a35e-dcb31fa996d7,Bitsave Protocol,0x9DCbA70B2dfe5807e2A847E065EBb666791F8b8A,App,Other Category,0x01f0443daec78fbabb2d0927fedff5c20a4a39b5,Lisk,pending_lisk,,,,,,,,,https://blockscout.lisk.com/address/0x01f0443daec78fbabb2d0927fedff5c20a4a39b5
ac2dbb86-c2b4-4994-88ce-c77fa6b84c0f,BLOBz,0x0000000000000000000000000000000000000000,App,Meme Community,0x128a1e35398c72a9a060f482963f594752beccef,Optimism,dapp_contract,303.0,15599.0,129.0,14922.0,5.0,2008.0,1.0,84.0,https://optimistic.etherscan.io/address/0x128a1e35398c72a9a060f482963f594752beccef
e2f98d69-e781-4535-a13a-c779988cd03c,BLOBz on Base,0x0000000000000000000000000000000000000000,App,Art NFTs,0x28e43bb3ee202e1da587c88b0a8398309e8d4c2d,Base,dapp_contract,40.0,16008.0,36.0,15222.0,16.0,2569.0,0.0,86.0,https://basescan.org/address/0x28e43bb3ee202e1da587c88b0a8398309e8d4c2d
e077e5b8-7fa9-4ea1-b2b2-0cc8f4e498b2,BLOBz on Mode,0x0000000000000000000000000000000000000000,App,Art NFTs,0x4cbda159d77eddce9eba4b8ecddba88040bb3f6f,Mode,dapp_contract,3.0,15328.0,2.0,7651.0,2.0,1193.0,0.0,42.0,https://explorer.mode.network/address/0x4cbda159d77eddce9eba4b8ecddba88040bb3f6f
3a90aec1-27a2-4632-aca3-1e7f35a8f06e,BLOBz on Zora,0x0000000000000000000000000000000000000000,App,Art NFTs,0x28e43bb3ee202e1da587c88b0a8398309e8d4c2d,Zora,dapp_contract,18.0,13310.0,17.0,12459.0,12.0,2218.0,0.0,70.0,https://zora.thesuperscan.io/address/0x28e43bb3ee202e1da587c88b0a8398309e8d4c2d
004e7e42-5b96-47fd-a041-a30871fbe11e,BLOCKLORDS,0x460464c72E010A805043195c56690347f67BE746,App,Gaming,0x10d10a2687f040ab174603aeaeaabfef8b258f39,Base,trace_contract,34430.0,34430.0,5724.0,5724.0,1.0,1.0,111.0,55.0,https://basescan.org/address/0x10d10a2687f040ab174603aeaeaabfef8b258f39
05d53917-0603-43a1-b241-8698bb9280ac,BLOCKLORDS,0x460464c72E010A805043195c56690347f67BE746,App,Gaming,0xc62e6e622df9dbd5a101ff24473aaa3b769c434f,Base,trace_contract,141.0,141.0,37.0,37.0,1.0,1.0,0.0,0.0,https://basescan.org/address/0xc62e6e622df9dbd5a101ff24473aaa3b769c434f
0d9b31cc-c2ef-41c3-8ba0-dea4a3a37de1,BLOCKLORDS,0x460464c72E010A805043195c56690347f67BE746,App,Gaming,0x0982b3a5b24b2bd8ef74126e15fca2decfd75a28,Base,trace_contract,18394944.0,18394964.0,1219325.0,1219328.0,22.0,22.0,38978.0,19489.0,https://basescan.org/address/0x0982b3a5b24b2bd8ef74126e15fca2decfd75a28
1039bd70-c8fb-43fa-a01c-d183b08a10c8,BLOCKLORDS,0x460464c72E010A805043195c56690347f67BE746,App,Gaming,0x017405a2de0613e12cd3d7b67e691bfefc46debf,Base,trace_contract,13202727.0,13202731.0,667338.0,667339.0,1.0,1.0,30817.0,15408.0,https://basescan.org/address/0x017405a2de0613e12cd3d7b67e691bfefc46debf
45ca9db5-1b98-4e3a-9999-09f69ec6631c,BLOCKLORDS,0x460464c72E010A805043195c56690347f67BE746,App,Gaming,0xc18ee20eafbf11776e51dbbfca149262c7b9457a,Base,trace_contract,23614.0,23614.0,3.0,3.0,1.0,1.0,0.0,0.0,https://basescan.org/address/0xc18ee20eafbf11776e51dbbfca149262c7b9457a
49c9b843-5d3d-4dde-98ba-7e001dca5c7f,BLOCKLORDS,0x460464c72E010A805043195c56690347f67BE746,App,Gaming,0x0bbd06ff6c3dcb4d5c2dfeec55fcd5d0a7ffa953,Base,trace_contract,60431.0,60431.0,6007.0,6007.0,1.0,1.0,141.0,70.0,https://basescan.org/address/0x0bbd06ff6c3dcb4d5c2dfeec55fcd5d0a7ffa953
532b548b-1e3c-4582-bdc2-f7900a8d1a79,BLOCKLORDS,0x460464c72E010A805043195c56690347f67BE746,App,Gaming,0x56f60b8e327dc8f580f4ad3ebd675cb818beac75,Base,trace_contract,347432.0,347445.0,7690.0,7692.0,1.0,1.0,230.0,115.0,https://basescan.org/address/0x56f60b8e327dc8f580f4ad3ebd675cb818beac75
6d241ba1-8328-41ad-8f3b-712509f5b150,BLOCKLORDS,0x460464c72E010A805043195c56690347f67BE746,App,Gaming,0x854d05fb618fe81c8aeb0d6b03bc957ce409d5bc,Base,trace_contract,115765.0,115769.0,1595.0,1596.0,1.0,1.0,86.0,43.0,https://basescan.org/address/0x854d05fb618fe81c8aeb0d6b03bc957ce409d5bc
8185bfc1-5b24-4d67-87f6-3c630da1d34f,BLOCKLORDS,0x460464c72E010A805043195c56690347f67BE746,App,Gaming,0x7a7c9b6bc271f7d02bf039e92ade4984db7ec5f7,Base,trace_contract,34565.0,34574.0,619.0,622.0,1.0,1.0,20.0,10.0,https://basescan.org/address/0x7a7c9b6bc271f7d02bf039e92ade4984db7ec5f7
b76bef3b-9a68-474a-b1ca-3f6a7bc30c2e,BLOCKLORDS,0x460464c72E010A805043195c56690347f67BE746,App,Gaming,0xa5eae9b57ce5f22785263223eee03fcad2e4cd76,Base,trace_contract,1218976.0,1218977.0,1218976.0,1218977.0,1.0,1.0,13544.0,6772.0,https://basescan.org/address/0xa5eae9b57ce5f22785263223eee03fcad2e4cd76
e453a6bd-98fc-4e91-880f-b7593003ac65,BLOCKLORDS,0x460464c72E010A805043195c56690347f67BE746,App,Gaming,0x80625310db240631a91f61659ccc550ea9761742,Base,trace_contract,10404476.0,10404482.0,666889.0,666892.0,1.0,1.0,31079.0,15540.0,https://basescan.org/address/0x80625310db240631a91f61659ccc550ea9761742
ff7d4b80-83b7-4c59-93da-5b2524195dc9,BLOCKLORDS,0x460464c72E010A805043195c56690347f67BE746,App,Gaming,0xb676f87a6e701f0de8de5ab91b56b66109766db1,Base,token_contract,2.0,2.0,2.0,2.0,1.0,1.0,0.0,0.0,https://basescan.org/address/0xb676f87a6e701f0de8de5ab91b56b66109766db1
a622ebca-d695-487e-adc9-931372135973,BMX by Morphex,0xB1dD2Fdb023cB54b7cc2a0f5D9e8d47a9F7723ce,App,DEX,0x927f9c03d1ac6e2630d31e614f226b5ed028d443,Base,trace_contract,12148.0,29649.0,130.0,269.0,11.0,42.0,15.0,16.0,https://basescan.org/address/0x927f9c03d1ac6e2630d31e614f226b5ed028d443
094ee083-01d1-41f8-81c6-3fe33232a8c7,BMX,0xB1dD2Fdb023cB54b7cc2a0f5D9e8d47a9F7723ce,App,DEX,0xf9fc0b2859f9b6d33fd1cea5b0a9f1d56c258178,Base,dapp_contract,479.0,1031.0,49.0,72.0,3.0,11.0,2.0,1.0,https://basescan.org/address/0xf9fc0b2859f9b6d33fd1cea5b0a9f1d56c258178
5569f166-7c5c-4cdf-a11b-5a4280086a5a,BMX,0xB1dD2Fdb023cB54b7cc2a0f5D9e8d47a9F7723ce,App,DEX,0xc608188e753b1e9558731724b7f7cdde40c3b174,Base,trace_contract,16219.0,38876.0,397.0,826.0,167.0,222.0,14.0,14.0,https://basescan.org/address/0xc608188e753b1e9558731724b7f7cdde40c3b174
6a1f5979-e9ab-4971-a7ec-80ce58ad15d6,BMX,0xB1dD2Fdb023cB54b7cc2a0f5D9e8d47a9F7723ce,App,DEX,0x1e4eed8fd57dfbaae060f894582ec0183c5d6e38,Base,dapp_contract,88332.0,157710.0,3.0,3.0,2.0,2.0,2.0,2.0,https://basescan.org/address/0x1e4eed8fd57dfbaae060f894582ec0183c5d6e38
78b87055-ab6e-4fea-8808-d78eaadc2d3f,BMX,0xB1dD2Fdb023cB54b7cc2a0f5D9e8d47a9F7723ce,App,DEX,0x4e74d4db6c0726ccded4656d0bce448876bb4c7a,Base,token_contract,55520.0,107154.0,3660.0,5592.0,617.0,1175.0,136.0,132.0,https://basescan.org/address/0x4e74d4db6c0726ccded4656d0bce448876bb4c7a
8e44e5b4-87ae-4d63-96eb-b0849eb394ad,BMX,0xB1dD2Fdb023cB54b7cc2a0f5D9e8d47a9F7723ce,App,DEX,0x548f93779fbc992010c07467cbaf329dd5f059b7,Base,token_contract,33954.0,62965.0,3427.0,5844.0,529.0,1098.0,116.0,109.0,https://basescan.org/address/0x548f93779fbc992010c07467cbaf329dd5f059b7
954f07a8-715d-415f-a211-0602eaeac7d2,BMX,0xB1dD2Fdb023cB54b7cc2a0f5D9e8d47a9F7723ce,App,DEX,0x6d63921d8203044f6abad8f346d3aea9a2719ddd,Base,dapp_contract,9736.0,10320.0,89.0,109.0,22.0,24.0,7.0,4.0,https://basescan.org/address/0x6d63921d8203044f6abad8f346d3aea9a2719ddd
fb221b04-388b-4bb2-be7b-fc95dfc13e51,BMX,0xB1dD2Fdb023cB54b7cc2a0f5D9e8d47a9F7723ce,App,DEX,0x6456039168d3fe3bc5fcd9e46f3b716c1abd4ff4,Base,dapp_contract,877.0,2706.0,178.0,385.0,24.0,50.0,7.0,10.0,https://basescan.org/address/0x6456039168d3fe3bc5fcd9e46f3b716c1abd4ff4
1edae47f-c33a-43a3-8a8a-b9162a565560,Bonadocs ,0x094d9F5eB1198ebe30F94841509a77a165f16ab4,Other Application,Other Category,0x9d190f733c863dd50be3a12c4b5185a734e8589a,Optimism,unknown,,,,,,,,,https://optimistic.etherscan.io/address/0x9d190f733c863dd50be3a12c4b5185a734e8589a
22a0a8ea-0acf-4669-9d8d-d0cfa10e1104,Bond,0x16420FC422F1Ae747Cc6BbC7075C466efBA07b4d,App,Meme Community,0x35706dfbe28425dc831af3517b41b176e009cd0d,Base,trace_contract,460.0,526.0,75.0,108.0,1.0,1.0,2.0,1.0,https://basescan.org/address/0x35706dfbe28425dc831af3517b41b176e009cd0d
0674ed13-3026-4dad-9565-b522a40c8eff,Bored Town,0x9D63038e7f74bc089eb38e61Be8Da937918900D6,App,Art NFTs,0x28e43bb3ee202e1da587c88b0a8398309e8d4c2d,Optimism,dapp_contract,,,,,,,,,https://optimistic.etherscan.io/address/0x28e43bb3ee202e1da587c88b0a8398309e8d4c2d
b6dff2cb-33fa-449a-8434-6ef6ea5624c6,Boregon Trail,0x0c9E725902f2eeEC063c16d253F38684E3192001,App,Gaming,0x70737489dfdf1a29b7584d40500d3561bd4fe196,Base,token_contract,74768.0,183331.0,2648.0,19870.0,995.0,6583.0,75.0,234.0,https://basescan.org/address/0x70737489dfdf1a29b7584d40500d3561bd4fe196
74068a98-86e1-412c-8e44-c3602d55b284,BSX,0x974dD3B4e5E00BC3117Fbba15E521B6B5aFC151C,App,DEX,0x26a54955a5fb9472d3edfeac9b8e4c0ab5779ed3,Base,dapp_contract,45764.0,58333.0,130.0,1032.0,30.0,154.0,3.0,9.0,https://basescan.org/address/0x26a54955a5fb9472d3edfeac9b8e4c0ab5779ed3
9833b9ba-50c0-4119-a480-1815f0b8fd3f,BUILD,0xC925bD0E839E8e22A7DDEbe7f4C21b187deeC358,App,Community & Curation,0x3c281a39944a2319aa653d81cfd93ca10983d234,Base,token_contract,236731.0,388406.0,50356.0,61979.0,35435.0,39608.0,871.0,655.0,https://basescan.org/address/0x3c281a39944a2319aa653d81cfd93ca10983d234
7f2d11e3-2b97-4e36-b732-ac349ed2f1c7,BUZZAR,0x9dE1C45449258a21B51fe69eB6cef1Fd71E459a4,App,Donations,0xc1b6844d5134c8e550043f01ffbf49ca66efc77f,Base,token_contract,209.0,333.0,68.0,77.0,2.0,3.0,2.0,1.0,https://basescan.org/address/0xc1b6844d5134c8e550043f01ffbf49ca66efc77f
7c031575-b308-4dd8-901d-70dd45c9a29f,CantinaVerse,0x0cE9e1336158d6600C11DA0610A3282b82817834,App,Art Marketplace,0xd19fd90fd1e0e0e4399d341deaefe18de5565bfd,Optimism,unknown,,,,,,,,,https://optimistic.etherscan.io/address/0xd19fd90fd1e0e0e4399d341deaefe18de5565bfd
ed6040e7-515a-436e-ab8b-869011a58f00,CantinaVerse,0x0cE9e1336158d6600C11DA0610A3282b82817834,App,Art Marketplace,0xa999dc0749657e77ac3216d8fa6be16874f8e50c,Base,unknown,,,,,,,,,https://basescan.org/address/0xa999dc0749657e77ac3216d8fa6be16874f8e50c
77e31db9-a73e-4aad-a8eb-694bd5c0ae54,Cat Town | Gacha,0xf40eD759BF4C05DF1Af180FE27d470E52D7ca611,App,Gaming,0xb75ff8958891ccf264dab717ccd9722acc939f0d,Base,trace_contract,147.0,147.0,10.0,10.0,4.0,4.0,0.0,0.0,https://basescan.org/address/0xb75ff8958891ccf264dab717ccd9722acc939f0d
2501e7cb-57f8-4e70-ac38-bcf8efdeae08,Cat Town,0xa6BeE3f99eE2b70672A34A983AF0bBF79C028CD9,App,Gaming,0x8f9c456c928a33a3859fa283fb57b23c908fe843,Base,trace_contract,357365.0,382970.0,4229.0,4246.0,157.0,160.0,110.0,57.0,https://basescan.org/address/0x8f9c456c928a33a3859fa283fb57b23c908fe843
3838464c-4733-491d-8c02-6c4cad6d53b1,Cat Town,0xa6BeE3f99eE2b70672A34A983AF0bBF79C028CD9,App,Gaming,0x10a77395a07917c5eb71feeb86696b7612f9730f,Base,dapp_contract,79874.0,89682.0,4285.0,4462.0,324.0,343.0,696.0,394.0,https://basescan.org/address/0x10a77395a07917c5eb71feeb86696b7612f9730f
60263648-dc1a-4778-85a6-66d6ba111304,Cat Town | Supermarket,0xf40eD759BF4C05DF1Af180FE27d470E52D7ca611,App,Gaming,0xa27aaf29f94c40589e7fb523c96b5e03311dff4f,Base,unknown,,,,,,,,,https://basescan.org/address/0xa27aaf29f94c40589e7fb523c96b5e03311dff4f
1e90433c-90da-444b-a9c0-7f2a50caf423,CC: App Type 8.20.24,0x265985d0a57A4339509cd785f854668055924AF5,App,Other Media NFTs,0xe0fe6dd851187c62a79d00a211953fe3b5cec7fe,Base,dapp_contract,24515.0,24515.0,22132.0,22132.0,2978.0,2978.0,256.0,128.0,https://basescan.org/address/0xe0fe6dd851187c62a79d00a211953fe3b5cec7fe
e54a93fb-ec4c-482f-9765-e67d7b84bf87,Chainnode,0xFf0A5E35E2400d7f0610d8Ae2Eda108366C9a5C2,App,Other Category,0x35b107de530d75d730bda32ffe7d72a1be41474b,SwanChain,pending_swanchain,,,,,,,,,https://mainnet-explorer.swanchain.io/address/0x35b107de530d75d730bda32ffe7d72a1be41474b
5f081f0e-9834-449a-b748-fa86bcfd08c7,Charged Particles - Web3 Packs,0x75F2Ef654919CA7fd03E73BfDF60b9460e5cDE8D,App,Other Category,0x2c1ef27186ae0d306c195b40c8907eef7586f388,Mode,dapp_contract,65.0,65.0,23.0,23.0,11.0,11.0,0.0,0.0,https://explorer.mode.network/address/0x2c1ef27186ae0d306c195b40c8907eef7586f388
649e921b-3f19-4a5a-8d8e-6a42508c2741,Checkin: Location-based “Checkin and Earn” social to connect IRL and onchain,0x357843d6d1ECE85ABA4032EfA31a2e813F519261,App,Gaming,0x224b2491f28f4a6bde6b515b2371136fe38f5ba2,Base,dapp_contract,1922.0,1922.0,320.0,320.0,310.0,310.0,4.0,2.0,https://basescan.org/address/0x224b2491f28f4a6bde6b515b2371136fe38f5ba2
9ebf0214-b40d-4310-83ed-acc1f7b2d456,Chibi Clash Kingdoms,0xcFF7542c8D9B260f0E4D96d3a330b1B42018BAeF,Other Application,Gaming,0x0feea4e2ddaca247c0b81f69139b34e276aff966,Base,trace_contract,2184.0,2606.0,306.0,306.0,55.0,55.0,6.0,3.0,https://basescan.org/address/0x0feea4e2ddaca247c0b81f69139b34e276aff966
aa0baef9-7dda-4cf5-a235-b2a8265a0ce2,Clutch,0xb6A2Db1a7bE6d7C41f397f49dfB258468580f33E,App,Gaming,0xe84ccdd7bc243a021df06a2062785d933c0ca274,Kroma,pending_kroma,36653.0,36653.0,30492.0,30492.0,120.0,120.0,368.0,184.0,https://kromascan.com/address/0xe84ccdd7bc243a021df06a2062785d933c0ca274
cb6ef65c-3136-4af7-9be1-c993d8789376,Collectr,0x08D816526BdC9d077DD685Bd9FA49F58A5Ab8e48,App,Art NFTs,0x5d594f484fd286e77363ef5c1deac44d255b5484,Base,dapp_contract,217.0,217.0,164.0,164.0,57.0,57.0,2.0,1.0,https://basescan.org/address/0x5d594f484fd286e77363ef5c1deac44d255b5484
96eacee2-22ed-498e-9423-3ed4a545c1b1,Comet Protocol,0x5D06A3EDC921B5F69bE1D21b66A5160C3b5e2856,App,Bridges,0xb50ac92d6d8748ac42721c25a3e2c84637385a6b,Mint,pending_mint,3.0,57.0,2.0,43.0,1.0,12.0,0.0,0.0,https://explorer.mintchain.io/address/0xb50ac92d6d8748ac42721c25a3e2c84637385a6b
c34b5ac9-9ccc-44ea-81a7-86b2971dce51,coNFT,0xb4D0E8Be45395E72e9C1aF25f59d854bc7Dc5B48,App,Art Marketplace,0x7990414a50e306972b54f7d1c8a58fb1da4315c3,Mint,pending_mint,,,,,,,,,https://explorer.mintchain.io/address/0x7990414a50e306972b54f7d1c8a58fb1da4315c3
724e08e7-f5dd-4dcd-bb4f-cf50045c4d53,Coop Records Music,0x512b55b00d744fC2eDB8474f223a7498c3e5a7ce,Other Application,Other Media NFTs,0xb791556273b26389bcb4865db028898f125e4319,Base,dapp_contract,2.0,208.0,2.0,119.0,2.0,94.0,0.0,0.0,https://basescan.org/address/0xb791556273b26389bcb4865db028898f125e4319
1f2e7de2-fd5e-4df9-ba8c-f37e1bec64fd,Copin.io,0xcb8515FD5A82e9aCf0c4A96959504ffcAB891B97,App,DEX,0xb27a14fa98608a95d81c22023f09648f2cb714c2,Optimism,trace_contract,44.0,1271.0,9.0,862.0,1.0,3.0,0.0,5.0,https://optimistic.etherscan.io/address/0xb27a14fa98608a95d81c22023f09648f2cb714c2
10d1b5dc-de39-4529-a9d8-d08517d87c8c,CryptoRank Token & NFT Bridge,0x0000000000000000000000000000000000000000,App,Other Media NFTs,0x80f1483f117c8eb82748f707d4447fad30086d30,Base,dapp_contract,8273.0,20987.0,3856.0,10238.0,625.0,2554.0,47.0,61.0,https://basescan.org/address/0x80f1483f117c8eb82748f707d4447fad30086d30
1986d0d8-3cfc-4685-899e-909464944ae5,Crypto: The Game S2,0xc446b8Dee9721C1E28A2Cd2E010bcAd7e3BC5909,App,Gaming,0x3abb25038da5a6ee9f524cc16c7f7ec68db7eb3b,Base,factory_contract,24.0,1541.0,21.0,971.0,14.0,402.0,0.0,7.0,https://basescan.org/address/0x3abb25038da5a6ee9f524cc16c7f7ec68db7eb3b
7ffac1e8-4d34-4e95-b9a6-5bbe40ac81ff,Crypto: The Game S2,0xc446b8Dee9721C1E28A2Cd2E010bcAd7e3BC5909,App,Gaming,0x3abb25038da5a6ee9f524cc16c7f7ec68db7eb3b,Base,factory_contract,24.0,1541.0,21.0,971.0,14.0,402.0,0.0,7.0,https://basescan.org/address/0x3abb25038da5a6ee9f524cc16c7f7ec68db7eb3b
dcb7fb46-54dd-4887-954f-53c69f819f8e,Daimo,0xF05b5f04B7a77Ca549C0dE06beaF257f40C66FDB,App,Payments,0xf9d643f5645c6140b8eeb7ef42878b71ebfee40b,Base,factory_contract,1994.0,4000.0,16.0,26.0,5.0,8.0,1.0,1.0,https://basescan.org/address/0xf9d643f5645c6140b8eeb7ef42878b71ebfee40b
ad7d7772-20a5-4786-b34a-3df2cdbe2ff3,Da Performers,0x99Fc221482ca78664d0288FfC6531cb6dfEB0c5a,App,Gaming,0xafa0c0a5a706538c40031224b89d9a5ac6004c65,Base,dapp_contract,9.0,48.0,6.0,9.0,5.0,6.0,0.0,0.0,https://basescan.org/address/0xafa0c0a5a706538c40031224b89d9a5ac6004c65
d92e0972-0341-4f98-be52-a8735c28b725,Dark Forest Ares ,0xF7aa6f14f78a7Db6Deaa964bCdB20F492A81f9C0,Other Application,Gaming,0x962847b239b1103d4c8b4eb67bc663ac32a6aeb7,Redstone,pending_redstone,182688.0,182688.0,62.0,62.0,2.0,2.0,2.0,1.0,https://explorer.redstone.xyz/address/0x962847b239b1103d4c8b4eb67bc663ac32a6aeb7
78f0eac0-c56e-489c-a4e3-9c700ccf4ce8,datalatte,0x022541dF816F50CfC6ce60c9de80619F44f7CeF1,App,Frames,0x79e2b756f9c4c12bd8f80c0aeeb7b954e52ff23c,Base,dapp_contract,73.0,73.0,4.0,4.0,4.0,4.0,0.0,0.0,https://basescan.org/address/0x79e2b756f9c4c12bd8f80c0aeeb7b954e52ff23c
cc01681b-a6c3-45be-9230-d15eed63406a,Decentragora,0xe2665C6b02ea68e0Cf3eF1a74B88155EF10243a0,Other Application,Other Category,0x9839c0f5715bda074af1c6802cb9d157169c18d5,Optimism,unknown,,,,,,,,,https://optimistic.etherscan.io/address/0x9839c0f5715bda074af1c6802cb9d157169c18d5
6a11ad77-d1d4-47ce-ba2f-d89cf853fd00,Definitive Finance,0x9ff6d5452a0847949683F97E868d706254a05007,App,DEX,0xd056c0eee354b24fe7c5d4ee762c4d7574badac1,Base,trace_contract,84544.0,192280.0,170.0,515.0,1.0,1.0,9.0,14.0,https://basescan.org/address/0xd056c0eee354b24fe7c5d4ee762c4d7574badac1
95769850-e99b-4e7f-9aea-734c28df9401,Degen Deals,0xfBeB914c3C9B7a193C92De130A18716097478332,Other Application,Other Category,0xe31e85cbef95aec9bd7c056ec52da7a437b9d6fa,Optimism,unknown,,,,,,,,,https://optimistic.etherscan.io/address/0xe31e85cbef95aec9bd7c056ec52da7a437b9d6fa
c6bad58d-bae9-443d-baa4-40f2548a7e3c,Degenfans gated frames,0xBc57373c9B99524f6300664e2602A0427A9ec0db,App,Frames,0x66009decff7db78480bec8a87e042a7eb4bfd23b,Base,dapp_contract,23.0,23.0,17.0,17.0,16.0,16.0,0.0,0.0,https://basescan.org/address/0x66009decff7db78480bec8a87e042a7eb4bfd23b
6d5a0660-c0c9-4936-8621-406289645d2b,Degen Name Service,0x2462B983E444B317C999b85CE3BBa79840D36F76,App,Identity,0x465ea4967479a96d4490d575b5a6cc2b4a4bee65,Base,trace_contract,662.0,662.0,21.0,21.0,5.0,5.0,1.0,0.0,https://basescan.org/address/0x465ea4967479a96d4490d575b5a6cc2b4a4bee65
3ef45361-b5be-4fea-9ca7-841ca479a89f,Demo STG Project - Contract - Prelaunch,0x4A29c8fF7D6669618580A68dc691565B07b19e25,App,Real World Assets,0xe3c332a5dce0e1d9bc2cc72a68437790570c28a4,Optimism,token_contract,59.0,361.0,25.0,95.0,3.0,18.0,0.0,1.0,https://optimistic.etherscan.io/address/0xe3c332a5dce0e1d9bc2cc72a68437790570c28a4
a8d87029-6393-4e7b-9b48-1c0e2beb4c06,Derive (formerly Lyra),0x4cEa25e9c999E69F45765539783D149024f99F12,App,DEX,0xeb8d770ec18db98db922e9d83260a585b9f0dead,Optimism,unknown,,,,,,,,,https://optimistic.etherscan.io/address/0xeb8d770ec18db98db922e9d83260a585b9f0dead
e1020776-ad77-4f46-9736-180038ff0896,dHEDGE Base,0x5083602Bc796Ff1435769a4C66AFD482a4e6E08A,App,DEX,0x49afe3abcf66cf09fab86cb1139d8811c8afe56f,Base,trace_contract,13746.0,17213.0,109.0,163.0,3.0,5.0,9.0,7.0,https://basescan.org/address/0x49afe3abcf66cf09fab86cb1139d8811c8afe56f
3df2cd3b-06f9-42d3-8a5f-a8e5b377a127,dHEDGE,0x5083602Bc796Ff1435769a4C66AFD482a4e6E08A,App,DEX,0x5e61a079a178f0e5784107a4963baae0c5a680c6,Optimism,trace_contract,62298.0,76400.0,196.0,369.0,2.0,6.0,22.0,21.0,https://optimistic.etherscan.io/address/0x5e61a079a178f0e5784107a4963baae0c5a680c6
d9a17633-b5fc-47c8-a00f-6a0b89dadd67,doginme memecoin,0x330875BED67074B0c261Ec147Ab535806E21EE2D,Other Application,Meme Community,0x6921b130d297cc43754afba22e5eac0fbf8db75b,Base,token_contract,177363.0,500631.0,10739.0,39519.0,1434.0,5337.0,383.0,690.0,https://basescan.org/address/0x6921b130d297cc43754afba22e5eac0fbf8db75b
7184f549-29f4-47c2-bdef-d5c6d569f678,Dot,0xFE35e15bE885750D9b2363cbB6aBDd57AC9C4c40,App,Gaming,0xdc50bffdc67d3657e45aa9fe0d3d426d16b33ae7,Base,dapp_contract,17553.0,18936.0,1503.0,1511.0,67.0,69.0,20.0,10.0,https://basescan.org/address/0xdc50bffdc67d3657e45aa9fe0d3d426d16b33ae7
d43a073e-a744-43a7-804c-3e1c402c2c9a,Dragon Academy,0x8d17B248525EDB99cc36c4D458871aDC8B025cD0,App,Identity,0xcb1e86b32cf0b7f5949e829716408f6d6ab373fe,Base,dapp_contract,11.0,11.0,10.0,10.0,5.0,5.0,0.0,0.0,https://basescan.org/address/0xcb1e86b32cf0b7f5949e829716408f6d6ab373fe
da1a427e-de53-42d2-a8e1-92cc90c01a91,DUDEGEN,0x0000000000000000000000000000000000000000,App,Meme Community,0x5180621a9ada1c084d55a624d635150a5c59496b,Base,trace_contract,24795.0,24795.0,1300.0,1300.0,217.0,217.0,24.0,12.0,https://basescan.org/address/0x5180621a9ada1c084d55a624d635150a5c59496b
700f7d42-49f5-4a42-a75c-09fae7f20a6b,EFIHUB,0xbB08A11275989a00b0bFbEE807dfb5e18AA3d19B,App,Gaming,0x7580f82c279401f4d1f49fdae63396f306c4e859,Kroma,pending_kroma,22398.0,22510.0,16163.0,16187.0,2457.0,2466.0,208.0,104.0,https://kromascan.com/address/0x7580f82c279401f4d1f49fdae63396f306c4e859
ddbf8816-6804-4541-8e2a-1b99cd1a4d5a,EFIHUB,0xbB08A11275989a00b0bFbEE807dfb5e18AA3d19B,App,Gaming,0x2be665ab9b4507278b0965332a4d0907f7cffdc2,Base,dapp_contract,62.0,109.0,21.0,30.0,6.0,12.0,0.0,0.0,https://basescan.org/address/0x2be665ab9b4507278b0965332a4d0907f7cffdc2
7f55e01c-0242-4272-9d30-6c7109a1504e,Equalizer Exchange,0x0000000000000000000000000000000000000000,App,DEX,0x46abb88ae1f2a35ea559925d99fdc5441b592687,Base,dapp_contract,15098.0,34397.0,786.0,1316.0,66.0,137.0,83.0,103.0,https://basescan.org/address/0x46abb88ae1f2a35ea559925d99fdc5441b592687
e76e956b-4d97-4568-ab35-3f2753f37969,Ethereum Ecosystem,0xB03E094e643a50E145E804b35787C28292E6Afe4,App,Community & Curation,0x4200000000000000000000000000000000000021,Optimism,invalid_contract,,,,,,,,,https://optimistic.etherscan.io/address/0x4200000000000000000000000000000000000021
278bd0d9-4887-44bb-bbdd-37f88a5f0e6b,Event Horizon DEX,0x091Ce12B4592f1b434e597374BF6F054904F200A,App,DEX,0x948c634086661bda90cd15246ea4fe98b03530a2,Optimism,dapp_contract,46207.0,46224.0,45660.0,45677.0,5994.0,5997.0,510.0,255.0,https://optimistic.etherscan.io/address/0x948c634086661bda90cd15246ea4fe98b03530a2
3b2e3fce-6673-4e1d-8b7d-83431ad27ee6,Event Horizon DEX,0x091Ce12B4592f1b434e597374BF6F054904F200A,App,DEX,0x026968b5ced079eccd6cc78f35a5dfddc13f9af8,Optimism,dapp_contract,3157.0,3157.0,2373.0,2373.0,372.0,372.0,32.0,16.0,https://optimistic.etherscan.io/address/0x026968b5ced079eccd6cc78f35a5dfddc13f9af8
3bbe2463-0d9b-4d12-bf59-1eaab405e941,Event Horizon DEX,0x091Ce12B4592f1b434e597374BF6F054904F200A,App,DEX,0x7101f6810ee5af89bc669aff7684e3f3bf30d568,Optimism,dapp_contract,497.0,497.0,215.0,215.0,21.0,21.0,2.0,1.0,https://optimistic.etherscan.io/address/0x7101f6810ee5af89bc669aff7684e3f3bf30d568
4c5edadc-00b0-4063-a62c-fc768c164921,Event Horizon DEX,0x091Ce12B4592f1b434e597374BF6F054904F200A,App,DEX,0xa3afba1b88eab52db731ad1cf618ce5254b2592b,Optimism,dapp_contract,1780.0,1780.0,1765.0,1765.0,218.0,218.0,19.0,9.0,https://optimistic.etherscan.io/address/0xa3afba1b88eab52db731ad1cf618ce5254b2592b
578a22eb-31d1-47d4-90fe-516b380b588a,Event Horizon DEX,0x091Ce12B4592f1b434e597374BF6F054904F200A,App,DEX,0x459b604d9528a7de94d6bd2e1dc06907682ff6d6,Optimism,trace_contract,163055.0,163122.0,44.0,47.0,8.0,8.0,5.0,2.0,https://optimistic.etherscan.io/address/0x459b604d9528a7de94d6bd2e1dc06907682ff6d6
643b9cf2-c91b-4b10-9efc-3afa8beec654,Event Horizon DEX,0x091Ce12B4592f1b434e597374BF6F054904F200A,App,DEX,0x1dc046482737c267bc597a24cbb8404ccdc61705,Optimism,dapp_contract,897.0,897.0,897.0,897.0,108.0,108.0,9.0,4.0,https://optimistic.etherscan.io/address/0x1dc046482737c267bc597a24cbb8404ccdc61705
8280bdf5-79bf-4d5e-88c0-2ab18741e0f9,Event Horizon DEX,0x091Ce12B4592f1b434e597374BF6F054904F200A,App,DEX,0x5fb24bd9538e857bb65053f2623adeaeb6fca907,Optimism,dapp_contract,1115.0,1115.0,1115.0,1115.0,125.0,125.0,12.0,6.0,https://optimistic.etherscan.io/address/0x5fb24bd9538e857bb65053f2623adeaeb6fca907
8e56e88c-f02d-48cd-8208-9ebef2287d21,Event Horizon DEX,0x091Ce12B4592f1b434e597374BF6F054904F200A,App,DEX,0x4b2f4f777e043b470dae9a1bea4874f4be13c2bf,Optimism,trace_contract,1414.0,1414.0,512.0,512.0,53.0,53.0,6.0,3.0,https://optimistic.etherscan.io/address/0x4b2f4f777e043b470dae9a1bea4874f4be13c2bf
a8e6bf30-59cb-4b11-b938-8353effd846c,Event Horizon DEX,0x091Ce12B4592f1b434e597374BF6F054904F200A,App,DEX,0x1ee981c521f3c6cd520c0a30ef7a1d2910fdd057,Optimism,dapp_contract,50730.0,50748.0,49934.0,49952.0,4371.0,4374.0,558.0,279.0,https://optimistic.etherscan.io/address/0x1ee981c521f3c6cd520c0a30ef7a1d2910fdd057
baa4fa61-e1e8-4e5f-91a4-9fceb08796ff,Event Horizon DEX,0x091Ce12B4592f1b434e597374BF6F054904F200A,App,DEX,0x1ee981c521f3c6cd520c0a30ef7a1d2910fdd057,Optimism,dapp_contract,50730.0,50748.0,49934.0,49952.0,4371.0,4374.0,558.0,279.0,https://optimistic.etherscan.io/address/0x1ee981c521f3c6cd520c0a30ef7a1d2910fdd057
faf04b5f-abdb-463b-af10-138a6ca5d589,EVM Builder's Challenge,0xF40479CAd328803c418084f9E6f7407C2810c795,App,DEX,0xfecfbc1da8fb941c6838c470b8d4a10b3a16c10e,Base,unknown,,,,,,,,,https://basescan.org/address/0xfecfbc1da8fb941c6838c470b8d4a10b3a16c10e
d45949c7-7660-479f-86cb-62b87f2f39f8,Exactly Protocol,0xDf9F3B69A9E2B57B05d4720798E2DBD28ABf8092,Other Application,Lending,0xf9bab58ec88a3d452215a9609f065b94f13816ba,Optimism,unknown,,,,,,,,,https://optimistic.etherscan.io/address/0xf9bab58ec88a3d452215a9609f065b94f13816ba
05d2a0b5-d992-41f2-8084-08322192abc4,Extra Finance (Base),0x0000000000000000000000000000000000000000,App,Lending,0xff0af22b732cd437b0089969b707e7b22bca4116,Base,trace_contract,50279.0,51443.0,493.0,499.0,63.0,63.0,24.0,12.0,https://basescan.org/address/0xff0af22b732cd437b0089969b707e7b22bca4116
0eb3749d-9ea7-4c1c-9908-0e4fb4755975,Extra Finance (Base),0x0000000000000000000000000000000000000000,App,Lending,0x63aad522e182a1074a1a8205e40d75c20a9d0d04,Base,trace_contract,11505.0,11505.0,48.0,48.0,5.0,5.0,4.0,2.0,https://basescan.org/address/0x63aad522e182a1074a1a8205e40d75c20a9d0d04
10168062-e18c-4f91-a214-a126cd9f3cbc,Extra Finance (Base),0x0000000000000000000000000000000000000000,App,Lending,0x778441da950e82686191a24d9690c505341256ae,Base,trace_contract,75657.0,151823.0,317.0,640.0,15.0,48.0,18.0,18.0,https://basescan.org/address/0x778441da950e82686191a24d9690c505341256ae
136a42d8-4e02-4932-836c-aff33bb9bcbe,Extra Finance (Base),0x0000000000000000000000000000000000000000,App,Lending,0x291ee82e394557c2fa4e4bcb97b0a2af25a6c3fa,Base,token_contract,8990.0,14429.0,710.0,1043.0,33.0,61.0,26.0,22.0,https://basescan.org/address/0x291ee82e394557c2fa4e4bcb97b0a2af25a6c3fa
4087168d-f788-45ea-ad71-08105452abaf,Extra Finance (Base),0x0000000000000000000000000000000000000000,App,Lending,0xcbafa036638f9b128bed110420d4594353d03c55,Base,token_contract,12541.0,12744.0,1756.0,1765.0,117.0,117.0,40.0,20.0,https://basescan.org/address/0xcbafa036638f9b128bed110420d4594353d03c55
42097b50-47c5-45bb-8872-6f1c42c32663,Extra Finance (Base),0x0000000000000000000000000000000000000000,App,Lending,0x88f6e275dd40250782ff48c9b561c8a875934043,Base,trace_contract,94304.0,183157.0,745.0,1338.0,25.0,55.0,34.0,34.0,https://basescan.org/address/0x88f6e275dd40250782ff48c9b561c8a875934043
4802f118-d388-40ff-8625-2587830088b8,Extra Finance (Base),0x0000000000000000000000000000000000000000,App,Lending,0xc401a24ef266d98dcb882651e206f42d99fb2b3d,Optimism,unknown,,,,,,,,,https://optimistic.etherscan.io/address/0xc401a24ef266d98dcb882651e206f42d99fb2b3d
4d17dd6e-543e-4fd3-8b72-9070f0a9cd96,Extra Finance (Base),0x0000000000000000000000000000000000000000,App,Lending,0xb037bb52dfe4330d5db81cbeb775968b98e46198,Base,trace_contract,16695.0,32246.0,122.0,191.0,5.0,8.0,12.0,13.0,https://basescan.org/address/0xb037bb52dfe4330d5db81cbeb775968b98e46198
4f185f8a-50c9-44c0-b7c1-e918881df887,Extra Finance (Base),0x0000000000000000000000000000000000000000,App,Lending,0xe714870af8d0047d77129aa3de1606f5ac95ffa0,Base,token_contract,2560.0,2560.0,87.0,87.0,5.0,5.0,4.0,2.0,https://basescan.org/address/0xe714870af8d0047d77129aa3de1606f5ac95ffa0
548d8432-a50b-40a6-bba3-47b208636b79,Extra Finance (Base),0x0000000000000000000000000000000000000000,App,Lending,0x57ae662e6515fb3a38dd19aa577dd0bfc7c4780e,Base,token_contract,52038.0,54900.0,8713.0,8954.0,1879.0,1900.0,142.0,75.0,https://basescan.org/address/0x57ae662e6515fb3a38dd19aa577dd0bfc7c4780e
5c6bafc8-a69e-4550-a8a8-603ec33b59e2,Extra Finance (Base),0x0000000000000000000000000000000000000000,App,Lending,0xe8ac89ceed886368b3afd651592e43f656f996a4,Base,token_contract,6177.0,7180.0,420.0,469.0,34.0,36.0,17.0,10.0,https://basescan.org/address/0xe8ac89ceed886368b3afd651592e43f656f996a4
6650e99e-f9fa-4760-9c4a-1772ff426ed7,Extra Finance (Base),0x0000000000000000000000000000000000000000,App,Lending,0x92714c7772b07f15ec7e37c2e5d7899729b411c9,Base,token_contract,12811.0,24186.0,1272.0,2319.0,53.0,113.0,42.0,41.0,https://basescan.org/address/0x92714c7772b07f15ec7e37c2e5d7899729b411c9
6d13d31a-d799-46f1-a02a-9de4dfdeb121,Extra Finance (Base),0x0000000000000000000000000000000000000000,App,Lending,0x9657220d5e39e232a92e06874a36e61d40d37a31,Base,trace_contract,21991.0,29082.0,54.0,80.0,1.0,3.0,13.0,9.0,https://basescan.org/address/0x9657220d5e39e232a92e06874a36e61d40d37a31
6da6fff9-2fd0-4717-97de-f57e20186ddd,Extra Finance (Base),0x0000000000000000000000000000000000000000,App,Lending,0x8e341b050ea9f2978251e0818e7a3037cf0455ee,Base,trace_contract,16392.0,37816.0,32.0,74.0,2.0,6.0,11.0,13.0,https://basescan.org/address/0x8e341b050ea9f2978251e0818e7a3037cf0455ee
71db67a7-2a54-4837-afbf-8ba2de77d4a1,Extra Finance (Base),0x0000000000000000000000000000000000000000,App,Lending,0x5022a377de7b35163d65066bc51df04bcaeabfdb,Base,trace_contract,32900.0,67275.0,277.0,485.0,9.0,19.0,18.0,18.0,https://basescan.org/address/0x5022a377de7b35163d65066bc51df04bcaeabfdb
73e34214-0625-41ba-a0a1-664c0f734812,Extra Finance (Base),0x0000000000000000000000000000000000000000,App,Lending,0xdc28fcca0513795fad15f1dbfb7d74646ec0f116,Base,trace_contract,16620.0,64973.0,61.0,438.0,7.0,40.0,9.0,16.0,https://basescan.org/address/0xdc28fcca0513795fad15f1dbfb7d74646ec0f116
7a6b336c-5033-4129-9464-c880bc59d655,Extra Finance (Base),0x0000000000000000000000000000000000000000,App,Lending,0x559756d476d5ed4533edc3ac98e5a9468176378c,Base,token_contract,67441.0,120770.0,6322.0,9362.0,266.0,527.0,212.0,184.0,https://basescan.org/address/0x559756d476d5ed4533edc3ac98e5a9468176378c
81033a44-0cd1-49d0-a55f-13949cad7a24,Extra Finance (Base),0x0000000000000000000000000000000000000000,App,Lending,0x2fba9b0a08a87a9038a31c62f881516c21b1e1f7,Base,trace_contract,14228.0,14228.0,89.0,89.0,2.0,2.0,10.0,5.0,https://basescan.org/address/0x2fba9b0a08a87a9038a31c62f881516c21b1e1f7
85d0503d-645f-4328-a207-726a4cba55d5,Extra Finance (Base),0x0000000000000000000000000000000000000000,App,Lending,0x1cc24200e91e83c04f829329cf4ad8c3d345f5fd,Base,unknown,,,,,,,,,https://basescan.org/address/0x1cc24200e91e83c04f829329cf4ad8c3d345f5fd
87db91eb-a5df-4b74-bf86-bf36e2870d57,Extra Finance (Base),0x0000000000000000000000000000000000000000,App,Lending,0xca221984f58da3701afb907ccd5da8bfacac55e4,Base,token_contract,21482.0,26141.0,2118.0,3233.0,150.0,226.0,35.0,26.0,https://basescan.org/address/0xca221984f58da3701afb907ccd5da8bfacac55e4
87ef3ebc-8a8c-4db5-af6c-eb0c4fe28dab,Extra Finance (Base),0x0000000000000000000000000000000000000000,App,Lending,0x915f77e6836f84c3c8a11ae3d582d7377d179f58,Base,unknown,,,,,,,,,https://basescan.org/address/0x915f77e6836f84c3c8a11ae3d582d7377d179f58
95899926-4ec1-4857-8912-7be3d5b828d7,Extra Finance (Base),0x0000000000000000000000000000000000000000,App,Lending,0xc0101f57cf3e8aba569634deb72a3f8cf9909c58,Base,trace_contract,22911.0,41903.0,38.0,79.0,1.0,5.0,12.0,10.0,https://basescan.org/address/0xc0101f57cf3e8aba569634deb72a3f8cf9909c58
95e3e0e4-772f-4b7f-8fbd-0fa1a35c39f7,Extra Finance (Base),0x0000000000000000000000000000000000000000,App,Lending,0x47489bb7327b7944bce90717771a50baaf00a734,Base,trace_contract,190980.0,304535.0,370.0,973.0,12.0,40.0,17.0,20.0,https://basescan.org/address/0x47489bb7327b7944bce90717771a50baaf00a734
980a311c-0f9a-45b3-9cf9-2e0e17081bbf,Extra Finance (Base),0x0000000000000000000000000000000000000000,App,Lending,0x92b2ea322c96745498273187e0c9d9d8005eaba5,Base,trace_contract,8614.0,33006.0,60.0,212.0,3.0,11.0,12.0,14.0,https://basescan.org/address/0x92b2ea322c96745498273187e0c9d9d8005eaba5
9bd47e9c-34d7-4aa6-8045-0e86088a01d4,Extra Finance (Base),0x0000000000000000000000000000000000000000,App,Lending,0x4a4c71fd1cfa1971bbbed65bc0d699043fa474e4,Base,trace_contract,112027.0,324851.0,892.0,1930.0,52.0,137.0,35.0,46.0,https://basescan.org/address/0x4a4c71fd1cfa1971bbbed65bc0d699043fa474e4
9d0adf25-f380-4af5-929d-ca0ee009a046,Extra Finance (Base),0x0000000000000000000000000000000000000000,App,Lending,0x3510db57b98866b40dd5d913a73a0117fb6014f0,Optimism,unknown,,,,,,,,,https://optimistic.etherscan.io/address/0x3510db57b98866b40dd5d913a73a0117fb6014f0
9fae12f9-81b2-4bf5-82af-df8359ea07de,Extra Finance (Base),0x0000000000000000000000000000000000000000,App,Lending,0x7dbd7fb2559138f5c8c0e573c0b7e17022006677,Base,trace_contract,11121.0,14895.0,74.0,98.0,11.0,17.0,12.0,8.0,https://basescan.org/address/0x7dbd7fb2559138f5c8c0e573c0b7e17022006677
a2fdba82-31b9-4790-ab9f-943c3938a500,Extra Finance (Base),0x0000000000000000000000000000000000000000,App,Lending,0xfb43a995011bc34a6f52fdc628fb26b59d571a89,Base,token_contract,818.0,818.0,35.0,35.0,3.0,3.0,1.0,0.0,https://basescan.org/address/0xfb43a995011bc34a6f52fdc628fb26b59d571a89
a9636d73-db9f-462a-9dd4-7d23cdfc72a7,Extra Finance (Base),0x0000000000000000000000000000000000000000,App,Lending,0x3d2673a5a253052bf2b46ebb70da77876cd085ac,Base,token_contract,88085.0,191422.0,10869.0,20153.0,751.0,1490.0,241.0,262.0,https://basescan.org/address/0x3d2673a5a253052bf2b46ebb70da77876cd085ac
addaa447-104d-48d9-a587-13a46065266a,Extra Finance (Base),0x0000000000000000000000000000000000000000,App,Lending,0x08e1da3335ddc84ddd926eb49946a5df3093ff7f,Base,token_contract,2273.0,2835.0,231.0,277.0,19.0,24.0,9.0,6.0,https://basescan.org/address/0x08e1da3335ddc84ddd926eb49946a5df3093ff7f
b84fe5d1-5507-4388-9451-4e657edd54da,Extra Finance (Base),0x0000000000000000000000000000000000000000,App,Lending,0x996969b93132c6b1c91d4b4892fa4ff51b9c2e27,Base,trace_contract,13479.0,13479.0,41.0,41.0,3.0,3.0,9.0,4.0,https://basescan.org/address/0x996969b93132c6b1c91d4b4892fa4ff51b9c2e27
d67f6334-f1d9-4cb9-8a17-9167ae690b16,Extra Finance (Base),0x0000000000000000000000000000000000000000,App,Lending,0xcec27adf31bec4aaab95c33a283d4bff88e90927,Base,trace_contract,151449.0,246826.0,121.0,451.0,7.0,32.0,12.0,13.0,https://basescan.org/address/0xcec27adf31bec4aaab95c33a283d4bff88e90927
dc40120d-41c7-4417-b83a-b28fcbe01b6e,Extra Finance (Base),0x0000000000000000000000000000000000000000,App,Lending,0x172541df2112dd0edd20dac2b340fe0de0932845,Base,trace_contract,32404.0,32404.0,218.0,218.0,12.0,12.0,12.0,6.0,https://basescan.org/address/0x172541df2112dd0edd20dac2b340fe0de0932845
e22f7b65-2395-455f-8b69-1c95ac959acc,Extra Finance (Base),0x0000000000000000000000000000000000000000,App,Lending,0x1fbed2def982f5c144ee65425296c64a12c056d3,Base,trace_contract,42029.0,53608.0,195.0,256.0,10.0,14.0,15.0,9.0,https://basescan.org/address/0x1fbed2def982f5c144ee65425296c64a12c056d3
e57a7b35-20a5-4022-ae69-d0dfa9c6a7b7,Extra Finance (Base),0x0000000000000000000000000000000000000000,App,Lending,0xbeca3916ea9cab70265d936729c446669dc12bb1,Base,token_contract,87012.0,164200.0,4197.0,6157.0,206.0,390.0,248.0,234.0,https://basescan.org/address/0xbeca3916ea9cab70265d936729c446669dc12bb1
f1e3fce7-8fae-44b9-bd66-766f621cdbc2,Extra Finance (Base),0x0000000000000000000000000000000000000000,App,Lending,0xa23b5b8f7c7a9c86f39849af12867addd1273e3c,Base,token_contract,26494.0,48261.0,1952.0,2992.0,95.0,164.0,80.0,71.0,https://basescan.org/address/0xa23b5b8f7c7a9c86f39849af12867addd1273e3c
f4592ad4-0857-4032-87c6-3d11dd4c937a,Extra Finance (Base),0x0000000000000000000000000000000000000000,App,Lending,0xf755e062859e2c47c4abcf1790fcad8c1d933784,Base,trace_contract,11553.0,34996.0,100.0,231.0,4.0,12.0,11.0,13.0,https://basescan.org/address/0xf755e062859e2c47c4abcf1790fcad8c1d933784
1c4bdd60-f869-4885-be1f-07c758a92898,Extra Finance,0x0000000000000000000000000000000000000000,App,Lending,0xbb505c54d71e9e599cb8435b4f0ceec05fc71cbd,Base,dapp_contract,138497.0,237500.0,30077.0,44466.0,3016.0,4023.0,879.0,741.0,https://basescan.org/address/0xbb505c54d71e9e599cb8435b4f0ceec05fc71cbd
2042cf4f-a3dd-4f1c-946b-057cacfbda24,Extra Finance,0x0000000000000000000000000000000000000000,App,Lending,0xf9cfb8a62f50e10adde5aa888b44cf01c5957055,Optimism,dapp_contract,49266.0,137851.0,1105.0,2146.0,98.0,195.0,54.0,77.0,https://optimistic.etherscan.io/address/0xf9cfb8a62f50e10adde5aa888b44cf01c5957055
2562f1d8-773d-48cf-ac3c-d65e632e1e74,Extra Finance,0x0000000000000000000000000000000000000000,App,Lending,0x2546fe1f2ca9a31ebed04035eba7c4544bff2745,Base,token_contract,30242.0,43535.0,1443.0,1874.0,52.0,70.0,92.0,65.0,https://basescan.org/address/0x2546fe1f2ca9a31ebed04035eba7c4544bff2745
68e080cb-967a-4311-9114-40a71e48d6bb,Extra Finance,0x0000000000000000000000000000000000000000,App,Lending,0xf9cfb8a62f50e10adde5aa888b44cf01c5957055,Base,dapp_contract,194823.0,361919.0,19320.0,22281.0,318.0,539.0,686.0,686.0,https://basescan.org/address/0xf9cfb8a62f50e10adde5aa888b44cf01c5957055
ef5a836a-3133-4322-bcda-5878dfbdddc1,Extra Finance,0x0000000000000000000000000000000000000000,App,Lending,0xbb505c54d71e9e599cb8435b4f0ceec05fc71cbd,Optimism,dapp_contract,16955.0,51141.0,2830.0,6047.0,256.0,598.0,121.0,154.0,https://optimistic.etherscan.io/address/0xbb505c54d71e9e599cb8435b4f0ceec05fc71cbd
0052287b-4f92-4994-9289-2eec8dcdef7a,Extra Finance (OP),0x0000000000000000000000000000000000000000,App,Lending,0x164422e420c295e6c4c1e14398aae2fccffb7dcd,Optimism,token_contract,3476.0,4233.0,236.0,295.0,25.0,28.0,11.0,7.0,https://optimistic.etherscan.io/address/0x164422e420c295e6c4c1e14398aae2fccffb7dcd
0f01e1a1-4a16-41e0-bebb-587e79ebdb8e,Extra Finance (OP),0x0000000000000000000000000000000000000000,App,Lending,0x607014d617ff72ec8b27fe9ff405f81890553be3,Optimism,trace_contract,41823.0,73996.0,226.0,417.0,22.0,39.0,16.0,16.0,https://optimistic.etherscan.io/address/0x607014d617ff72ec8b27fe9ff405f81890553be3
14c58b16-5a99-4420-ab80-0ff6f547f6bc,Extra Finance (OP),0x0000000000000000000000000000000000000000,App,Lending,0xff816051c62b2adba5803d9d909ba4f301e45da5,Optimism,trace_contract,19042.0,65879.0,68.0,344.0,4.0,33.0,10.0,15.0,https://optimistic.etherscan.io/address/0xff816051c62b2adba5803d9d909ba4f301e45da5
214d10f5-cc07-4aaf-8cd0-c6acc4b2663f,Extra Finance (OP),0x0000000000000000000000000000000000000000,App,Lending,0x796836229a75c5cb230cd1fae4edbc1da6ee18d8,Optimism,unknown,,,,,,,,,https://optimistic.etherscan.io/address/0x796836229a75c5cb230cd1fae4edbc1da6ee18d8
21526586-4609-4794-a4ba-6580844ea614,Extra Finance (OP),0x0000000000000000000000000000000000000000,App,Lending,0x919db75700945210eb5c7e25ccd3637f376d47f2,Optimism,token_contract,4252.0,14430.0,415.0,1150.0,35.0,89.0,14.0,23.0,https://optimistic.etherscan.io/address/0x919db75700945210eb5c7e25ccd3637f376d47f2
2cb8e3bd-afb8-468e-b6ee-6b726cce8337,Extra Finance (OP),0x0000000000000000000000000000000000000000,App,Lending,0xe05d780e81bff6ab633f70c540e5135cf0511248,Optimism,trace_contract,10203.0,34250.0,34.0,81.0,4.0,11.0,10.0,12.0,https://optimistic.etherscan.io/address/0xe05d780e81bff6ab633f70c540e5135cf0511248
2f3f760c-dff7-47e6-a262-0ad44049ba32,Extra Finance (OP),0x0000000000000000000000000000000000000000,App,Lending,0x8e8fa14c0f70954f683971cb7ef826d50450f70b,Optimism,trace_contract,17368.0,36420.0,79.0,159.0,3.0,8.0,12.0,11.0,https://optimistic.etherscan.io/address/0x8e8fa14c0f70954f683971cb7ef826d50450f70b
45eff953-055d-489a-bc62-60615cb3af35,Extra Finance (OP),0x0000000000000000000000000000000000000000,App,Lending,0x85b16a35d310db338d7ba35b85f83ea44182a396,Optimism,token_contract,13028.0,30266.0,1101.0,2009.0,65.0,135.0,45.0,53.0,https://optimistic.etherscan.io/address/0x85b16a35d310db338d7ba35b85f83ea44182a396
4b8f6560-3041-4230-ac4f-19c36b87cae9,Extra Finance (OP),0x0000000000000000000000000000000000000000,App,Lending,0x9558ff42e95dca076a8deb67c8ff8b86f52b2f8c,Optimism,trace_contract,31889.0,44947.0,98.0,117.0,9.0,10.0,13.0,13.0,https://optimistic.etherscan.io/address/0x9558ff42e95dca076a8deb67c8ff8b86f52b2f8c
5a277efe-8a04-4614-a70d-736d831bdc93,Extra Finance (OP),0x0000000000000000000000000000000000000000,App,Lending,0xd848260dc819b723c8d73cd33c80e83268b5078e,Optimism,trace_contract,25141.0,70293.0,145.0,353.0,15.0,32.0,15.0,17.0,https://optimistic.etherscan.io/address/0xd848260dc819b723c8d73cd33c80e83268b5078e
5c0ce389-9fd0-4f29-8849-279d13403dd7,Extra Finance (OP),0x0000000000000000000000000000000000000000,App,Lending,0x92fdadf23af38cbb8149f4570ce276e6a77c5e05,Optimism,unknown,,,,,,,,,https://optimistic.etherscan.io/address/0x92fdadf23af38cbb8149f4570ce276e6a77c5e05
8322a99b-fb04-47fb-bd7a-0c8fe51bb335,Extra Finance (OP),0x0000000000000000000000000000000000000000,App,Lending,0xac6475d3759f760923178cec9fa2c34b212403be,Optimism,trace_contract,24120.0,25335.0,50.0,55.0,8.0,9.0,12.0,6.0,https://optimistic.etherscan.io/address/0xac6475d3759f760923178cec9fa2c34b212403be
8bfbfe7c-d66a-4e72-83be-88bf7ce40dc0,Extra Finance (OP),0x0000000000000000000000000000000000000000,App,Lending,0xceb0d75ccceef863b660bda57146e411f4d5259b,Optimism,token_contract,1629.0,3934.0,165.0,339.0,25.0,52.0,6.0,8.0,https://optimistic.etherscan.io/address/0xceb0d75ccceef863b660bda57146e411f4d5259b
954dde9d-68a0-488a-b2ad-46feab3ff5ca,Extra Finance (OP),0x0000000000000000000000000000000000000000,App,Lending,0xc89bddb6e5aada6ef9e15eea77e9c5e0db9dae5d,Optimism,token_contract,7566.0,18987.0,579.0,1356.0,68.0,151.0,28.0,36.0,https://optimistic.etherscan.io/address/0xc89bddb6e5aada6ef9e15eea77e9c5e0db9dae5d
95d8efac-7497-4efa-a583-ea86f705e50f,Extra Finance (OP),0x0000000000000000000000000000000000000000,App,Lending,0xe0bec4f45aef64cec9dcb9010d4beffb13e91466,Optimism,dapp_contract,8374.0,17465.0,1800.0,2724.0,220.0,349.0,78.0,81.0,https://optimistic.etherscan.io/address/0xe0bec4f45aef64cec9dcb9010d4beffb13e91466
974cdc54-fdb7-454e-8868-91c974ea56da,Extra Finance (OP),0x0000000000000000000000000000000000000000,App,Lending,0xf65563c686398da682090d822fcb1c9270e3c76e,Optimism,trace_contract,14500.0,42231.0,92.0,257.0,12.0,36.0,11.0,13.0,https://optimistic.etherscan.io/address/0xf65563c686398da682090d822fcb1c9270e3c76e
c560111e-7d25-4bf1-9e59-50730fe7bba1,Extra Finance (OP),0x0000000000000000000000000000000000000000,App,Lending,0xcb80336c8ff45949e597a0acd48ce54312d483a4,Optimism,trace_contract,25699.0,54748.0,147.0,205.0,6.0,8.0,14.0,14.0,https://optimistic.etherscan.io/address/0xcb80336c8ff45949e597a0acd48ce54312d483a4
cbca61eb-2453-4483-b1ce-8ba29c91f933,Extra Finance (OP),0x0000000000000000000000000000000000000000,App,Lending,0x1de04dcd405b2e5e5ecd9cb9875b764416c1c055,Optimism,token_contract,2008.0,8481.0,379.0,1031.0,46.0,137.0,10.0,18.0,https://optimistic.etherscan.io/address/0x1de04dcd405b2e5e5ecd9cb9875b764416c1c055
cd6bc8d3-8f36-48b0-b739-9e05610fd5b7,Extra Finance (OP),0x0000000000000000000000000000000000000000,App,Lending,0xda4e5035e21d3d353afbc491b434e8fbd39431a8,Optimism,trace_contract,16554.0,45140.0,22.0,59.0,1.0,1.0,11.0,12.0,https://optimistic.etherscan.io/address/0xda4e5035e21d3d353afbc491b434e8fbd39431a8
cef850ba-1033-46c7-a5bc-63416175ad06,Extra Finance (OP),0x0000000000000000000000000000000000000000,App,Lending,0x397bb93761e94328ff52588d665de153e1cf984f,Optimism,trace_contract,15675.0,39228.0,86.0,184.0,6.0,11.0,13.0,13.0,https://optimistic.etherscan.io/address/0x397bb93761e94328ff52588d665de153e1cf984f
d67abb62-817f-4736-a749-6e71488eed8c,Extra Finance (OP),0x0000000000000000000000000000000000000000,App,Lending,0x3dc60be8092c851c3f512edbfe3b61fc40d33bb9,Optimism,token_contract,5160.0,11345.0,636.0,1342.0,77.0,188.0,22.0,20.0,https://optimistic.etherscan.io/address/0x3dc60be8092c851c3f512edbfe3b61fc40d33bb9
df4a97ee-1fbc-4378-84f0-3ff27dabb9ab,Extra Finance (OP),0x0000000000000000000000000000000000000000,App,Lending,0x4c2ab0b6041b977035b9507c1d391d6c437e74cb,Optimism,trace_contract,7251.0,23035.0,18.0,31.0,2.0,2.0,10.0,11.0,https://optimistic.etherscan.io/address/0x4c2ab0b6041b977035b9507c1d391d6c437e74cb
9a1f2f0b-ab39-4563-b0f2-5feaef7d0903,farcards,0x0000000000000000000000000000000000000000,App,Gaming,0x6c61918eeccc306d35247338fdcf025af0f6120a,Base,unknown,,,,,,,,,https://basescan.org/address/0x6c61918eeccc306d35247338fdcf025af0f6120a
f5576f9d-6149-49ad-b74a-dc82c8246b6c,Farcaster Index,0x662d5d79849113A5403Af776210307a7c82a5267,App,Community & Curation,0x57140d1c17d41b8d402f17e7ba2bd3772db9fa21,Base,unknown,,,,,,,,,https://basescan.org/address/0x57140d1c17d41b8d402f17e7ba2bd3772db9fa21
2963e6a6-0d53-47b8-b239-f40182f7746c,far.quest - Farcaster Super App,0x997b0CcEd542b6d2A7e0Bae5649aFd9d0861CB4e,App,Community & Curation,0x8db531fe6bea7b474c7735879e9a1000e819bd1d,Optimism,dapp_contract,24321.0,62655.0,16445.0,43557.0,11744.0,29310.0,205.0,280.0,https://optimistic.etherscan.io/address/0x8db531fe6bea7b474c7735879e9a1000e819bd1d
7456feaf-aa9b-432c-9918-822225685171,Feedback Forge - Decentralized Feedback Platform,0xD17Fe282b5CD09f523340b8ef4AF311FE484a37D,Other Application,Community & Curation,0xd905fe646a553a1f81df0fc12fc9d988e3afeaa8,Base,unknown,,,,,,,,,https://basescan.org/address/0xd905fe646a553a1f81df0fc12fc9d988e3afeaa8
8b32b54d-42e7-4b11-8e97-d2c95a160164,Feed,0x3363b291a21cC692A5e07C9C63E3DF45F135EFcd,App,Community & Curation,0xdd528829749d6a4656d84cddbdc65e7dc5b350a7,Base,dapp_contract,91.0,91.0,8.0,8.0,2.0,2.0,0.0,0.0,https://basescan.org/address/0xdd528829749d6a4656d84cddbdc65e7dc5b350a7
30e2ef09-65f0-49de-9f98-6625a67353e4,Flappycaster,0xA5D224B43EAB837aa2Ee9C6Ed727f1613f301A5E,App,Gaming,0x3273674a8ad56810426828a205cd9840f5aa4c64,Base,dapp_contract,53.0,53.0,52.0,52.0,48.0,48.0,0.0,0.0,https://basescan.org/address/0x3273674a8ad56810426828a205cd9840f5aa4c64
b85791b4-89d0-4eb5-89a6-a3e5f2e5e30c,Flat Money,0xB9e0caEA4304b4716f33Cbe08f2Cb6c34b5440cb,App,DEX,0x6d857e9d24a7566bb72a3fb0847a3e0e4e1c2879,Base,dapp_contract,1906.0,2727.0,221.0,267.0,16.0,28.0,5.0,3.0,https://basescan.org/address/0x6d857e9d24a7566bb72a3fb0847a3e0e4e1c2879
60d26207-b562-4d92-b3af-1274cf7617b7,Flexclub,0x04333a1788a47068b9102D2d35695c312A0b312F,App,Real World Assets,0xce51be974fbe7e642072cadb87f3f63b80cd7c8e,Base,dapp_contract,26.0,26.0,4.0,4.0,4.0,4.0,0.0,0.0,https://basescan.org/address/0xce51be974fbe7e642072cadb87f3f63b80cd7c8e
0c01f116-4cbb-4123-90a7-b8067be7907a,Fractal Visions,0xC4FC57Dedd2463314A3fD2DBadB86B4404C257e5,App,Art Marketplace,0xb50875d250fca66775f7b6c2cc4e79cd8cbbba34,Optimism,dapp_contract,519.0,1084.0,17.0,251.0,8.0,41.0,0.0,2.0,https://optimistic.etherscan.io/address/0xb50875d250fca66775f7b6c2cc4e79cd8cbbba34
919641ca-f775-4c03-bf27-100fb0576295,Fractal Visions,0xC4FC57Dedd2463314A3fD2DBadB86B4404C257e5,App,Art Marketplace,0x18e32dd6e3562db03b8892c5bd51974f0d96376e,Base,dapp_contract,75.0,95.0,6.0,6.0,5.0,5.0,0.0,0.0,https://basescan.org/address/0x18e32dd6e3562db03b8892c5bd51974f0d96376e
c02b5894-11b8-4f6f-8b40-fb5105b35ff6,Fractal Visions,0xC4FC57Dedd2463314A3fD2DBadB86B4404C257e5,App,Art Marketplace,0x88cf967c4dc62ebf8efe8d157571a11a7d2c40f4,Mode,unknown,,,,,,,,,https://explorer.mode.network/address/0x88cf967c4dc62ebf8efe8d157571a11a7d2c40f4
74f31cd5-dcd5-4ae5-a481-a2b70b2d5200,fxhash,0x1014f9499259988e35F1C45F6aE6Aa9FBA011E80,App,Art Marketplace,0x6e625892c739bfd960671db5544e260757480725,Base,dapp_contract,8095.0,136948.0,3959.0,49057.0,1781.0,20377.0,61.0,298.0,https://basescan.org/address/0x6e625892c739bfd960671db5544e260757480725
1c8d19aa-789f-4a52-a624-ee7bda2c885a,Gambit Finance,0x984195f93DB193EDB0023F321Fd1a4e2278c43f3,App,Betting & Prediction Markets,0x6b4819f78d886ef37d4f9972fd55b0302c947277,Base,dapp_contract,73842.0,73842.0,384.0,384.0,61.0,61.0,45.0,22.0,https://basescan.org/address/0x6b4819f78d886ef37d4f9972fd55b0302c947277
98dc9e5e-44d2-4c74-85fc-ea192fc2a251,Gaslite Drop,0x3d4aaFbe86059d17C6263332c560f18C4F1Fec34,App,Airdrop,0x09350f89e2d7b6e96ba730783c2d76137b045fef,Base,dapp_contract,45937.0,81157.0,239.0,502.0,13.0,48.0,9.0,8.0,https://basescan.org/address/0x09350f89e2d7b6e96ba730783c2d76137b045fef
e7dd162f-b609-465a-a416-a6e4b836da2d,GiveStation,0x0000000000000000000000000000000000000000,App,Other Category,0x187a9763fcc7ecffa9bc50b0fe5bbae71cda7b59,Optimism,dapp_contract,24.0,542.0,19.0,501.0,1.0,2.0,0.0,2.0,https://optimistic.etherscan.io/address/0x187a9763fcc7ecffa9bc50b0fe5bbae71cda7b59
b81130c1-7f80-46f2-a26e-dfa4fcc1ce7d,Glass,0x704CF202792341d79A9Fd6DD97046aa7eF3F4319,App,Frames,0x704cf202792341d79a9fd6dd97046aa7ef3f4319,Base,trace_contract,53.0,416.0,35.0,127.0,3.0,11.0,0.0,1.0,https://basescan.org/address/0x704cf202792341d79a9fd6dd97046aa7ef3f4319
ecf60edd-bb88-415f-97b2-7c612897ebe0,Glo Dollar,0xD0BFb40F057322FF734a75CBE2F79b9E5C7E4cB3,Other Application,Donations,0x4f604735c1cf31399c6e711d5962b2b3e0225ad3,Optimism,token_contract,6217.0,12213.0,927.0,1982.0,258.0,376.0,24.0,26.0,https://optimistic.etherscan.io/address/0x4f604735c1cf31399c6e711d5962b2b3e0225ad3
b7e11cb2-d643-4f5f-99ce-803f396b31a5,Gloom,0x073f0DC58e9989C827bA5b7b35570B7315652e63,App,Meme Community,0x4ff77748e723f0d7b161f90b4bc505187226ed0d,Base,token_contract,132.0,41802.0,111.0,8195.0,49.0,5279.0,1.0,78.0,https://basescan.org/address/0x4ff77748e723f0d7b161f90b4bc505187226ed0d
12bacdd4-2eb0-485f-8c25-9380622e3234,Guild.xyz,0xA65eEf5D0566Ef2ED242d8719111e3116333278d,Other Application,Community & Curation,0x326f14942f8899406e3224bd63e9f250d275a52e,Base,dapp_contract,5559.0,14357.0,5327.0,13220.0,2697.0,6703.0,60.0,77.0,https://basescan.org/address/0x326f14942f8899406e3224bd63e9f250d275a52e
d12ccce1-4376-421c-989e-bc7c48d3fd13,HALP,0xF6bA9cFAA9EB5b3a23D8a837Bc326f2C297ae283,App,Payments,0x008e42e3c360946d94d25baa2d66b7f13fc5b75a,Base,trace_contract,171.0,171.0,36.0,36.0,9.0,9.0,0.0,0.0,https://basescan.org/address/0x008e42e3c360946d94d25baa2d66b7f13fc5b75a
56c0530e-aa91-46ae-9cae-66d17ebb639b,HAM,0xb854e45662770848f0809Ed0764dc1d226125a26,App,Gaming,0xc81c65fcd3727fd56d410756f298d587ae226b82,Base,unknown,,,,,,,,,https://basescan.org/address/0xc81c65fcd3727fd56d410756f298d587ae226b82
1e96baa9-afe3-429c-a3e0-ce88fe2a3d1c,herocast,0x6d9fFaede2c6CD9bb48becE230ad589e0E0D981c,App,Community & Curation,0x00000000fc6c5f01fc30151999387bb99a9f489b,Optimism,trace_contract,267764.0,511853.0,321.0,520.0,135.0,208.0,14.0,15.0,https://optimistic.etherscan.io/address/0x00000000fc6c5f01fc30151999387bb99a9f489b
f9538d16-5991-4972-b240-9a341c26bb87,HOMES,0xA89946F00052Bc385B3121b45420316a7cE20E60,Other Application,Art NFTs,0x89b76460172f88a851fb17617f9dc3448646931a,Base,dapp_contract,52.0,8254.0,44.0,1385.0,15.0,381.0,0.0,12.0,https://basescan.org/address/0x89b76460172f88a851fb17617f9dc3448646931a
a3bb33f3-4bdd-4eb7-942d-14a54fcfa318,Hypersub,0xb6f6Dce6000cA88cC936B450cEDB16a5c15f157f,App,Payments,0x90e1c94ca5e161acb420e59d8be5041db931c9dd,Base,unknown,,,,,,,,,https://basescan.org/address/0x90e1c94ca5e161acb420e59d8be5041db931c9dd
320999ba-11c1-420f-bdfa-d86f53e2e0a9,Idle,0xF7032A9261BbB04b0E7b4d2bb3E8f96aCF825AE4,App,Lending,0x9ebcb025949ffb5a77ff6ccc142e0de649801697,Optimism,token_contract,87.0,197.0,39.0,54.0,5.0,6.0,1.0,1.0,https://optimistic.etherscan.io/address/0x9ebcb025949ffb5a77ff6ccc142e0de649801697
3464991c-1190-4445-97c3-0ae78521592c,ImaginAIryNFTs,0x1426FBd146942e153653863cbe633780c17268DA,App,Art NFTs,0xb99e5534d42500eb1d5820fba3bb8416ccb76396,Mint,pending_mint,31.0,31.0,20.0,20.0,10.0,10.0,0.0,0.0,https://explorer.mintchain.io/address/0xb99e5534d42500eb1d5820fba3bb8416ccb76396
98d9efb2-6c5a-49fd-8d6c-8dc46441f29e,Imperfect Form,0x55A5705453Ee82c742274154136Fce8149597058,App,Other Category,0x8b62d610c83c42ea8a8fc10f80581d9b7701cd37,Base,unknown,,,,,,,,,https://basescan.org/address/0x8b62d610c83c42ea8a8fc10f80581d9b7701cd37
d415ba93-8f6e-409a-bd9b-d310c6112dc8,I'm Tired Of Being Hypersurveilled: Art Collection,0xcfBf34d385EA2d5Eb947063b67eA226dcDA3DC38,App,Art NFTs,0x4b130ef4051a35883e3b399b67d13b9bd4224798,Base,dapp_contract,59.0,4358.0,49.0,3676.0,33.0,1834.0,0.0,21.0,https://basescan.org/address/0x4b130ef4051a35883e3b399b67d13b9bd4224798
de37c3d5-3a47-4653-8d62-08ce127b6e59,Intract,0x0000000000000000000000000000000000000000,App,Community & Curation,0x2f35fee68a69c17101adf4c416c2dd297e6d1cc9,Base,dapp_contract,17953.0,17966.0,15515.0,15520.0,5186.0,5189.0,195.0,97.0,https://basescan.org/address/0x2f35fee68a69c17101adf4c416c2dd297e6d1cc9
62fc6280-e66f-4e03-a93f-c04f2b11f383,Ionic,0x1395348Cb0E7b62E9DbaadA079B10A4E6AC26a8F,App,Lending,0xfb3323e24743caf4add0fdccfb268565c0685556,Mode,trace_contract,108107.0,772022.0,2577.0,38488.0,1208.0,11822.0,43.0,424.0,https://explorer.mode.network/address/0xfb3323e24743caf4add0fdccfb268565c0685556
fdf7e73f-40be-436a-8744-41ade2834450,Ionic,0x1395348Cb0E7b62E9DbaadA079B10A4E6AC26a8F,App,Lending,0xe1a3006be645a80f206311d9f18c866c204ba02f,Base,factory_contract,355.0,410.0,224.0,243.0,82.0,87.0,3.0,1.0,https://basescan.org/address/0xe1a3006be645a80f206311d9f18c866c204ba02f
0faedca5-9e1f-48c5-817e-c21defb36379,Ironclad Finance,0xDB15fcEa49836C09672DeBf8EF53FFe4400cE377,App,Lending,0xb702ce183b4e1faa574834715e5d4a6378d0eed3,Mode,dapp_contract,33317.0,274467.0,5656.0,30615.0,2624.0,12027.0,104.0,359.0,https://explorer.mode.network/address/0xb702ce183b4e1faa574834715e5d4a6378d0eed3
0a8c18b2-c54f-4334-b1cc-8b655f5b130f,JEFE TOKEN,0x0000000000000000000000000000000000000000,Other Application,Community & Curation,0x9fd22a17b4a96da3f83797d122172c450381fb88,Optimism,token_contract,2998.0,15446.0,181.0,311.0,7.0,14.0,13.0,14.0,https://optimistic.etherscan.io/address/0x9fd22a17b4a96da3f83797d122172c450381fb88
ef16ccd0-57d9-4182-b843-5b9340da2b21,jumper,0xb1734CF72feD961b32C8c4de1a10eAEbd78A1E24,App,DEX,0xe88d5d3b7abe28ef7d80ed26d05d133a61c8f703,Optimism,unknown,,,,,,,,,https://optimistic.etherscan.io/address/0xe88d5d3b7abe28ef7d80ed26d05d133a61c8f703
3ea994a4-c20a-4849-8b72-5b0c33c12b73,Kim Exchange,0x6f1130E4b96C681e2721667DDfFcA99dD6824a2d,App,DEX,0xc02155946dd8c89d3d3238a6c8a64d04e2cd4500,Mode,factory_contract,4017.0,64179.0,2531.0,35581.0,869.0,11356.0,29.0,249.0,https://explorer.mode.network/address/0xc02155946dd8c89d3d3238a6c8a64d04e2cd4500
a6dbd777-0437-4832-ad60-cf58d20cfdce,Kismet Gachapon,0x58f19e55058057B04feAe2EEA88F90B84b7714Eb,App,Frames,0x9d48005c15f7d79221de09fc9677c3b0f3bb81a3,Optimism,unknown,,,,,,,,,https://optimistic.etherscan.io/address/0x9d48005c15f7d79221de09fc9677c3b0f3bb81a3
63ccc515-d1aa-4f68-b5a4-2177b10f81cc,Kiwi News,0xee324c588ceF1BF1c1360883E4318834af66366d,App,Community & Curation,0x08b7ecfac2c5754abafb789c84f8fa37c9f088b0,Optimism,trace_contract,428.0,736.0,181.0,269.0,134.0,207.0,3.0,2.0,https://optimistic.etherscan.io/address/0x08b7ecfac2c5754abafb789c84f8fa37c9f088b0
00df8f90-6f06-4b92-8ed9-13f3fbe8cbcf,KRASH WORLD: DA GAME PASS,0x6A08A2b9C30174506bF4922d0C580995136c762D,App,Gaming,0x1bf81236cacd7fd0c630fe0bb36e49cffda37b4c,Base,trace_contract,48.0,48.0,3.0,3.0,2.0,2.0,0.0,0.0,https://basescan.org/address/0x1bf81236cacd7fd0c630fe0bb36e49cffda37b4c
25ed3a90-eaff-43c3-b108-e4203e6b748b,L2Pass,0xEAF56cF68C38281252E49b460c5a66925991475B,App,Bridges,0x0000049f63ef0d60abe49fdd8bebfa5a68822222,Optimism,dapp_contract,604.0,55785.0,310.0,22749.0,94.0,1028.0,3.0,153.0,https://optimistic.etherscan.io/address/0x0000049f63ef0d60abe49fdd8bebfa5a68822222
670de93f-62ec-4b06-b88b-682b641c4e06,L2Pass,0xEAF56cF68C38281252E49b460c5a66925991475B,App,Bridges,0x0000049f63ef0d60abe49fdd8bebfa5a68822222,Base,dapp_contract,975.0,74750.0,716.0,31635.0,105.0,1301.0,8.0,238.0,https://basescan.org/address/0x0000049f63ef0d60abe49fdd8bebfa5a68822222
9eabb839-0400-443c-bc8f-9870d8ede259,L2Pass,0xEAF56cF68C38281252E49b460c5a66925991475B,App,Bridges,0x222228060e7efbb1d78bb5d454581910e3922222,Base,dapp_contract,4807.0,96615.0,1340.0,32268.0,58.0,1014.0,18.0,254.0,https://basescan.org/address/0x222228060e7efbb1d78bb5d454581910e3922222
afdbf54a-2292-4771-b8a5-8d6f2df3fe8d,L2Pass,0xEAF56cF68C38281252E49b460c5a66925991475B,App,Bridges,0x222228060e7efbb1d78bb5d454581910e3922222,Zora,trace_contract,947.0,15809.0,163.0,2276.0,40.0,130.0,2.0,14.0,https://zora.thesuperscan.io/address/0x222228060e7efbb1d78bb5d454581910e3922222
ef1a8dd7-8708-4b0d-87a5-2560df048a80,L2Pass,0xEAF56cF68C38281252E49b460c5a66925991475B,App,Bridges,0x0000049f63ef0d60abe49fdd8bebfa5a68822222,Zora,dapp_contract,599.0,23185.0,507.0,12947.0,49.0,1037.0,5.0,84.0,https://zora.thesuperscan.io/address/0x0000049f63ef0d60abe49fdd8bebfa5a68822222
f62ec95e-b0ff-4aa6-a255-8b706700dc36,L2Pass,0xEAF56cF68C38281252E49b460c5a66925991475B,App,Bridges,0x222228060e7efbb1d78bb5d454581910e3922222,Optimism,dapp_contract,3104.0,128358.0,586.0,29315.0,28.0,655.0,7.0,239.0,https://optimistic.etherscan.io/address/0x222228060e7efbb1d78bb5d454581910e3922222
b549f7dd-8bec-465a-b88a-e85d82e5e11e,Lagrange,0xFf0A5E35E2400d7f0610d8Ae2Eda108366C9a5C2,App,Other Category,0xdde9e4456a7c822ce3b6452d29e52d9e477e5a0f,SwanChain,pending_swanchain,1549.0,1549.0,91.0,91.0,11.0,11.0,4.0,2.0,https://mainnet-explorer.swanchain.io/address/0xdde9e4456a7c822ce3b6452d29e52d9e477e5a0f
4de4462a-f27c-40ff-aeb6-01c2f1bbd3b0,Let's Get HAI,0x667AEf1bf93f80eCd0Ea83283e79066839698337,Other Application,Lending,0x9ff826860689483181c5fac9628fd2f70275a700,Optimism,trace_contract,45150.0,78376.0,287.0,808.0,1.0,1.0,12.0,14.0,https://optimistic.etherscan.io/address/0x9ff826860689483181c5fac9628fd2f70275a700
0a08cce6-1a54-40c0-930d-027277dd2205,Lido Finance,0x0000000000000000000000000000000000000000,Other Application,Staking,0x1f32b1c2345538c0c6f582fcb022739c4a194ebb,Optimism,token_contract,1346114.0,2050450.0,41143.0,80766.0,11624.0,17098.0,1121.0,1182.0,https://optimistic.etherscan.io/address/0x1f32b1c2345538c0c6f582fcb022739c4a194ebb
7c519bb4-5e06-403d-92ff-e713860d2c8c,Light,0x4fd9D0eE6D6564E80A9Ee00c0163fC952d0A45Ed,App,Other Category,0x0000000000756d3e6464f5efe7e413a0af1c7474,Optimism,factory_contract,6.0,10.0,3.0,6.0,2.0,2.0,0.0,0.0,https://optimistic.etherscan.io/address/0x0000000000756d3e6464f5efe7e413a0af1c7474
4d172a4b-7c8e-40b6-84f6-475906c42d67,Lizard,0x9A1d17c82b8FdD83aB3004bEd20C44d3b0131C0b,App,Airdrop,0xf17a42f18c3cf4e58d238e95dd60b4d148eeb47e,Base,token_contract,844802.0,863075.0,1198.0,1398.0,88.0,91.0,22.0,14.0,https://basescan.org/address/0xf17a42f18c3cf4e58d238e95dd60b4d148eeb47e
51ed6802-9581-4be5-bc0e-4226d93a0241,LogX,0xE46714C0A87E3A1e1E67C6B050b77DcE2614053e,App,DEX,0x816f722424b49cf1275cc86da9840fbd5a6167e9,Orderly,pending_orderly,,,,,,,,,https://explorer.orderly.network/address/0x816f722424b49cf1275cc86da9840fbd5a6167e9
e889e847-33a4-4363-a002-5770bc036123,LottoPGF,0x35267Fa7083Eb6b22104c1bBB2d25ff402B7072A,App,Donations,0xded85d9e814c4c23d2632511d3be9ac4e49524b0,Base,factory_contract,7.0,28086.0,7.0,233.0,7.0,198.0,0.0,1.0,https://basescan.org/address/0xded85d9e814c4c23d2632511d3be9ac4e49524b0
edbc4be9-766a-4896-9589-3531b578ff5c,MACH10,0x0000000000000000000000000000000000000000,App,Lending,0xda14fdd72345c4d2511357214c5b89a919768e59,Base,dapp_contract,1030.0,1504.0,407.0,701.0,93.0,181.0,5.0,5.0,https://basescan.org/address/0xda14fdd72345c4d2511357214c5b89a919768e59
e694b4c2-9394-4048-ab5d-d23c14c1cef8,MagicalTux,0x0000000000000000000000000000000000000000,Other Application,Meme Community,0x17aabf6838a6303fc6e9c5a227dc1eb6d95c829a,Optimism,token_contract,2528.0,20471.0,629.0,3204.0,49.0,368.0,17.0,55.0,https://optimistic.etherscan.io/address/0x17aabf6838a6303fc6e9c5a227dc1eb6d95c829a
d4836d83-ab33-40a4-8963-60a0c563b21e,Masks,0x234dC0C407228B56147c56e4a20b89aaEf6b676e,App,Community & Curation,0x3925f9820c312d968644f12ebd314c13558a7c05,Optimism,token_contract,85743.0,85743.0,16960.0,16960.0,15606.0,15606.0,434.0,217.0,https://optimistic.etherscan.io/address/0x3925f9820c312d968644f12ebd314c13558a7c05
76a5ab6c-a252-4c73-90c9-cff05b85a2b1,Merkl,0x92caBFc81734bf827B037065076eF8C78AcBd12F,App,Other Category,0x3ef3d8ba38ebe18db133cec108f4d14ce00dd9ae,Optimism,dapp_contract,40786.0,45126.0,11756.0,12095.0,3867.0,3897.0,399.0,217.0,https://optimistic.etherscan.io/address/0x3ef3d8ba38ebe18db133cec108f4d14ce00dd9ae
76e7ae2e-7aa9-4d6b-832a-6a838772da18,Metronome,0x37A6156e4a6E8B60b2415AF040546cF5e91699bd,App,Lending,0xe01df4ac1e1e57266900e62c37f12c986495a618,Optimism,dapp_contract,2.0,27.0,2.0,4.0,1.0,1.0,0.0,0.0,https://optimistic.etherscan.io/address/0xe01df4ac1e1e57266900e62c37f12c986495a618
4c1fd2f8-1c08-4508-b17b-23cf65ba4d81,Micro3,0x0000000000000000000000000000000000000000,App,Community & Curation,0xfe6af84f2fa6f2c24c7afb05337f7c2527dd2709,Base,dapp_contract,49014.0,64567.0,3020.0,4384.0,1300.0,1769.0,530.0,349.0,https://basescan.org/address/0xfe6af84f2fa6f2c24c7afb05337f7c2527dd2709
5627e5e6-0c0e-442e-ac20-2ba8fcf32091,Mind3,0x0000000000000000000000000000000000000000,App,Frames,0x460f960dd50c2c4cbb633bf084a1cea1a602e807,Base,dapp_contract,71.0,71.0,65.0,65.0,60.0,60.0,0.0,0.0,https://basescan.org/address/0x460f960dd50c2c4cbb633bf084a1cea1a602e807
88548564-6deb-42dc-bf2b-ba00ebdc2dda,Mint Club,0x980Cd99311f3b3264f5dfdCE33D204A8d6d492E4,Other Application,Other Category,0xc5a076cad94176c2996b32d8466be1ce757faa27,Base,trace_contract,38667.0,177399.0,3932.0,22458.0,392.0,2437.0,96.0,209.0,https://basescan.org/address/0xc5a076cad94176c2996b32d8466be1ce757faa27
d98895f4-1ab6-443f-8757-0788c1750bcc,Mint Forest,0x0000000000000000000000000000000000000000,App,Community & Curation,0x12906892aaa384ad59f2c431867af6632c68100a,Mint,pending_mint,,,,,,,,,https://explorer.mintchain.io/address/0x12906892aaa384ad59f2c431867af6632c68100a
4673d610-235f-45c6-ab81-4c113b93a63b,Mintify,0x0000000000000000000000000000000000000000,App,Art Marketplace,0x8a6f2c9601a635a6698809c4d62f3be172892d4d,Base,dapp_contract,140.0,4800.0,127.0,1165.0,34.0,279.0,1.0,8.0,https://basescan.org/address/0x8a6f2c9601a635a6698809c4d62f3be172892d4d
eca9c362-f6db-42a6-b4bb-2240104e2af8,MintSwap,0xdBe66793535889268fb707993b636d6144962fF9,App,DEX,0x9f7bd1ce3412960524e86183b8f005271c09a5e0,Mint,pending_mint,17855.0,17855.0,2549.0,2549.0,877.0,877.0,45.0,22.0,https://explorer.mintchain.io/address/0x9f7bd1ce3412960524e86183b8f005271c09a5e0
6a9b53b5-c2b7-43ab-b9ee-fb8b828636da,ModeMax,0x0000000000000000000000000000000000000000,App,DEX,0x08400a262b4261cb1e0191bb843d0328e43d5852,Mode,unknown,,,,,,,,,https://explorer.mode.network/address/0x08400a262b4261cb1e0191bb843d0328e43d5852
dcc07c2b-30d8-4aec-86a0-1d492f09d61d,Mode Spray,0x12A2455CCa45D8f6d9149F0e996260Ae49EDA8B4,Other Application,Airdrop,0x669fa5586e6508dfde75a1a7cde89f44d32d8a2a,Mode,dapp_contract,34.0,148.0,5.0,18.0,1.0,3.0,0.0,0.0,https://explorer.mode.network/address/0x669fa5586e6508dfde75a1a7cde89f44d32d8a2a
05590f4a-c3c7-4135-8217-7405ce448659,Moonwell,0x4ECfFE726461504516B6B0A93Ab1CE33793E878B,App,Lending,0xe66e3a37c3274ac24fe8590f7d84a2427194dc17,Base,token_contract,6642.0,9551.0,2050.0,2646.0,182.0,259.0,65.0,47.0,https://basescan.org/address/0xe66e3a37c3274ac24fe8590f7d84a2427194dc17
0ef95490-90d0-4931-9a0c-7bcd973f82a7,Moonwell,0x4ECfFE726461504516B6B0A93Ab1CE33793E878B,App,Lending,0xbb3b1ab66efb43b10923b87460c0106643b83f9d,Optimism,token_contract,232.0,232.0,75.0,75.0,7.0,7.0,1.0,0.0,https://optimistic.etherscan.io/address/0xbb3b1ab66efb43b10923b87460c0106643b83f9d
155cfc51-23bb-468b-bb26-45dd6eac111b,Moonwell,0x4ECfFE726461504516B6B0A93Ab1CE33793E878B,App,Lending,0xb8051464c8c92209c92f3a4cd9c73746c4c3cfb3,Base,token_contract,72.0,72.0,44.0,44.0,7.0,7.0,0.0,0.0,https://basescan.org/address/0xb8051464c8c92209c92f3a4cd9c73746c4c3cfb3
15698120-3260-417b-8200-530bc0b32d71,Moonwell,0x4ECfFE726461504516B6B0A93Ab1CE33793E878B,App,Lending,0xb8051464c8c92209c92f3a4cd9c73746c4c3cfb3,Optimism,token_contract,10.0,10.0,11.0,11.0,2.0,2.0,0.0,0.0,https://optimistic.etherscan.io/address/0xb8051464c8c92209c92f3a4cd9c73746c4c3cfb3
1ed558f7-0723-42fb-90bb-8a81d01122f9,Moonwell,0x4ECfFE726461504516B6B0A93Ab1CE33793E878B,App,Lending,0xf877acafa28c19b96727966690b2f44d35ad5976,Base,unknown,,,,,,,,,https://basescan.org/address/0xf877acafa28c19b96727966690b2f44d35ad5976
1f8d61b5-f4fb-4703-9b8f-a1274b0f16e7,Moonwell,0x4ECfFE726461504516B6B0A93Ab1CE33793E878B,App,Lending,0xfb26a4947a38cb53e2d083c6490060ccce7438c5,Optimism,token_contract,147.0,147.0,62.0,62.0,5.0,5.0,1.0,0.0,https://optimistic.etherscan.io/address/0xfb26a4947a38cb53e2d083c6490060ccce7438c5
1fcde8c1-3fb8-4fc5-b4cf-90e0ad3848e3,Moonwell,0x4ECfFE726461504516B6B0A93Ab1CE33793E878B,App,Lending,0x1382cff3cee10d283dcca55a30496187759e4caf,Base,trace_contract,322919.0,819869.0,55195.0,126490.0,1976.0,5949.0,871.0,1019.0,https://basescan.org/address/0x1382cff3cee10d283dcca55a30496187759e4caf
241553d3-be77-4f3c-88ac-4fb3c8de1d29,Moonwell,0x4ECfFE726461504516B6B0A93Ab1CE33793E878B,App,Lending,0x3bf93770f2d4a794c3d9ebefbaebae2a8f09a5e5,Base,token_contract,7864.0,16115.0,3389.0,5600.0,182.0,267.0,74.0,75.0,https://basescan.org/address/0x3bf93770f2d4a794c3d9ebefbaebae2a8f09a5e5
27bba487-35ab-46c8-adbb-5061599b34bb,Moonwell,0x4ECfFE726461504516B6B0A93Ab1CE33793E878B,App,Lending,0x8b621804a7637b781e2bbd58e256a591f2df7d51,Base,dapp_contract,16.0,32.0,4.0,4.0,1.0,1.0,0.0,0.0,https://basescan.org/address/0x8b621804a7637b781e2bbd58e256a591f2df7d51
292ce6aa-bdf1-4c0c-b58d-f6cab1d8aa31,Moonwell,0x4ECfFE726461504516B6B0A93Ab1CE33793E878B,App,Lending,0xca889f40aae37fff165bccf69aef1e82b5c511b9,Optimism,trace_contract,7813.0,7813.0,349.0,349.0,34.0,34.0,12.0,6.0,https://optimistic.etherscan.io/address/0xca889f40aae37fff165bccf69aef1e82b5c511b9
4dbeb15f-e0c9-49df-8977-69442ce91adf,Moonwell,0x4ECfFE726461504516B6B0A93Ab1CE33793E878B,App,Lending,0xa3a53899ee8f9f6e963437c5b3f805fec538bf84,Optimism,token_contract,265.0,265.0,83.0,83.0,11.0,11.0,2.0,1.0,https://optimistic.etherscan.io/address/0xa3a53899ee8f9f6e963437c5b3f805fec538bf84
503dca65-d176-4b51-a533-375df03b3659,Moonwell,0x4ECfFE726461504516B6B0A93Ab1CE33793E878B,App,Lending,0xa962f2974a846b30366251f4634384c1e42aef16,Optimism,trace_contract,609.0,609.0,95.0,95.0,9.0,9.0,1.0,0.0,https://optimistic.etherscan.io/address/0xa962f2974a846b30366251f4634384c1e42aef16
5cc0c484-1346-4daa-b0f9-1f6da9630973,Moonwell,0x4ECfFE726461504516B6B0A93Ab1CE33793E878B,App,Lending,0x9fc345a20541bf8773988515c5950ed69af01847,Optimism,token_contract,373.0,373.0,167.0,167.0,26.0,26.0,4.0,2.0,https://optimistic.etherscan.io/address/0x9fc345a20541bf8773988515c5950ed69af01847
658b26d5-b981-46b5-9e3d-e31f3a9931c2,Moonwell,0x4ECfFE726461504516B6B0A93Ab1CE33793E878B,App,Lending,0xe9005b078701e2a0948d2eac43010d35870ad9d2,Base,trace_contract,438284.0,947301.0,6102.0,9132.0,429.0,670.0,164.0,147.0,https://basescan.org/address/0xe9005b078701e2a0948d2eac43010d35870ad9d2
73b78ec1-1947-48b8-9692-ed9b08558c27,Moonwell,0x4ECfFE726461504516B6B0A93Ab1CE33793E878B,App,Lending,0x628ff693426583d9a7fb391e54366292f509d457,Base,token_contract,311911.0,857097.0,64528.0,144976.0,2799.0,7383.0,1314.0,1538.0,https://basescan.org/address/0x628ff693426583d9a7fb391e54366292f509d457
81325e14-6362-46d0-a43b-3719e2f75cf7,Moonwell,0x4ECfFE726461504516B6B0A93Ab1CE33793E878B,App,Lending,0xf9524bfa18c19c3e605fbfe8dfd05c6e967574aa,Optimism,trace_contract,5462.0,5462.0,171.0,171.0,18.0,18.0,6.0,3.0,https://optimistic.etherscan.io/address/0xf9524bfa18c19c3e605fbfe8dfd05c6e967574aa
8ca75fc4-7798-420e-b154-1df4b4037683,Moonwell,0x4ECfFE726461504516B6B0A93Ab1CE33793E878B,App,Lending,0x866b838b97ee43f2c818b3cb5cc77a0dc22003fc,Optimism,token_contract,75.0,75.0,24.0,24.0,3.0,3.0,0.0,0.0,https://optimistic.etherscan.io/address/0x866b838b97ee43f2c818b3cb5cc77a0dc22003fc
90db12ec-ba0c-4d85-a2d0-4c207ddc2092,Moonwell,0x4ECfFE726461504516B6B0A93Ab1CE33793E878B,App,Lending,0xe9005b078701e2a0948d2eac43010d35870ad9d2,Base,trace_contract,438284.0,947301.0,6102.0,9132.0,429.0,670.0,164.0,147.0,https://basescan.org/address/0xe9005b078701e2a0948d2eac43010d35870ad9d2
950f76e4-a1b5-43c7-be99-a4f528df35a8,Moonwell,0x4ECfFE726461504516B6B0A93Ab1CE33793E878B,App,Lending,0xb4104c02bbf4e9be85aaa41a62974e4e28d59a33,Optimism,token_contract,604.0,604.0,128.0,128.0,10.0,10.0,3.0,1.0,https://optimistic.etherscan.io/address/0xb4104c02bbf4e9be85aaa41a62974e4e28d59a33
988ca7ca-5a18-442d-8e3e-7adf4d2ba180,Moonwell,0x4ECfFE726461504516B6B0A93Ab1CE33793E878B,App,Lending,0x4c2e35e3ec4a0c82849637bc04a4609dbe53d321,Optimism,token_contract,169.0,169.0,68.0,68.0,6.0,6.0,1.0,0.0,https://optimistic.etherscan.io/address/0x4c2e35e3ec4a0c82849637bc04a4609dbe53d321
9d61e595-3a9b-4f0e-bd8f-26032f0cafcb,Moonwell,0x4ECfFE726461504516B6B0A93Ab1CE33793E878B,App,Lending,0xc4ab8c031717d7ecccd653be898e0f92410e11dc,Optimism,dapp_contract,240.0,240.0,116.0,116.0,10.0,10.0,2.0,1.0,https://optimistic.etherscan.io/address/0xc4ab8c031717d7ecccd653be898e0f92410e11dc
ab050afe-be92-45c3-820a-ae025d5d1a7f,Moonwell,0x4ECfFE726461504516B6B0A93Ab1CE33793E878B,App,Lending,0xcb1dacd30638ae38f2b94ea64f066045b7d45f44,Base,token_contract,4486.0,8729.0,2300.0,3884.0,190.0,219.0,48.0,47.0,https://basescan.org/address/0xcb1dacd30638ae38f2b94ea64f066045b7d45f44
af6c9bee-bd63-4b76-aafb-3fbad419bb6f,Moonwell,0x4ECfFE726461504516B6B0A93Ab1CE33793E878B,App,Lending,0x70778cfcfc475c7ea0f24cc625baf6eae475d0c9,Base,dapp_contract,92713.0,279604.0,53585.0,138193.0,2476.0,7079.0,861.0,1124.0,https://basescan.org/address/0x70778cfcfc475c7ea0f24cc625baf6eae475d0c9
cc61ab0d-2bd3-412b-8340-e85ac7184667,Moonwell,0x4ECfFE726461504516B6B0A93Ab1CE33793E878B,App,Lending,0xedc817a28e8b93b03976fbd4a3ddbc9f7d176c22,Base,token_contract,57705.0,91714.0,15283.0,24191.0,2985.0,3715.0,314.0,264.0,https://basescan.org/address/0xedc817a28e8b93b03976fbd4a3ddbc9f7d176c22
de87f1e1-6b26-484e-8289-74bc2126137f,Moonwell,0x4ECfFE726461504516B6B0A93Ab1CE33793E878B,App,Lending,0x6e6ca598a06e609c913551b729a228b023f06fdb,Optimism,token_contract,288.0,288.0,79.0,79.0,6.0,6.0,2.0,1.0,https://optimistic.etherscan.io/address/0x6e6ca598a06e609c913551b729a228b023f06fdb
e0a2e6ae-d4f7-4dfc-97ba-e68593163fec,Moonwell,0x4ECfFE726461504516B6B0A93Ab1CE33793E878B,App,Lending,0x73902f619ceb9b31fd8efecf435cbdf89e369ba6,Base,token_contract,16503.0,20268.0,3296.0,3843.0,593.0,645.0,127.0,78.0,https://basescan.org/address/0x73902f619ceb9b31fd8efecf435cbdf89e369ba6
ebad931b-5b90-408d-93aa-174ba1f0a460,Moonwell,0x4ECfFE726461504516B6B0A93Ab1CE33793E878B,App,Lending,0xfbb21d0380bee3312b33c4353c8936a0f13ef26c,Base,trace_contract,857632.0,1856458.0,26071.0,54815.0,921.0,2138.0,438.0,460.0,https://basescan.org/address/0xfbb21d0380bee3312b33c4353c8936a0f13ef26c
f1fa7bc2-07fe-41cd-a756-d50921a56052,Moonwell,0x4ECfFE726461504516B6B0A93Ab1CE33793E878B,App,Lending,0x8e08617b0d66359d73aa11e11017834c29155525,Optimism,token_contract,475.0,475.0,146.0,146.0,23.0,23.0,3.0,1.0,https://optimistic.etherscan.io/address/0x8e08617b0d66359d73aa11e11017834c29155525
f27da97e-f969-4ce2-b1c2-5b9adc7e8a5f,Moonwell,0x4ECfFE726461504516B6B0A93Ab1CE33793E878B,App,Lending,0xb682c840b5f4fc58b20769e691a6fa1305a501a2,Base,unknown,,,,,,,,,https://basescan.org/address/0xb682c840b5f4fc58b20769e691a6fa1305a501a2
fbc32b1d-0388-4b75-967d-18c53892534e,Moonwell,0x4ECfFE726461504516B6B0A93Ab1CE33793E878B,App,Lending,0x627fe393bc6edda28e99ae648fd6ff362514304b,Base,token_contract,8019.0,15316.0,3313.0,5358.0,202.0,254.0,75.0,71.0,https://basescan.org/address/0x627fe393bc6edda28e99ae648fd6ff362514304b
fc68d66e-7157-45b0-acf2-d81611d5630c,Moonwell,0x4ECfFE726461504516B6B0A93Ab1CE33793E878B,App,Lending,0x95c84f369bd0251ca903052600a3c96838d78ba1,Optimism,token_contract,19.0,19.0,15.0,15.0,2.0,2.0,0.0,0.0,https://optimistic.etherscan.io/address/0x95c84f369bd0251ca903052600a3c96838d78ba1
189b3d91-0518-4999-90a4-a78fb3ca8b71,Morpho ,0xEe565CC94e9AD1552Ad10f106f7D27c007f8b4CC,App,Lending,0xbbbbbbbbbb9cc5e90e3b3af64bdaf62c37eeffcb,Base,trace_contract,353999.0,354053.0,7667.0,7670.0,639.0,640.0,161.0,81.0,https://basescan.org/address/0xbbbbbbbbbb9cc5e90e3b3af64bdaf62c37eeffcb
ad694136-109e-4227-a214-1329f099aff0,Moshicam,0x4Dd958cA0455BFb231770cD06898894b4c974671,App,Other Media NFTs,0xaceb0de9f3efab3c50bf4dc6b14706f119e39dd8,Base,dapp_contract,12926.0,12926.0,2.0,2.0,1.0,1.0,0.0,0.0,https://basescan.org/address/0xaceb0de9f3efab3c50bf4dc6b14706f119e39dd8
2625454f-6714-4b8f-bdda-31b886e25702,motoDEX,0x963D564CA6377Ee5581eE6204A13184bb887bfc8,App,Gaming,0x1c050ea3673fad2ac2f8559c81f2cd23a9ec195e,Kroma,pending_kroma,1530.0,7533.0,1146.0,4525.0,377.0,1293.0,14.0,31.0,https://kromascan.com/address/0x1c050ea3673fad2ac2f8559c81f2cd23a9ec195e
8dcfac3e-f424-4589-9f63-ac08d3783d0a,motoDEX,0x963D564CA6377Ee5581eE6204A13184bb887bfc8,App,Gaming,0x1c050ea3673fad2ac2f8559c81f2cd23a9ec195e,Base,dapp_contract,272.0,293.0,139.0,155.0,4.0,12.0,1.0,0.0,https://basescan.org/address/0x1c050ea3673fad2ac2f8559c81f2cd23a9ec195e
09db96df-c12d-40ed-8573-48fd12f417f3,Multichain.Storage,0xE6D4f21aF1483ffe091e0541f23717bCeB509680,App,Other Category,0x9b10a384a8508fd9eced992815340f8e00f55e6a,SwanChain,pending_swanchain,,,,,,,,,https://mainnet-explorer.swanchain.io/address/0x9b10a384a8508fd9eced992815340f8e00f55e6a
45ca2132-cb78-4e41-aca2-61f2fe8c71c1,Namespace - ENS Subname Sorcery,0x035eBd096AFa6b98372494C7f08f3402324117D3,App,Frames,0x62e5271bc935e25f6e6e48d3c8b8b88b2d483985,Base,dapp_contract,1683.0,1683.0,143.0,143.0,125.0,125.0,1.0,0.0,https://basescan.org/address/0x62e5271bc935e25f6e6e48d3c8b8b88b2d483985
b487b366-6a76-4860-8842-1c419d32fe81,NERZO,0x1d2a50Ab3252413a63008cb7d7524db4ea99103a,App,Art NFTs,0x3c34a3659be90b6517f5cbc365dd84922e11a151,Mint,pending_mint,,,,,,,,,https://explorer.mintchain.io/address/0x3c34a3659be90b6517f5cbc365dd84922e11a151
9b4e49fb-b436-41eb-8cf2-d66f53bab05a,NFTarot,0x1b9706227704F49e412ABC9da7Dd7D35aFa60c22,App,Other Media NFTs,0x67d7e7bcc964de5bef0951eb818e3a9a136312b5,Base,dapp_contract,2150.0,2150.0,1540.0,1540.0,709.0,709.0,18.0,9.0,https://basescan.org/address/0x67d7e7bcc964de5bef0951eb818e3a9a136312b5
9a780215-3aaf-402a-aa0e-ad33af6c9efb,NFTFeed,0xd1c29F8d87b6b881dF4CD0F7C02F59ED1692f02E,Other Application,Art NFTs,0xaf1ff8e04aa97d2c155fba9829cb152169bfd8fd,Optimism,dapp_contract,1093.0,2771.0,664.0,1238.0,341.0,536.0,9.0,11.0,https://optimistic.etherscan.io/address/0xaf1ff8e04aa97d2c155fba9829cb152169bfd8fd
9cf6c84e-ef1e-40c7-91eb-2070876ad8eb,NFTFeed,0xd1c29F8d87b6b881dF4CD0F7C02F59ED1692f02E,App,Art NFTs,0xaf1ff8e04aa97d2c155fba9829cb152169bfd8fd,Kroma,pending_kroma,,,,,,,,,https://kromascan.com/address/0xaf1ff8e04aa97d2c155fba9829cb152169bfd8fd
785e4a36-2b93-4879-9f61-de92145313b7,NFT HOOK,0x0b99C69c2D7A71fb372ACf2756E315A18E5150B1,Other Application,Art NFTs,0x53cb0b849491590cab2cc44af8c20e68e21fc36d,Zora,dapp_contract,4800.0,43202.0,3887.0,31182.0,297.0,1506.0,50.0,214.0,https://zora.thesuperscan.io/address/0x53cb0b849491590cab2cc44af8c20e68e21fc36d
3700be15-3fac-4e04-a813-ce0388d6bbe8,NFTs2Me,0xb918f149e75250Ea48838FfE6D3b20402fc4750a,Other Application,Art NFTs,0x167e944678b2caa966e7010ad9de08f3f1eab29a,Base,factory_contract,,,,,,,,,https://basescan.org/address/0x167e944678b2caa966e7010ad9de08f3f1eab29a
d4661317-9967-4a9a-bda9-f6a19b2ca498,Nouns Boy,0xAa66fC4433DFD254F05A720A8c8a2f1F2fbDCB58,App,Art NFTs,0xb8a2be3d9baf934d89c81eb63dc9aec0d2110875,Base,unknown,,,,,,,,,https://basescan.org/address/0xb8a2be3d9baf934d89c81eb63dc9aec0d2110875
7ec52321-6065-4cbf-b763-dec8b0ad5290,nounspace,0x06AE622bF2029Db79Bdebd38F723f1f33f95F6C5,App,Community & Curation,0x48c6740bcf807d6c47c864faeea15ed4da3910ab,Base,unknown,,,,,,,,,https://basescan.org/address/0x48c6740bcf807d6c47c864faeea15ed4da3910ab
0c682377-2b21-414c-8ae2-51a2aec4fc10,NPC Labs,0x1e23166194aB72B70Faf90aA20Adab36607B4c78,App,Art NFTs,0xe3074dac808848cbbf2e221834b0b3fd6a356b36,Base,trace_contract,747.0,747.0,92.0,92.0,9.0,9.0,1.0,0.0,https://basescan.org/address/0xe3074dac808848cbbf2e221834b0b3fd6a356b36
a1f7553b-18c4-4768-9194-f9e19f1de784,OmniHub,0xeD59D863310d387455B5077de2D08055d7E39C61,App,Other Media NFTs,0xd473b08745288ef9b412a339accfacce5cebdd90,Mint,pending_mint,19509.0,19509.0,17733.0,17733.0,4523.0,4523.0,206.0,103.0,https://explorer.mintchain.io/address/0xd473b08745288ef9b412a339accfacce5cebdd90
34035eff-5a57-4d55-9a4d-a065b399babb,Omni X,0xF764467b8c6aBb2c2a3B9835547A2468B04dBa9a,App,Other Media NFTs,0xd12999440402d30f69e282d45081999412013844,Optimism,dapp_contract,144.0,29172.0,126.0,17554.0,32.0,430.0,1.0,140.0,https://optimistic.etherscan.io/address/0xd12999440402d30f69e282d45081999412013844
7f4c65a6-d3c1-4c34-bf64-65db0b60348a,Omni X,0xF764467b8c6aBb2c2a3B9835547A2468B04dBa9a,App,Other Media NFTs,0x061a883e8c2feffb4f3ea42046abd4be88e1333f,Base,dapp_contract,400.0,8569.0,268.0,5502.0,58.0,453.0,3.0,38.0,https://basescan.org/address/0x061a883e8c2feffb4f3ea42046abd4be88e1333f
9867fb53-d3a6-46de-be0e-c4b6b21a0fa0,Omni X,0xF764467b8c6aBb2c2a3B9835547A2468B04dBa9a,App,Other Media NFTs,0x87f7f414e2ff3d8b051cf0fb3ebd3d7811435ebe,Base,dapp_contract,9.0,2547.0,8.0,1329.0,5.0,243.0,0.0,8.0,https://basescan.org/address/0x87f7f414e2ff3d8b051cf0fb3ebd3d7811435ebe
ccbb4b92-d95b-4de5-a252-b52d0a5fa90a,Omni X,0xF764467b8c6aBb2c2a3B9835547A2468B04dBa9a,App,Other Media NFTs,0x87f7f414e2ff3d8b051cf0fb3ebd3d7811435ebe,Zora,dapp_contract,4.0,1080.0,4.0,605.0,3.0,203.0,0.0,3.0,https://zora.thesuperscan.io/address/0x87f7f414e2ff3d8b051cf0fb3ebd3d7811435ebe
67209e62-be17-43ad-9259-b8cd4a8ae1b2,Onchain Affiliates,0x68E08371d1D0311b7c81961c431D71F71a94dd1a,App,Frames,0xceb5f8c24e1ac27d116dc7d6789b20e981a36866,Base,dapp_contract,334.0,334.0,329.0,329.0,316.0,316.0,3.0,1.0,https://basescan.org/address/0xceb5f8c24e1ac27d116dc7d6789b20e981a36866
c2c5a003-7424-41af-8ad5-6873be413eaf,Onchain Blobs - Randomly generated onchain blobs minted via a Farcaster frame,0x777c47498b42dbe449fB4cB810871A46cD777777,Other Application,Frames,0xd1fcb4bdbde69f04540d2c52a81ae33abea46400,Base,dapp_contract,49.0,4210.0,46.0,2915.0,34.0,2037.0,0.0,18.0,https://basescan.org/address/0xd1fcb4bdbde69f04540d2c52a81ae33abea46400
1018d789-bf64-4cd6-90dc-9785a9d0d6bb,onchain gaias,0x99999990D598B918799f38163204Bbc30611B6b6,Other Application,Other Category,0x5f6687b70f7a6029dd37480592da84d465d8cbb7,Base,dapp_contract,1.0,27889.0,1.0,484.0,1.0,439.0,0.0,4.0,https://basescan.org/address/0x5f6687b70f7a6029dd37480592da84d465d8cbb7
1dd6cb56-dfe3-4082-a6d0-1531d1f902e3,Onchain Mecha,0x5f97Cf9DD2cb7b53C47f6b1c26Ab4Bd143325d45,App,Other Media NFTs,0xf9bacd83ee9bbc0819897382c3dac57b270b720c,Base,trace_contract,44.0,44.0,2.0,2.0,1.0,1.0,0.0,0.0,https://basescan.org/address/0xf9bacd83ee9bbc0819897382c3dac57b270b720c
52edcb9e-1859-4e5a-b123-abefca4bd69c,OpenALCHI,0xe7ccFBaF5375da67F6609aDa8023B4033e3cA0d0,App,Gaming,0x7814df368d1bae3ed7b666bbb3e2129b58510702,Mint,pending_mint,42.0,42.0,7.0,7.0,2.0,2.0,0.0,0.0,https://explorer.mintchain.io/address/0x7814df368d1bae3ed7b666bbb3e2129b58510702
eb6218ee-8de5-4348-8d79-30117601812a,OpenCover,0xA71c76409dE10E24ed4fad16c839941CD6D0Cf8F,App,Other Category,0x8101f97d399e110067ff785b783d61545b5f18d2,Base,unknown,,,,,,,,,https://basescan.org/address/0x8101f97d399e110067ff785b783d61545b5f18d2
4d7a1967-86d1-4818-820f-5b2695243cbc,Opti.Domains,0xf01Dd015Bc442d872275A79b9caE84A6ff9B2A27,App,Identity,0xb02edc247246acd78294c62f403b3e64d5917031,Optimism,dapp_contract,1.0,2078.0,1.0,1910.0,1.0,363.0,0.0,10.0,https://optimistic.etherscan.io/address/0xb02edc247246acd78294c62f403b3e64d5917031
17d8f473-a44a-40c9-ad70-41d479db86e3,Optimism Fractal Respect Game,0xf1B8c360317bf1249F976ab82c78aE50365822ec,App,Gaming,0x53c9e3a44b08e7ecf3e8882996a500eb06c0c5cc,Optimism,dapp_contract,82.0,206.0,17.0,31.0,11.0,14.0,0.0,0.0,https://optimistic.etherscan.io/address/0x53c9e3a44b08e7ecf3e8882996a500eb06c0c5cc
18efb6c8-d437-4a4d-a521-6552edf4ee74,Orderly Network,0xc5C10592e6eE2e5aEdd464b3601700c9FB78Ad2F,App,DEX,0x816f722424b49cf1275cc86da9840fbd5a6167e9,Orderly,pending_orderly,,,,,,,,,https://explorer.orderly.network/address/0x816f722424b49cf1275cc86da9840fbd5a6167e9
3fe23b54-e0a8-4869-9e59-c2d1ef8fa5c7,Overtime Markets,0x1e4c7ff127B2321eD05c43AF5E1015dFd8885F30,App,Betting & Prediction Markets,0xfb4e4811c7a811e098a556bd79b64c20b479e431,Optimism,dapp_contract,207521.0,207593.0,2974.0,2975.0,1670.0,1670.0,130.0,65.0,https://optimistic.etherscan.io/address/0xfb4e4811c7a811e098a556bd79b64c20b479e431
0c54a252-8896-4feb-a1a4-0935bf9d2e8d,Owlto Finance,0x0000000000000000000000000000000000000000,App,Bridges,0x3f0f0e6411f859da1a1bbf8bd6217ca93820bb98,Lisk,pending_lisk,,,,,,,,,https://blockscout.lisk.com/address/0x3f0f0e6411f859da1a1bbf8bd6217ca93820bb98
13b449e9-24cc-4ee8-839a-fd84fd002ed4,Owlto Finance,0x0000000000000000000000000000000000000000,App,Bridges,0xc626845bf4e6a5802ef774da0b3dfc6707f015f7,Zora,dapp_contract,860.0,952.0,758.0,833.0,241.0,265.0,8.0,4.0,https://zora.thesuperscan.io/address/0xc626845bf4e6a5802ef774da0b3dfc6707f015f7
6c2180d4-5a2c-452e-8136-3a3474877815,Owlto Finance,0x0000000000000000000000000000000000000000,App,Bridges,0xc626845bf4e6a5802ef774da0b3dfc6707f015f7,Kroma,pending_kroma,639.0,914.0,478.0,608.0,182.0,220.0,6.0,4.0,https://kromascan.com/address/0xc626845bf4e6a5802ef774da0b3dfc6707f015f7
9f3e6766-c51b-45c6-846c-34dc5857f1da,Owlto Finance,0x0000000000000000000000000000000000000000,App,Bridges,0xc626845bf4e6a5802ef774da0b3dfc6707f015f7,Base,dapp_contract,17352.0,18342.0,12014.0,12654.0,4046.0,4280.0,155.0,82.0,https://basescan.org/address/0xc626845bf4e6a5802ef774da0b3dfc6707f015f7
9f9e8469-5d39-45a0-976c-f5fcd083e4f2,Owlto Finance,0x0000000000000000000000000000000000000000,Other Application,Bridges,0x26637c9fdbd5ecdd76a9e21db7ea533e1b0713b6,Base,dapp_contract,670551.0,846559.0,47864.0,65344.0,11114.0,14372.0,6933.0,4412.0,https://basescan.org/address/0x26637c9fdbd5ecdd76a9e21db7ea533e1b0713b6
a73e00af-cb02-49dd-a018-44e7993e0cb4,Owlto Finance,0x0000000000000000000000000000000000000000,App,Bridges,0xc626845bf4e6a5802ef774da0b3dfc6707f015f7,Mint,pending_mint,7493.0,7506.0,6120.0,6131.0,2193.0,2196.0,77.0,38.0,https://explorer.mintchain.io/address/0xc626845bf4e6a5802ef774da0b3dfc6707f015f7
b3ef6751-295e-4acf-8d46-c756fd7cd9fc,Owlto Finance,0x0000000000000000000000000000000000000000,App,Bridges,0xc626845bf4e6a5802ef774da0b3dfc6707f015f7,Mode,dapp_contract,864.0,1968.0,552.0,893.0,224.0,319.0,6.0,5.0,https://explorer.mode.network/address/0xc626845bf4e6a5802ef774da0b3dfc6707f015f7
d8e904ce-e845-4ea5-9765-f866acbff492,Owlto Finance,0x0000000000000000000000000000000000000000,Other Application,Bridges,0x26637c9fdbd5ecdd76a9e21db7ea533e1b0713b6,Base,dapp_contract,670551.0,846559.0,47864.0,65344.0,11114.0,14372.0,6933.0,4412.0,https://basescan.org/address/0x26637c9fdbd5ecdd76a9e21db7ea533e1b0713b6
ea860fc5-1a57-4712-a4ab-7c8d15ccef79,Owlto Finance,0x0000000000000000000000000000000000000000,App,Bridges,0xc626845bf4e6a5802ef774da0b3dfc6707f015f7,SwanChain,pending_swanchain,1.0,1.0,1.0,1.0,1.0,1.0,0.0,0.0,https://mainnet-explorer.swanchain.io/address/0xc626845bf4e6a5802ef774da0b3dfc6707f015f7
f0a5ff91-b4e9-46a6-807f-d84b3ce7b7b1,Owlto Finance,0x0000000000000000000000000000000000000000,App,Bridges,0x0e83ded9f80e1c92549615d96842f5cb64a08762,Optimism,dapp_contract,7179.0,7509.0,5358.0,5574.0,1664.0,1722.0,66.0,34.0,https://optimistic.etherscan.io/address/0x0e83ded9f80e1c92549615d96842f5cb64a08762
9bf08440-e460-47a9-ad4d-147186967721,Pairwise,0x3EF1b0db4D10d2e3cE06699C0BD4EF0aAf897614,App,Community & Curation,0xd00b6da2278ce5c8ca18065ccecad3417e77893e,Optimism,factory_contract,824.0,824.0,414.0,414.0,1.0,1.0,5.0,2.0,https://optimistic.etherscan.io/address/0xd00b6da2278ce5c8ca18065ccecad3417e77893e
89c36fb6-a079-4b6d-901b-dac01e304291,ParaSwap,0x205b989c9b8944fC96d526083928D0Fb070D1E57,App,DEX,0x59c7c832e96d2568bea6db468c1aadcbbda08a52,Base,trace_contract,2023773.0,3097930.0,48775.0,92763.0,6996.0,14138.0,1839.0,1668.0,https://basescan.org/address/0x59c7c832e96d2568bea6db468c1aadcbbda08a52
4d3333d7-8b36-44e6-b69d-79cef9768c7a,Party.app + Party Protocol,0xEdDeb6f119cbFE24741a6333Dc69BffFCBD1dCA1,App,Community & Curation,0x68e9fc0e4d7af69ba64dd6827bfce5cd230b8f3d,Base,factory_contract,13028.0,53533.0,6827.0,23579.0,1119.0,6940.0,90.0,192.0,https://basescan.org/address/0x68e9fc0e4d7af69ba64dd6827bfce5cd230b8f3d
211197d4-6273-40cd-aae1-3638143438cb,Payflow,0x5b7a11ba3f66Bd2365B5f489B72DbB46d528Da7a,App,Payments,0x4e1dcf7ad4e460cfd30791ccc4f9c8a4f820ec67,Base,invalid_contract,,,,,,,,,https://basescan.org/address/0x4e1dcf7ad4e460cfd30791ccc4f9c8a4f820ec67
f01e091a-ca3a-4ae0-8eb1-6302188e9278,Peapods Finance,0x0000000000000000000000000000000000000000,App,Other Category,0x02f92800f57bcd74066f5709f1daa1a4302df875,Base,token_contract,49577.0,58152.0,2187.0,3199.0,356.0,603.0,74.0,48.0,https://basescan.org/address/0x02f92800f57bcd74066f5709f1daa1a4302df875
1cda49ae-4a15-4437-a24e-260f4d43cbaa,Pin Save,0x48294a067D1bC5a58BCbAB4b3bE329d078D9E1Af,App,Meme Community,0x40f320cd3cd616e59599568c4ea011e2ee49a175,Optimism,dapp_contract,,,,,,,,,https://optimistic.etherscan.io/address/0x40f320cd3cd616e59599568c4ea011e2ee49a175
55ea809f-3a8b-4ccf-abbf-4e25374dd239,Pixotchi,0x44e156CBb4506cee55A96b45D10A77806E012469,App,Gaming,0x546d239032b24eceee0cb05c92fc39090846adc7,Base,token_contract,138627.0,188240.0,10898.0,14307.0,2188.0,2435.0,203.0,156.0,https://basescan.org/address/0x546d239032b24eceee0cb05c92fc39090846adc7
62507fe2-e3c4-4293-ab99-56ccb7b58f9f,Planet Lukukul,0x0000000000000000000000000000000000000000,App,Art NFTs,0xd0fc88f29c456e44256ba013de787cecce06077f,Zora,unknown,,,,,,,,,https://zora.thesuperscan.io/address/0xd0fc88f29c456e44256ba013de787cecce06077f
5df30ae5-bda9-4799-998f-a82e794396d9,PokPok Protocol,0x6CeBc0bBc501d73Fe71D9fe3063fA22d1B17f3f4,App,Gaming,0x1c142d5449b581a49616ac879631913b43e579e2,Base,dapp_contract,4512.0,4512.0,61.0,61.0,19.0,19.0,3.0,1.0,https://basescan.org/address/0x1c142d5449b581a49616ac879631913b43e579e2
95b21f64-232d-4507-bc70-d7424f7b700f,Polynomial Trade,0xC1d7d33c5E91C768116466a33a222B8e7606D971,App,DEX,0xb43c0899eccf98bc7a0f3e2c2a211d6fc4f9b3fe,Polynomial,pending_polynomial,,,,,,,,,https://polynomialscan.io/address/0xb43c0899eccf98bc7a0f3e2c2a211d6fc4f9b3fe
dcbaaa8b-e7da-48a1-a5fc-8ee55f4e7650,Polynomial Trade,0x8136Efbaf75D7b13F033573666f393d65Da35953,App,DEX,0xe2c5658cc5c448b48141168f3e475df8f65a1e3e,Polynomial,pending_polynomial,1155.0,1155.0,2.0,2.0,1.0,1.0,0.0,0.0,https://polynomialscan.io/address/0xe2c5658cc5c448b48141168f3e475df8f65a1e3e
e9aa7925-c471-4c63-961a-c35abfe20159,PoolTogether,0x9F36A6bB398118bdCD5B1bC3343D8FEB6d7d02B9,App,Other Category,0xf35fe10ffd0a9672d0095c435fd8767a7fe29b55,Optimism,trace_contract,22057.0,25614.0,623.0,651.0,76.0,83.0,84.0,50.0,https://optimistic.etherscan.io/address/0xf35fe10ffd0a9672d0095c435fd8767a7fe29b55
97a50e6a-18df-4572-bcb5-235b63f7e256,Privy,0x89213f11E4A356d450Ab89A876F4c1cb5B8996DA,App,Community & Curation,0xf2a919977c6de88dd8ed90feaadfcc5d65d66038,Base,trace_contract,83.0,124.0,31.0,63.0,7.0,14.0,0.0,0.0,https://basescan.org/address/0xf2a919977c6de88dd8ed90feaadfcc5d65d66038
44cceb66-8501-40b7-b977-b9aecf4d4b3b,PSILOCYBIN,0x6A08A2b9C30174506bF4922d0C580995136c762D,App,Art NFTs,0x763390a0fa5e5090da1c1c5e3640e7f2423d18e7,Zora,dapp_contract,305.0,305.0,273.0,273.0,124.0,124.0,3.0,1.0,https://zora.thesuperscan.io/address/0x763390a0fa5e5090da1c1c5e3640e7f2423d18e7
be4c1824-c482-4316-b5c6-706e926061da,Quidli,0x2055149768d71910aA4125CcBb9fDc46EdeB2436,App,Frames,0x948092958c66f228e6c7afcc96935661eea4a3c5,Base,dapp_contract,114.0,114.0,17.0,17.0,14.0,14.0,0.0,0.0,https://basescan.org/address/0x948092958c66f228e6c7afcc96935661eea4a3c5
27c8dcfb-1db0-4193-96eb-51d07795bae6,Radiant Capital,0x0000000000000000000000000000000000000000,App,Lending,0xad1640540cbf73b458a051edc8768240f0412142,Base,dapp_contract,1497.0,1497.0,391.0,391.0,40.0,40.0,11.0,5.0,https://basescan.org/address/0xad1640540cbf73b458a051edc8768240f0412142
399b2fa6-3c51-46b3-a6b5-5e76900103ad,Radiant Capital,0x0000000000000000000000000000000000000000,App,Lending,0xd722e55c1d9d9fa0021a5215cbb904b92b3dc5d4,Base,token_contract,30931.0,30944.0,972.0,976.0,92.0,92.0,59.0,29.0,https://basescan.org/address/0xd722e55c1d9d9fa0021a5215cbb904b92b3dc5d4
9355b4e4-095e-4854-81da-209c48a065db,Radiant Capital,0x0000000000000000000000000000000000000000,App,Lending,0xd87f8a52a91680c993ece968b281bf92505a3741,Base,trace_contract,14587.0,14587.0,329.0,329.0,28.0,28.0,15.0,7.0,https://basescan.org/address/0xd87f8a52a91680c993ece968b281bf92505a3741
b5467101-d58e-42ab-8b4d-0155296c9e8a,Radiant Capital,0x0000000000000000000000000000000000000000,App,Lending,0x30798cfe2cca822321ceed7e6085e633aabc492f,Base,trace_contract,40394.0,40416.0,738.0,738.0,82.0,82.0,29.0,14.0,https://basescan.org/address/0x30798cfe2cca822321ceed7e6085e633aabc492f
14cad899-40f6-478b-8d59-4c465dc20f50,Raffle Base,0x34045c937742C8AD6222A10eb21c7CfFF8Bf870E,App,Betting & Prediction Markets,0x2d5d128710b7bdd531c074be62123827ab8d5d52,Base,unknown,,,,,,,,,https://basescan.org/address/0x2d5d128710b7bdd531c074be62123827ab8d5d52
59931c2c-ea64-4bfa-a3b4-1cc3eabd9f09,Raindoge,0x5ae019F7eE28612b058381f4Fea213Cc90ee88A4,App,Other Category,0x1fe75e90c97d24a3912a2e785bc02f89b4442a3e,Base,unknown,,,,,,,,,https://basescan.org/address/0x1fe75e90c97d24a3912a2e785bc02f89b4442a3e
c89a18cb-081f-4a9b-b580-e1285163613a,Recipes Onchain,0xF63B3cE2D038f11CA4fC5e11265B7b4417a16aDc,App,Community & Curation,0x2843b40a3ac54044f94480417c2d3698ebc94583,Base,dapp_contract,19.0,19.0,1.0,1.0,1.0,1.0,0.0,0.0,https://basescan.org/address/0x2843b40a3ac54044f94480417c2d3698ebc94583
c2530b32-dc3f-44d6-9722-6270e6866fc7,Remote Control,0x0000000000000000000000000000000000000000,App,Community & Curation,0x6d6df6718fb6faf5b94bfce2db2d6fb36d1f3c9a,Zora,dapp_contract,6369.0,6369.0,830.0,830.0,496.0,496.0,21.0,10.0,https://zora.thesuperscan.io/address/0x6d6df6718fb6faf5b94bfce2db2d6fb36d1f3c9a
f62c57a7-06c2-48bc-81fb-03501cd5f4e2,RetroList,0xf01Dd015Bc442d872275A79b9caE84A6ff9B2A27,Other Application,Other Category,0x9e05bdcadad2be099050635e8c6f3954915ed129,Optimism,unknown,,,,,,,,,https://optimistic.etherscan.io/address/0x9e05bdcadad2be099050635e8c6f3954915ed129
5150f019-7b34-4f19-bc85-278301eeb35f,Rodeo,0x0000000000000000000000000000000000000000,App,Art NFTs,0x132363a3bbf47e06cf642dd18e9173e364546c99,Base,dapp_contract,156562.0,156562.0,6042.0,6042.0,4323.0,4323.0,266.0,133.0,https://basescan.org/address/0x132363a3bbf47e06cf642dd18e9173e364546c99
d39241d2-6037-4f25-8ef8-3560ca94d859,Rounds,0xba2b9804FbffA8F1A8F7DC8dd600E21268beF09F,App,Community & Curation,0x80d51c30954ee18598f04ed0303593120f4c67a6,Base,dapp_contract,2137.0,15592.0,1.0,8.0,1.0,2.0,0.0,1.0,https://basescan.org/address/0x80d51c30954ee18598f04ed0303593120f4c67a6
02439dc9-9d63-4ba9-a0b0-b995251586ed,RubyScore,0xD50A234082C1CEa12A7A9DD6F37a85fcc55ED459,App,Identity,0x009dbfee9e155766af434ed1652ca3769b05e76f,Optimism,dapp_contract,1156.0,9016.0,1141.0,8798.0,561.0,2906.0,12.0,49.0,https://optimistic.etherscan.io/address/0x009dbfee9e155766af434ed1652ca3769b05e76f
44f074aa-6ccd-4f72-be91-92c406f0bdca,RubyScore,0xD50A234082C1CEa12A7A9DD6F37a85fcc55ED459,App,Other Category,0xbdb018e21ad1e5756853fe008793a474d329991b,Zora,dapp_contract,3537.0,10699.0,1533.0,3774.0,608.0,1328.0,26.0,39.0,https://zora.thesuperscan.io/address/0xbdb018e21ad1e5756853fe008793a474d329991b
5f969f7d-8725-48d9-9249-e7655827caba,RubyScore,0xD50A234082C1CEa12A7A9DD6F37a85fcc55ED459,App,Identity,0xe10add2ad591a7ac3ca46788a06290de017b9fb4,Base,dapp_contract,208580.0,399873.0,23463.0,63043.0,5089.0,8328.0,842.0,1177.0,https://basescan.org/address/0xe10add2ad591a7ac3ca46788a06290de017b9fb4
860b6f97-d7d3-4da6-85f0-3d83d94a8256,RubyScore,0xD50A234082C1CEa12A7A9DD6F37a85fcc55ED459,App,Other Category,0xbdb018e21ad1e5756853fe008793a474d329991b,Base,dapp_contract,6931.0,34507.0,2899.0,11341.0,1045.0,3304.0,44.0,113.0,https://basescan.org/address/0xbdb018e21ad1e5756853fe008793a474d329991b
cbd87620-2028-4bc0-a2a2-d915bb2454b9,RubyScore,0xD50A234082C1CEa12A7A9DD6F37a85fcc55ED459,App,Identity,0xdc3d8318fbaec2de49281843f5bba22e78338146,Zora,dapp_contract,57295.0,121865.0,8142.0,18523.0,1986.0,2854.0,522.0,562.0,https://zora.thesuperscan.io/address/0xdc3d8318fbaec2de49281843f5bba22e78338146
37ebda5c-4dda-4162-8e8d-a6b6b3f9c838,RumourCast,0xb7eC6b9D8E105032278C53FF7858EB4Df466417a,App,Meme Community,0x1ceccbe4d3a19cb62dbbd09756a52cfe5394fab8,Base,unknown,,,,,,,,,https://basescan.org/address/0x1ceccbe4d3a19cb62dbbd09756a52cfe5394fab8
5b3cbcfd-ba89-4b03-b757-c10dd8f571a4,Sablier,0x516f949f66E0F4bf8Bd0AC335C377997659fD0Cf,App,Payments,0xfcf737582d167c7d20a336532eb8bcca8cf8e350,Optimism,unknown,,,,,,,,,https://optimistic.etherscan.io/address/0xfcf737582d167c7d20a336532eb8bcca8cf8e350
f229ae60-0332-47ad-8f82-87ab52e06b68,Safaricaster,0x4A0658bdADEF6CBbF7cB6d55eb7CB684886Fc74B,App,Frames,0xd2bf1158aa670dcdcf5197821d153195dd8d8f4f,Base,dapp_contract,131.0,131.0,81.0,81.0,72.0,72.0,1.0,0.0,https://basescan.org/address/0xd2bf1158aa670dcdcf5197821d153195dd8d8f4f
07cbabee-44a5-4fb9-96d3-f03d52f3dd37,Savings-USX $sUSX,0x300ecEb6f549c14779DdCBD9BdFce4a2B1C7DFaB,App,Lending,0xbc404429558292ee2d769e57d57d6e74bbd2792d,Optimism,token_contract,25.0,25.0,11.0,11.0,1.0,1.0,0.0,0.0,https://optimistic.etherscan.io/address/0xbc404429558292ee2d769e57d57d6e74bbd2792d
6a33df9a-3761-441f-9f28-1042db9dbc0b,Scoop3,0xDa469A6C78D12996895721fceBA62E510b38FAf3,App,Other Media NFTs,0x3f5ccf453072c3841dd6a0b531fa5d07c4a401ff,Base,unknown,,,,,,,,,https://basescan.org/address/0x3f5ccf453072c3841dd6a0b531fa5d07c4a401ff
3922c00b-976f-43dd-8e1a-616b686efee1,Scoop,0x0B3CF56E7dF3BB3Fb7201fFcD96d279b05DDd2E3,App,Gaming,0xaeea89678b36c20493e2c069cdcea72e1b34a9ed,Base,dapp_contract,161652.0,161652.0,3070.0,3070.0,13.0,13.0,191.0,95.0,https://basescan.org/address/0xaeea89678b36c20493e2c069cdcea72e1b34a9ed
4b8a828b-14c0-47fb-9688-48706601ebc7,Scry,0x3363b291a21cC692A5e07C9C63E3DF45F135EFcd,App,Other Category,0x0000000000071821e8033345a7be174647be0706,Optimism,dapp_contract,,,,,,,,,https://optimistic.etherscan.io/address/0x0000000000071821e8033345a7be174647be0706
70454ef1-f5d4-4b74-a3d0-ce63504972fe,Seamless Protocol,0xc87e97a6219725ce2A184A668Ae74f3733D4C510,App,Lending,0x36291d2d51a0122b9facbe3c3f989cc6b1f859b3,Base,dapp_contract,,,,,,,,,https://basescan.org/address/0x36291d2d51a0122b9facbe3c3f989cc6b1f859b3
02873c40-7e3f-4f0c-b9ff-ba12466b834c,/send,0x02cdD55Bea4d8Ef7E7dDA6A60305a03dfaB0C128,App,Payments,0xe269194e41cd50e2986f82fc23a2b95d8bafed2b,Base,unknown,,,,,,,,,https://basescan.org/address/0xe269194e41cd50e2986f82fc23a2b95d8bafed2b
3600073d-fe30-4c55-84b6-5cf388843fd2,/send,0x02cdD55Bea4d8Ef7E7dDA6A60305a03dfaB0C128,App,Payments,0xb9310dae45e71c7a160a13d64204623071a8e347,Base,unknown,,,,,,,,,https://basescan.org/address/0xb9310dae45e71c7a160a13d64204623071a8e347
40e9c64b-e468-4a27-8dfa-b392f5813c2e,/send,0x02cdD55Bea4d8Ef7E7dDA6A60305a03dfaB0C128,App,Payments,0x008c9561857b6555584d20ac55110335759aa2c2,Base,factory_contract,4277.0,4277.0,46.0,46.0,7.0,7.0,1.0,0.0,https://basescan.org/address/0x008c9561857b6555584d20ac55110335759aa2c2
91d27ce9-b7f8-4c31-bba2-f8a0ba72eadb,/send,0x02cdD55Bea4d8Ef7E7dDA6A60305a03dfaB0C128,App,Payments,0x36f43082d01df4801af2d95aeed1a0200c5510ae,Base,trace_contract,1618.0,1618.0,429.0,429.0,1.0,1.0,6.0,3.0,https://basescan.org/address/0x36f43082d01df4801af2d95aeed1a0200c5510ae
b6cb620b-63ad-4ff7-b9bf-53c66db71dad,/send,0x02cdD55Bea4d8Ef7E7dDA6A60305a03dfaB0C128,App,Payments,0x592e1224d203be4214b15e205f6081fbbacfcd2d,Base,trace_contract,34888.0,34888.0,955.0,955.0,2.0,2.0,30.0,15.0,https://basescan.org/address/0x592e1224d203be4214b15e205f6081fbbacfcd2d
f7e0b2d9-b0c5-4464-9994-9ae3984a3579,/send,0x02cdD55Bea4d8Ef7E7dDA6A60305a03dfaB0C128,App,Payments,0x3f14920c99beb920afa163031c4e47a3e03b3e4a,Base,token_contract,11126.0,23456.0,1409.0,3358.0,140.0,305.0,40.0,57.0,https://basescan.org/address/0x3f14920c99beb920afa163031c4e47a3e03b3e4a
0e554b3f-68d3-4b76-9850-4d7e639bb06d,Silo Finance,0x41a8709A508f07e6fA33dB0111813C5084fDC50D,App,Lending,0x1ebf59146ccdc4650044fc70cafac298a6083f5f,Optimism,trace_contract,40187.0,40190.0,144.0,146.0,1.0,1.0,14.0,7.0,https://optimistic.etherscan.io/address/0x1ebf59146ccdc4650044fc70cafac298a6083f5f
2d687960-ac06-4525-86d4-c6f4550eee07,Silo Finance,0x41a8709A508f07e6fA33dB0111813C5084fDC50D,App,Lending,0x12ee4be944b993c81b6840e088ba1dcc57f07b1d,Optimism,trace_contract,69441.0,69441.0,108.0,108.0,1.0,1.0,9.0,4.0,https://optimistic.etherscan.io/address/0x12ee4be944b993c81b6840e088ba1dcc57f07b1d
79ca5360-e99c-4b63-a147-3b9ba74f81ac,Silo Finance,0x41a8709A508f07e6fA33dB0111813C5084fDC50D,App,Lending,0x8ed1609d796345661d36291b411992e85de7b224,Optimism,trace_contract,29658.0,29661.0,41.0,43.0,1.0,1.0,12.0,6.0,https://optimistic.etherscan.io/address/0x8ed1609d796345661d36291b411992e85de7b224
7f3f7eda-5a61-44c8-b8d3-e89fd718c4b3,Silo Finance,0x41a8709A508f07e6fA33dB0111813C5084fDC50D,App,Lending,0xd9b605f0b9e64328ae50d1b44ec14d38c009a702,Optimism,trace_contract,4038.0,4038.0,16.0,16.0,1.0,1.0,1.0,0.0,https://optimistic.etherscan.io/address/0xd9b605f0b9e64328ae50d1b44ec14d38c009a702
fef42e13-7204-4f1f-a20c-065e6baf2b51,Silo Finance,0x41a8709A508f07e6fA33dB0111813C5084fDC50D,App,Lending,0x03d0b417b7bcd0c399f1db3321985353a515b2b8,Optimism,trace_contract,7414.0,7417.0,44.0,46.0,1.0,1.0,10.0,5.0,https://optimistic.etherscan.io/address/0x03d0b417b7bcd0c399f1db3321985353a515b2b8
c4d583a8-91fc-424e-861f-f995e976f58d,Smellcheckmate,0x7639b96593B2E34F27Ee57f4B1583c4b33dd9679,App,Community & Curation,0x3f3c9fcd3d34b568c5c1e9caa2ae4c6d5775c651,Base,dapp_contract,37.0,37.0,32.0,32.0,30.0,30.0,0.0,0.0,https://basescan.org/address/0x3f3c9fcd3d34b568c5c1e9caa2ae4c6d5775c651
951cae03-ee9e-4408-8e5e-203d97be52e9,Snickerdoodle,0x7A254a1271f338995d4768C5066508B1b0946aA8,App,Frames,0x4054ad4648a2c33e1be07ba05d381b4ca032cefc,Base,trace_contract,267609.0,270714.0,18989.0,19140.0,14228.0,14308.0,434.0,220.0,https://basescan.org/address/0x4054ad4648a2c33e1be07ba05d381b4ca032cefc
ac830644-44ff-4e95-be1d-3da592f691b2,Socket protocol,0xbeddf3ef667FFdc1e250F53430963CB664301053,Other Application,Other Category,0x5800249621da520adfdca16da20d8a5fc0f814d8,Optimism,dapp_contract,78692.0,281870.0,25539.0,88903.0,2094.0,7323.0,333.0,695.0,https://optimistic.etherscan.io/address/0x5800249621da520adfdca16da20d8a5fc0f814d8
ec336ada-b777-42e2-9878-812a87d7bf13,Songbirdz,0x3fb4920e09493b2bC7e9b7e14EA7585Ca8bAbF21,App,Gaming,0x7c3b795e2174c5e0c4f7d563a2fb34f024c8390b,Base,dapp_contract,4119.0,4209.0,1688.0,1690.0,821.0,821.0,20.0,10.0,https://basescan.org/address/0x7c3b795e2174c5e0c4f7d563a2fb34f024c8390b
339045ef-ff61-4c5e-be0c-fd092be8f7dd,song.camp: mint your music,0xfC4852B5e3aF65058CdfE1D1dce26946c0C1975f,App,Other Media NFTs,0x50b1e01fbb9adfdd8aeaead47c1b3d4062af5c08,Base,unknown,,,,,,,,,https://basescan.org/address/0x50b1e01fbb9adfdd8aeaead47c1b3d4062af5c08
2b3eb503-4f39-4737-ac25-8b78b54aac7e,Spotlight,0xe999E0cEf99050b59DbE9472aa9a3c3E0816FdB5,App,Community & Curation,0x4abdc4cfd98fc6eaa21514ab3005f0310e255b65,Base,trace_contract,99.0,99.0,39.0,39.0,2.0,2.0,0.0,0.0,https://basescan.org/address/0x4abdc4cfd98fc6eaa21514ab3005f0310e255b65
628e384f-7826-4f97-8509-aff80c9bf4f2,Starta x Degen Bridge,0xee5a3e1C0049089683F6183Cb5a4928085b330c0,App,Bridges,0x67e2ef29a62a7827823ebed495115458286b7d12,Base,dapp_contract,18.0,183.0,12.0,85.0,10.0,67.0,0.0,0.0,https://basescan.org/address/0x67e2ef29a62a7827823ebed495115458286b7d12
58dccd77-5892-429d-83bf-ac9972153a97,StreamNFT,0xF45a5Fdb84e6a887B69F2F5c92fE765433d34CFf,App,Other Category,0x4cc09d3aab71cdfb652c3cda3c34c157767e35f7,Base,unknown,,,,,,,,,https://basescan.org/address/0x4cc09d3aab71cdfb652c3cda3c34c157767e35f7
c7c34284-ebe9-4a5e-a5de-4a2cd746507b,StreamNFT,0xF45a5Fdb84e6a887B69F2F5c92fE765433d34CFf,App,Other Category,0xc69cbc5b96229f69106f2e912736397c85907e49,Mint,pending_mint,,,,,,,,,https://explorer.mintchain.io/address/0xc69cbc5b96229f69106f2e912736397c85907e49
480aae5a-3e1b-4b9e-a8e8-3a06a47f78af,Sturdy,0x56eeD2aa6DF7da7FD721629a99f3890E814167DB,App,Lending,0xd60dd6981ec336fda40820f8ca5e99cd17dd25a0,Mode,dapp_contract,4079.0,33772.0,2461.0,7756.0,878.0,2358.0,35.0,84.0,https://explorer.mode.network/address/0xd60dd6981ec336fda40820f8ca5e99cd17dd25a0
fe568f15-6e68-44fc-a355-de255b01502a,stVol,0x0000000000000000000000000000000000000000,App,Other Category,0x2f6cddd6d22b0fa917cc81166d26b4b9c9834f9a,Base,dapp_contract,6001.0,6001.0,132.0,132.0,21.0,21.0,3.0,1.0,https://basescan.org/address/0x2f6cddd6d22b0fa917cc81166d26b4b9c9834f9a
63313238-bd94-43ab-b981-b9e778917ad2,Sunnypunx,0x73f6F1eD2B4246Aa5313abD8799164F632E4409C,App,Art NFTs,0x2da61a0ec93e3209c0046397ba9aa3e2bcc339f9,Optimism,dapp_contract,47.0,56.0,15.0,22.0,11.0,16.0,0.0,0.0,https://optimistic.etherscan.io/address/0x2da61a0ec93e3209c0046397ba9aa3e2bcc339f9
6b6c1870-6136-488d-a8bb-d55a65a3f69a,Supa,0x9d8a155f084741fF4C69c3B1272b5b30A8373d1b,App,Community & Curation,0xb0057ed0100643b4b2852799a3c3fed33947d47c,Base,factory_contract,7.0,799.0,4.0,91.0,4.0,30.0,0.0,1.0,https://basescan.org/address/0xb0057ed0100643b4b2852799a3c3fed33947d47c
29f32cfe-7faa-4d47-829c-440137a7899c,SuperBoring,0x4E030653a39B3478aDc03d2c7B6F8C45aE685882,App,DEX,0x37d607bd9dfff80acf37184c1f27e88388914262,Base,trace_contract,105114.0,105114.0,423.0,423.0,159.0,159.0,53.0,26.0,https://basescan.org/address/0x37d607bd9dfff80acf37184c1f27e88388914262
c091964f-8f72-433b-a294-effd324e34ed,Superbridge,0xc9a5cb4bDA310fBcDcd83Fc502C146645280Ce7A,App,Bridges,0x3154cf16ccdb4c6d922629664174b904d80f2c35,Base,dapp_contract,44.0,91.0,40.0,72.0,2.0,3.0,0.0,0.0,https://basescan.org/address/0x3154cf16ccdb4c6d922629664174b904d80f2c35
7c20aa1a-9c30-4a6c-aa77-f1fdf0570c59,Superform,0xec14D5F694841Ca7b851013F096B0060026FD38C,App,Other Category,0xa195608c2306a26f727d5199d5a382a4508308da,Base,dapp_contract,91890.0,123151.0,41033.0,50024.0,13069.0,15485.0,817.0,536.0,https://basescan.org/address/0xa195608c2306a26f727d5199d5a382a4508308da
e50d1f7e-57e9-4d5c-8e71-ec627032d4b0,Surreal,0xA582360DA4ae1fBb912C975fcce1A0C0e2af91e8,App,Other Media Marketplace,0x5675fa187311ab57794c5c2bb99cd4502353f6aa,Zora,dapp_contract,119.0,266.0,69.0,154.0,41.0,69.0,1.0,1.0,https://zora.thesuperscan.io/address/0x5675fa187311ab57794c5c2bb99cd4502353f6aa
2fa49154-5fd8-46ea-b594-84491efdc590,Sushiswap,0x45d2Cc0c0a4641079B3203ED0d3B66456a02d4CF,App,DEX,0xfbc12984689e5f15626bad03ad60160fe98b303c,Optimism,factory_contract,11.0,20.0,7.0,12.0,1.0,1.0,0.0,0.0,https://optimistic.etherscan.io/address/0xfbc12984689e5f15626bad03ad60160fe98b303c
cffd93db-2896-48f4-a6aa-a288209e05ba,SwanSwap,0x812EC7e3f898F3aCAC1e366694d4787657208378,App,DEX,0xc02f1a7c9e7fa9ca0ddec1ae6866c18fa2799a58,SwanChain,pending_swanchain,14.0,14.0,1.0,1.0,1.0,1.0,0.0,0.0,https://mainnet-explorer.swanchain.io/address/0xc02f1a7c9e7fa9ca0ddec1ae6866c18fa2799a58
78f5358d-b614-42ec-a07b-7cad08ac4d9b,SwapBased,0x11a434254794e96d2606f249c6911E94765a5796,App,DEX,0xd07379a755a8f11b57610154861d694b2a0f615a,Base,token_contract,116396.0,462387.0,12191.0,43262.0,597.0,2210.0,329.0,662.0,https://basescan.org/address/0xd07379a755a8f11b57610154861d694b2a0f615a
6abf69a8-b174-4fec-8b16-7f923f41623c,SwapMode,0x0000000000000000000000000000000000000000,App,DEX,0x327df1e6de05895d2ab08513aadd9313fe505d86,Mode,trace_contract,26025.0,105302.0,23.0,24.0,1.0,1.0,17.0,15.0,https://explorer.mode.network/address/0x327df1e6de05895d2ab08513aadd9313fe505d86
79586cb4-cb58-4424-8c07-3812951588a3,SwapMode,0x0000000000000000000000000000000000000000,App,DEX,0x327df1e6de05895d2ab08513aadd9313fe505d86,Mode,trace_contract,26025.0,105302.0,23.0,24.0,1.0,1.0,17.0,15.0,https://explorer.mode.network/address/0x327df1e6de05895d2ab08513aadd9313fe505d86
bf0f3f7d-e39c-43eb-a546-a0d383a1cae5,Swaye,0x288262DcdF3e2f3dbcb2DcFbF9DCC0D9AdC50f8a,App,Betting & Prediction Markets,0x1674035ddbfa10efd75762a3f102883f6390cdfa,Base,factory_contract,554.0,554.0,285.0,285.0,2.0,2.0,5.0,2.0,https://basescan.org/address/0x1674035ddbfa10efd75762a3f102883f6390cdfa
223128bf-802d-40f8-9c33-25f88a114c7e,SynFutures,0x7aA49f55A538586764b65a0C4C7e1D8C6243C027,App,DEX,0xec6c44e704eb1932ec5fe1e4aba58db6fee71460,Base,trace_contract,3468707.0,3468707.0,85865.0,85865.0,133.0,133.0,2119.0,1059.0,https://basescan.org/address/0xec6c44e704eb1932ec5fe1e4aba58db6fee71460
f3a42626-c33e-40c6-bea0-fbfc53aa402a,Talent Protocol,0xC925bD0E839E8e22A7DDEbe7f4C21b187deeC358,App,Identity,0xb477a9bd2547ad61f4ac22113172dd909e5b2331,Base,trace_contract,18659.0,18659.0,2.0,2.0,1.0,1.0,0.0,0.0,https://basescan.org/address/0xb477a9bd2547ad61f4ac22113172dd909e5b2331
b1b4f593-14a5-4eb0-8b08-f08aea75137d,Target Onchain 🎯,0x372082138ea420eBe56078D73F0359D686A7E981,App,Frames,0x4200000000000000000000000000000000000021,Base,invalid_contract,,,,,,,,,https://basescan.org/address/0x4200000000000000000000000000000000000021
7c4ccb00-8e0d-4b6f-8f95-befe7d702d10,Tasseo,0xCFFbda2841Ef95DF3e977982eCc55429B8D82eB5,App,Art NFTs,0x2fbdb8d7c9e4d6ab341541361895ce8a2611717c,Base,dapp_contract,193.0,193.0,92.0,92.0,47.0,47.0,1.0,0.0,https://basescan.org/address/0x2fbdb8d7c9e4d6ab341541361895ce8a2611717c
430a1b78-4731-4576-a59d-1340e59a48e9,Team Super Onchain ,0x5183E0203858aa3E3bc3A7D9cb41875a4c0A6216,Other Application,Channels,0x59c553a871df9424a269c18458e99438f542f85a,Base,trace_contract,,,,,,,,,https://basescan.org/address/0x59c553a871df9424a269c18458e99438f542f85a
d5ab9b46-0fa7-4fc7-a525-be40da7d597d,Team Super Onchain ,0x5183E0203858aa3E3bc3A7D9cb41875a4c0A6216,Other Application,Channels,0x59c553a871df9424a269c18458e99438f542f85a,Base,trace_contract,,,,,,,,,https://basescan.org/address/0x59c553a871df9424a269c18458e99438f542f85a
4f7025f1-4a4d-4d8d-9d94-514779ac382f,Test 2,0x66525057AC951a0DB5C9fa7fAC6E056D6b8997E2,App,Payments,0x90e1c94ca5e161acb420e59d8be5041db931c9dd,Base,unknown,,,,,,,,,https://basescan.org/address/0x90e1c94ca5e161acb420e59d8be5041db931c9dd
94685eed-3fee-462f-b141-862a016f363f,Testing testing,0xb1b9FFF08F3827875F91ddE929036a65f2A5d27d,App,DEX,0x90e1c94ca5e161acb420e59d8be5041db931c9dd,Base,unknown,,,,,,,,,https://basescan.org/address/0x90e1c94ca5e161acb420e59d8be5041db931c9dd
b88ce9ac-bb8d-4c74-be06-74a3a9a821a6,Test Project,0x4a6894Dd556fab996f8D50b521f900CAEedC168e,Other Application,Staking,0xd154fe208f07ab4ce106d020f80e0468688ab56d,Optimism,token_contract,1.0,1.0,2.0,2.0,2.0,2.0,0.0,0.0,https://optimistic.etherscan.io/address/0xd154fe208f07ab4ce106d020f80e0468688ab56d
4c2bd46d-c518-4798-84f8-27b0bdca3c73,Thales Protocol,0x1e4c7ff127B2321eD05c43AF5E1015dFd8885F30,App,DEX,0x170a5714112daeff20e798b6e92e25b86ea603c1,Optimism,trace_contract,18435.0,103361.0,2106.0,14798.0,87.0,256.0,46.0,136.0,https://optimistic.etherscan.io/address/0x170a5714112daeff20e798b6e92e25b86ea603c1
286e9c11-c4b2-4693-a6c3-5b606364ebad,The MVHQ App,0x0000000000000000000000000000000000000000,App,Identity,0xd2c2d1ac51ba7d1ec74da90b07b0fc3fb55294ec,Base,dapp_contract,218.0,107770.0,187.0,106428.0,46.0,24979.0,2.0,594.0,https://basescan.org/address/0xd2c2d1ac51ba7d1ec74da90b07b0fc3fb55294ec
c998e244-23fe-4172-b850-dd2c1e264529,Time.fun,0x0000000000000000000000000000000000000000,App,Other Media Marketplace,0x428aef7fb31e4e86162d62d4530a4dd7232d953d,Base,dapp_contract,13965.0,13965.0,1811.0,1811.0,6.0,6.0,32.0,16.0,https://basescan.org/address/0x428aef7fb31e4e86162d62d4530a4dd7232d953d
ca0f8386-dd66-4486-8a50-060e2beb29aa,TLX,0x839d36595175E1F678110d52D8265a2FEa9607bA,App,DEX,0x4a1ee35f7a41b72c65ac429ec92c1221be78404c,Optimism,dapp_contract,,,,,,,,,https://optimistic.etherscan.io/address/0x4a1ee35f7a41b72c65ac429ec92c1221be78404c
e9644a11-f9dd-4efd-b4dc-0d197047512d,TOCD Studio,0xd271e65Ff057cE4aDE07c52Da78d54b391AD4dcD,App,Gaming,0x868517f2542381fb116d77fce094d31ed966fe71,Base,trace_contract,279.0,4070.0,10.0,11.0,2.0,2.0,1.0,1.0,https://basescan.org/address/0x868517f2542381fb116d77fce094d31ed966fe71
869cb124-1c70-477c-936d-449a9bccd567,Top Test,0xc42c77b6B2A2B220b9502F357bBf51334Db3C93f,App,Airdrop,0xc42c77b6b2a2b220b9502f357bbf51334db3c93f,Base,trace_contract,18.0,50.0,14.0,24.0,1.0,1.0,0.0,0.0,https://basescan.org/address/0xc42c77b6b2a2b220b9502f357bbf51334db3c93f
11c708c3-7202-47ef-83eb-93128333efea,Toros (Base),0x5c54560B6da16dCEdFAeF1d9118c547ED2F373eC,App,DEX,0xe10ed1e5354eed0f7c9d2e16250ba8996c12db7a,Base,dapp_contract,9149.0,9402.0,6507.0,6582.0,1691.0,1693.0,94.0,48.0,https://basescan.org/address/0xe10ed1e5354eed0f7c9d2e16250ba8996c12db7a
b0de8ea4-0efe-4cd0-95be-d3fd697b8986,Toros (Optimism),0x5c54560B6da16dCEdFAeF1d9118c547ED2F373eC,App,DEX,0x3988513793bce39f0167064a9f7fc3617faf35ab,Optimism,dapp_contract,48375.0,52060.0,4593.0,5539.0,158.0,338.0,283.0,157.0,https://optimistic.etherscan.io/address/0x3988513793bce39f0167064a9f7fc3617faf35ab
97eea1a7-803f-4ef0-942a-eb9bb99446d8,Trash NFTs,0x3bEc6a181d6Ef7239F699DAf2fAa5FE3A5f01Edf,Other Application,Art NFTs,0xfc0d8e8b077da481f5309825a88604188c2fbd7f,Base,trace_contract,22.0,280.0,2.0,16.0,1.0,9.0,0.0,0.0,https://basescan.org/address/0xfc0d8e8b077da481f5309825a88604188c2fbd7f
c798394d-fb13-4db6-b2a6-11dba0abae2f,UNI-Bridge,0xcDe21819d2bd07A44DE9365523FC870a31f755f1,App,Bridges,0xf9982e648ee8f9e3e9039b0071ba939c3bc19652,Optimism,unknown,,,,,,,,,https://optimistic.etherscan.io/address/0xf9982e648ee8f9e3e9039b0071ba939c3bc19652
ac82dcda-5f32-48b2-9117-b2e348ff6c35,Uniswap Position,0xF660c9E24A79aE74215A2e2300113CE79094c9C6,App,DEX,0x37418c1ee8145121c628b8f19d6dae1e435f359b,Base,unknown,,,,,,,,,https://basescan.org/address/0x37418c1ee8145121c628b8f19d6dae1e435f359b
0441d637-54e1-4e6b-bce3-4c7b6dc50c47,Unitus,0x0000000000000000000000000000000000000000,App,Lending,0x0fd11b5ed5b82ef454bee2516d1b23d1b07b6c46,Optimism,token_contract,320.0,685.0,26.0,56.0,2.0,4.0,2.0,2.0,https://optimistic.etherscan.io/address/0x0fd11b5ed5b82ef454bee2516d1b23d1b07b6c46
ceac6653-ea1d-43b8-9e02-8329e5ee2a90,Vault,0x3363b291a21cC692A5e07C9C63E3DF45F135EFcd,App,Payments,0x00000000000052068951aed201da868e29db48ac,Base,factory_contract,19.0,19.0,11.0,11.0,1.0,1.0,0.0,0.0,https://basescan.org/address/0x00000000000052068951aed201da868e29db48ac
b607f3fb-dd0e-4a9e-b56e-191f8f28fa01,Velodrome Finance,0xc687f7c9BDfF8d40cF4f789FA105f7dCF0771d6a,App,DEX,0x9560e827af36c94d2ac33a39bce1fe78631088db,Optimism,token_contract,7272044.0,9712930.0,49244.0,76271.0,17112.0,20952.0,1853.0,2015.0,https://optimistic.etherscan.io/address/0x9560e827af36c94d2ac33a39bce1fe78631088db
6104ece1-68f7-40a9-aeef-723f33e440ce,Vesper Finance,0x37A6156e4a6E8B60b2415AF040546cF5e91699bd,App,Staking,0x32934ad7b1121defc631080b58599a0eaab89878,Optimism,dapp_contract,3.0,14.0,1.0,4.0,1.0,1.0,0.0,0.0,https://optimistic.etherscan.io/address/0x32934ad7b1121defc631080b58599a0eaab89878
d8a86cb4-15a9-46b8-a746-9319c9104951,Virtuals Protocol,0xC96bC5441A1212BF268c4116430ea241102898b5,Other Application,Gaming,0x50725af160260a316b2673c71c8c21469f6732c0,Base,dapp_contract,221.0,1939.0,1.0,3.0,1.0,1.0,0.0,0.0,https://basescan.org/address/0x50725af160260a316b2673c71c8c21469f6732c0
1c0ae0df-9238-497d-8fa0-ad05f381cf34,Votecaster,0xf3B06b503652a5E075D423F97056DFde0C4b066F,App,Frames,0x52b7fdb72db7b1279919ec1cf69d3f5cb51d1243,Base,dapp_contract,23.0,23.0,4.0,4.0,4.0,4.0,0.0,0.0,https://basescan.org/address/0x52b7fdb72db7b1279919ec1cf69d3f5cb51d1243
4133afe8-311a-417d-b4fa-ea520cfad5df,VRNouns,0xa0Cf2260CA43252A3620e80A5CFE40968f042634,App,Gaming,0xbb56a9359df63014b3347585565d6f80ac6305fd,Base,dapp_contract,70.0,353.0,58.0,247.0,25.0,81.0,0.0,1.0,https://basescan.org/address/0xbb56a9359df63014b3347585565d6f80ac6305fd
19349c4c-28d9-4ee0-9596-f5b0a8210a49,Web3 Hackers Collective,0x6bAFF8A3449cc2E196F4b873f49e03E09345B1E1,Other Application,Other Category,0x83e2403a8b94af988b4f4ae9869577783b8cd216,Optimism,dapp_contract,,,,,,,,,https://optimistic.etherscan.io/address/0x83e2403a8b94af988b4f4ae9869577783b8cd216
d4a2d1b2-ae53-4e4a-a860-8fcbffb48351,WebHash.com,0x8dA48e5846c06B558970ACd42EDc7Da8799481E4,App,Identity,0x8448860bff06fb2f942270402a4a846b864abd92,Base,dapp_contract,598.0,1563.0,271.0,481.0,59.0,145.0,3.0,3.0,https://basescan.org/address/0x8448860bff06fb2f942270402a4a846b864abd92
d1571cc0-0d88-455b-be2e-91447ddac859,Welcome Onchain,0x84EEb7dB3f93feb5A8A98F56Dabb970A6797c187,App,Other Category,0x4200000000000000000000000000000000000021,Base,invalid_contract,,,,,,,,,https://basescan.org/address/0x4200000000000000000000000000000000000021
b27c62f4-d5f7-4b9a-8769-468b5fa4c792,WOOFi,0x26a65cA76E1Bd0E3962DF3795fd160782Db24fc4,App,DEX,0x4c4af8dbc524681930a27b2f1af5bcc8062e6fb7,Optimism,trace_contract,148571.0,283894.0,4012.0,14318.0,344.0,1052.0,64.0,110.0,https://optimistic.etherscan.io/address/0x4c4af8dbc524681930a27b2f1af5bcc8062e6fb7
87826993-859c-4365-92f2-39e2032e52ea,XO - AI-powered Matchmaking Protocol,0xB819Fd6050D6225785D4D688971b3bF4ACB45252,App,Community & Curation,0x84583e7d2d92d87d5b3bac850ab4bad37ae568e8,Cyber,pending_cyber,3445753.0,4506896.0,61157.0,71549.0,1.0,1.0,5356.0,3492.0,https://cyberscan.co/address/0x84583e7d2d92d87d5b3bac850ab4bad37ae568e8
49ee3492-1af1-41e2-8ef2-f5f388470d46,Yunan90,0x9b7816f3eb2d35A24edD9BB4F33f05E9a2332494,App,DEX,0x9b7816f3eb2d35a24edd9bb4f33f05e9a2332494,Base,trace_contract,179.0,822.0,79.0,301.0,1.0,3.0,1.0,3.0,https://basescan.org/address/0x9b7816f3eb2d35a24edd9bb4f33f05e9a2332494
