,name,project_type,category,chain,explorer,contract_type,status,transactions_90D,active_addresses_90D,daily_active_addresses_90D,farcaster_users_90D,transactions_180D,active_addresses_180D,daily_active_addresses_180D,farcaster_users_180D,uuid,recipient,address
0,0x,App,DEX,Base,https://basescan.org/address/0xdef1c0ded9bec7f1a1670819833240f027b25eff,dapp_contract,metrics_available,1543115.0,154685.0,3984.0,9828.0,2811827.0,361243.0,5434.0,27040.0,89eb0a1c-36f6-4455-af98-c822064425bb,0xE4EE538019673501F4B75de5aF5CC073Ec0A1487,0xdef1c0ded9bec7f1a1670819833240f027b25eff
1,Aerodrome Finance,App,DEX,Base,https://basescan.org/address/0x940181a94a35a4569e4529a3cdfb74e38fd98631,token_contract,metrics_available,26251866.0,196067.0,7605.0,12760.0,36012251.0,300062.0,7534.0,21417.0,b4d81636-0080-49bd-8039-0721b3ea716c,0xc687f7c9BDfF8d40cF4f789FA105f7dCF0771d6a,0x940181a94a35a4569e4529a3cdfb74e38fd98631
2,AI,App,Real World Assets,Base,https://basescan.org/address/0xf1a871af236ec0da070c3b09302270ccf4e35794,dapp_contract,metrics_available,41.0,21.0,0.0,1.0,55.0,28.0,0.0,3.0,c31e36bc-69ad-40e8-a3b9-29f5c1d6d86a,0xf1a871aF236eC0Da070C3b09302270Ccf4E35794,0xf1a871af236ec0da070c3b09302270ccf4e35794
3,Air3,App,Art Marketplace,Optimism,https://optimistic.etherscan.io/address/0xfd4ccd0ccab4e31cce600bd7f6b9a42623294b1c,dapp_contract,metrics_available,1774.0,1104.0,13.0,261.0,1774.0,1104.0,6.0,261.0,795a96c7-4d7e-4c58-8958-aad52d6a8f12,0x84EC34a8b64e9A40248599fe0f8afA9d66742Fe0,0xfd4ccd0ccab4e31cce600bd7f6b9a42623294b1c
4,Amazing Hunt,App,Art NFTs,Optimism,https://optimistic.etherscan.io/address/0x0db19369d6d62237d065677cf05c1b0a1236bb0a,dapp_contract,metrics_available,1179.0,3.0,0.0,0.0,1179.0,3.0,0.0,0.0,657d3052-63b9-499a-8898-ee74a2d4c0e7,0x9D63038e7f74bc089eb38e61Be8Da937918900D6,0x0db19369d6d62237d065677cf05c1b0a1236bb0a
5,Another World,App,Gaming,Optimism,https://optimistic.etherscan.io/address/0x56edafc97279c53a74c1c105abeebc79e0936c73,dapp_contract,metrics_available,57.0,3.0,0.0,1.0,142.0,5.0,0.0,1.0,3d669a90-f377-4e3b-91f0-8d0818d5f1f3,0x6cfbF06E8b6612B39333eA7c230208D1d178278d,0x56edafc97279c53a74c1c105abeebc79e0936c73
6,ArbiLearn,App,Community & Curation,Optimism,https://optimistic.etherscan.io/address/0x85ba183fb4c16d435b076dde459dafc8eff864d8,trace_contract,metrics_available,18.0,10.0,0.0,0.0,18.0,10.0,0.0,0.0,6abc3227-4e7f-4786-863c-abdd23f488a2,0x01133c3834a96aDd681a9C9Ad3b2f955968ed60F,0x85ba183fb4c16d435b076dde459dafc8eff864d8
7,ArbiLearn,App,Community & Curation,Optimism,https://optimistic.etherscan.io/address/0x85ba183fb4c16d435b076dde459dafc8eff864d8,trace_contract,metrics_available,18.0,10.0,0.0,0.0,18.0,10.0,0.0,0.0,72d91704-0a5f-4ec7-9e6b-92d5d72df0bc,0x01133c3834a96aDd681a9C9Ad3b2f955968ed60F,0x85ba183fb4c16d435b076dde459dafc8eff864d8
8,Attesta_Mesta,App,Payments,Base,https://basescan.org/address/0x42d41fe67832eaead51b75d61a132d16a86892f7,trace_contract,metrics_available,1.0,1.0,0.0,0.0,1.0,1.0,0.0,0.0,fdceb040-c3e7-4096-a801-6c75adf400ed,0xA8F0048A0d1A04663Ca5010d0bEaC5BCAEeA0eef,0x42d41fe67832eaead51b75d61a132d16a86892f7
9,Balancer,App,DEX,Mode,https://explorer.mode.network/address/0xba12222222228d8ba445958a75a0704d566bf2c8,dapp_contract,metrics_available,4867.0,2415.0,43.0,820.0,4869.0,2415.0,21.0,820.0,36037695-465b-46bf-8af8-917d96a2d176,0x6a2E16EA3a608E8D697B3fc0f59d0012A76901e4,0xba12222222228d8ba445958a75a0704d566bf2c8
10,Balancer,App,DEX,Optimism,https://optimistic.etherscan.io/address/0xba12222222228d8ba445958a75a0704d566bf2c8,dapp_contract,metrics_available,21900.0,8964.0,206.0,3726.0,41739.0,13731.0,187.0,4428.0,bc122237-96a4-48b9-a568-acd523b799cb,0x6a2E16EA3a608E8D697B3fc0f59d0012A76901e4,0xba12222222228d8ba445958a75a0704d566bf2c8
11,Balancer,App,DEX,Base,https://basescan.org/address/0xba12222222228d8ba445958a75a0704d566bf2c8,dapp_contract,metrics_available,44148.0,22967.0,378.0,1054.0,127997.0,55912.0,536.0,2232.0,d8a47ba1-e10c-4499-80f1-17694ed786b1,0x6a2E16EA3a608E8D697B3fc0f59d0012A76901e4,0xba12222222228d8ba445958a75a0704d566bf2c8
12,Bario Entertainment System,App,Gaming,Base,https://basescan.org/address/0x814fe70e85025bec87d4ad3f3b713bdcaac0579b,token_contract,metrics_available,3630.0,584.0,9.0,57.0,3630.0,584.0,4.0,57.0,12aef6c3-f681-4483-80be-d754b7f1990a,0x702ba46435D1E55B18440100BC81EB055574875e,0x814fe70e85025bec87d4ad3f3b713bdcaac0579b
13,Based Bits,App,Art NFTs,Base,https://basescan.org/address/0xe842537260634175891925f058498f9099c102eb,dapp_contract,metrics_available,4469.0,192.0,49.0,114.0,6367.0,294.0,35.0,163.0,08868559-3e11-4d15-9ec4-6a589a2d91f2,0x1d671d1B191323A38490972D58354971E5c1cd2A,0xe842537260634175891925f058498f9099c102eb
14,BasedChad,App,Meme Community,Base,https://basescan.org/address/0x17931cfc3217261ce0fa21bb066633c463ed8634,token_contract,metrics_available,9051.0,1329.0,30.0,138.0,49158.0,8860.0,106.0,1138.0,fdb1b477-97c1-40a3-8fba-8cdcd1db580b,0x6E23873AB8dD6Fb4823dF8A92D43643Fff537684,0x17931cfc3217261ce0fa21bb066633c463ed8634
15,Basepaint,App,Art NFTs,Base,https://basescan.org/address/0xe6249eafdc9c8a809fe28a5213120b1860f9a75f,dapp_contract,metrics_available,5574.0,412.0,43.0,142.0,12738.0,661.0,55.0,206.0,127b9325-9491-42cb-af85-94a69055b52a,0xb48E8dA63c2aFc5633702B7acf4BDe830c1dE48b,0xe6249eafdc9c8a809fe28a5213120b1860f9a75f
16,BaseSwap ,App,DEX,Base,https://basescan.org/address/0x2b0a43dccbd7d42c18f6a83f86d1a19fa58d541a,dapp_contract,metrics_available,21.0,12.0,0.0,2.0,63.0,47.0,0.0,7.0,83ab7eff-40a3-4d89-bf28-368a5a16faa3,0xbD90Fa61ee83123A5c42EB2024Cd00FEDBb932AE,0x2b0a43dccbd7d42c18f6a83f86d1a19fa58d541a
17,BCard,App,Donations,Optimism,https://optimistic.etherscan.io/address/0xdec5bd388d7eeeee6c613a6eb75abcab0f6e3bdc,trace_contract,metrics_available,7.0,2.0,0.0,1.0,7.0,2.0,0.0,1.0,550daa9a-e20c-439f-b816-7a0eb229b5c1,0x74fa01a5D0ef8039f1E14F4d4C8f90e8602e07B4,0xdec5bd388d7eeeee6c613a6eb75abcab0f6e3bdc
18,$BDOOGS,App,Meme Community,Base,https://basescan.org/address/0xfcb65dc6758e2cfd8f1dcdfad185bd4648b0e9c5,token_contract,metrics_available,10.0,7.0,0.0,2.0,10.0,7.0,0.0,2.0,52af194c-b618-47a2-9a64-61c27a21d16b,0x823c6115651D915614EB8d9f899d6d1FA939936D,0xfcb65dc6758e2cfd8f1dcdfad185bd4648b0e9c5
19,Beefy,App,Other Category,Optimism,https://optimistic.etherscan.io/address/0x55d0efec44ee905fc3e12ccb9f25bbd5cce0ab9c,dapp_contract,metrics_available,41.0,2.0,0.0,0.0,41.0,2.0,0.0,0.0,09baa82a-7357-46e3-92f5-e9eee6fcf78f,0xEfCCa47CD11D4b1637e4d52a84Ed5dafFAd38F04,0x55d0efec44ee905fc3e12ccb9f25bbd5cce0ab9c
20,Beefy,App,Other Category,Optimism,https://optimistic.etherscan.io/address/0xa6d3769fac465fc0415e7e9f16dcdc96b83c240b,dapp_contract,metrics_available,123.0,5.0,0.0,0.0,230.0,7.0,0.0,0.0,51c0df81-19ad-49bb-9a31-22f3b91f8582,0xEfCCa47CD11D4b1637e4d52a84Ed5dafFAd38F04,0xa6d3769fac465fc0415e7e9f16dcdc96b83c240b
21,Beefy,App,Other Category,Base,https://basescan.org/address/0xbc4a342b0c057501e081484a2d24e576e854f823,dapp_contract,metrics_available,127.0,7.0,0.0,0.0,336.0,13.0,0.0,0.0,97cabf58-7c53-4a67-b012-c41089efca7d,0xEfCCa47CD11D4b1637e4d52a84Ed5dafFAd38F04,0xbc4a342b0c057501e081484a2d24e576e854f823
22,Beefy,App,Other Category,Mode,https://explorer.mode.network/address/0xbc4a342b0c057501e081484a2d24e576e854f823,dapp_contract,metrics_available,2.0,1.0,0.0,0.0,32.0,1.0,0.0,0.0,b0d81cb2-db15-44c5-bfd7-15d5051bb1a8,0xEfCCa47CD11D4b1637e4d52a84Ed5dafFAd38F04,0xbc4a342b0c057501e081484a2d24e576e854f823
23,Beefy,App,Other Category,Base,https://basescan.org/address/0x7bc78990ac1ef0754cfde935b2d84e9acf13ed29,dapp_contract,metrics_available,59.0,3.0,0.0,0.0,59.0,3.0,0.0,0.0,f3e64503-ac75-4eb7-8d55-46c0ec60d638,0xEfCCa47CD11D4b1637e4d52a84Ed5dafFAd38F04,0x7bc78990ac1ef0754cfde935b2d84e9acf13ed29
24,BerryLab,App,Other Category,Base,https://basescan.org/address/0x4c3de014695f6330aa8e58731084424ef7ff78fb,dapp_contract,metrics_available,129.0,106.0,1.0,74.0,129.0,106.0,0.0,74.0,5523b0e7-3038-46cc-9218-5f5e52042b14,0x76a71d7D72d746B20187461baCE98806ebBa652f,0x4c3de014695f6330aa8e58731084424ef7ff78fb
25,BetBase,App,Betting & Prediction Markets,Base,https://basescan.org/address/0x80f6bcedd3d4fa1035285affa30e38f464db3895,token_contract,metrics_available,12901.0,2146.0,60.0,198.0,32785.0,4295.0,68.0,456.0,8bd5539d-ef65-4f2c-9014-3fc11620f12f,0x013437412c41716f72B54fE66d7c11858aFe4894,0x80f6bcedd3d4fa1035285affa30e38f464db3895
26,BLOCKLORDS,App,Gaming,Base,https://basescan.org/address/0x0982b3a5b24b2bd8ef74126e15fca2decfd75a28,dapp_contract,metrics_available,152353.0,290.0,4.0,19.0,152363.0,292.0,2.0,19.0,0d9b31cc-c2ef-41c3-8ba0-dea4a3a37de1,0x460464c72E010A805043195c56690347f67BE746,0x0982b3a5b24b2bd8ef74126e15fca2decfd75a28
27,BMX by Morphex,App,DEX,Base,https://basescan.org/address/0x927f9c03d1ac6e2630d31e614f226b5ed028d443,dapp_contract,metrics_available,1160.0,116.0,5.0,10.0,3545.0,253.0,5.0,37.0,a622ebca-d695-487e-adc9-931372135973,0xB1dD2Fdb023cB54b7cc2a0f5D9e8d47a9F7723ce,0x927f9c03d1ac6e2630d31e614f226b5ed028d443
28,BMX,App,DEX,Base,https://basescan.org/address/0xf9fc0b2859f9b6d33fd1cea5b0a9f1d56c258178,dapp_contract,metrics_available,479.0,49.0,2.0,2.0,1031.0,72.0,1.0,8.0,094ee083-01d1-41f8-81c6-3fe33232a8c7,0xB1dD2Fdb023cB54b7cc2a0f5D9e8d47a9F7723ce,0xf9fc0b2859f9b6d33fd1cea5b0a9f1d56c258178
29,BMX,App,DEX,Base,https://basescan.org/address/0xc608188e753b1e9558731724b7f7cdde40c3b174,dapp_contract,metrics_available,457.0,374.0,4.0,125.0,1161.0,800.0,5.0,174.0,5569f166-7c5c-4cdf-a11b-5a4280086a5a,0xB1dD2Fdb023cB54b7cc2a0f5D9e8d47a9F7723ce,0xc608188e753b1e9558731724b7f7cdde40c3b174
30,BMX,App,DEX,Base,https://basescan.org/address/0x1e4eed8fd57dfbaae060f894582ec0183c5d6e38,dapp_contract,metrics_available,88332.0,3.0,2.0,1.0,157710.0,3.0,2.0,1.0,6a1f5979-e9ab-4971-a7ec-80ce58ad15d6,0xB1dD2Fdb023cB54b7cc2a0f5D9e8d47a9F7723ce,0x1e4eed8fd57dfbaae060f894582ec0183c5d6e38
31,BMX,App,DEX,Base,https://basescan.org/address/0x4e74d4db6c0726ccded4656d0bce448876bb4c7a,token_contract,metrics_available,55520.0,3660.0,136.0,565.0,107154.0,5592.0,132.0,1096.0,78b87055-ab6e-4fea-8808-d78eaadc2d3f,0xB1dD2Fdb023cB54b7cc2a0f5D9e8d47a9F7723ce,0x4e74d4db6c0726ccded4656d0bce448876bb4c7a
32,BMX,App,DEX,Base,https://basescan.org/address/0x548f93779fbc992010c07467cbaf329dd5f059b7,token_contract,metrics_available,33954.0,3427.0,116.0,454.0,62965.0,5844.0,109.0,988.0,8e44e5b4-87ae-4d63-96eb-b0849eb394ad,0xB1dD2Fdb023cB54b7cc2a0f5D9e8d47a9F7723ce,0x548f93779fbc992010c07467cbaf329dd5f059b7
33,BMX,App,DEX,Base,https://basescan.org/address/0x6d63921d8203044f6abad8f346d3aea9a2719ddd,dapp_contract,metrics_available,9736.0,89.0,7.0,19.0,10320.0,109.0,4.0,20.0,954f07a8-715d-415f-a211-0602eaeac7d2,0xB1dD2Fdb023cB54b7cc2a0f5D9e8d47a9F7723ce,0x6d63921d8203044f6abad8f346d3aea9a2719ddd
34,BMX,App,DEX,Base,https://basescan.org/address/0x6456039168d3fe3bc5fcd9e46f3b716c1abd4ff4,dapp_contract,metrics_available,877.0,178.0,7.0,19.0,2706.0,385.0,10.0,45.0,fb221b04-388b-4bb2-be7b-fc95dfc13e51,0xB1dD2Fdb023cB54b7cc2a0f5D9e8d47a9F7723ce,0x6456039168d3fe3bc5fcd9e46f3b716c1abd4ff4
35,Boregon Trail,App,Gaming,Base,https://basescan.org/address/0x70737489dfdf1a29b7584d40500d3561bd4fe196,token_contract,metrics_available,74768.0,2648.0,75.0,962.0,183331.0,19870.0,234.0,6407.0,b6dff2cb-33fa-449a-8434-6ef6ea5624c6,0x0c9E725902f2eeEC063c16d253F38684E3192001,0x70737489dfdf1a29b7584d40500d3561bd4fe196
36,BSX,App,DEX,Base,https://basescan.org/address/0x26a54955a5fb9472d3edfeac9b8e4c0ab5779ed3,dapp_contract,metrics_available,45764.0,130.0,3.0,23.0,58333.0,1032.0,9.0,143.0,74068a98-86e1-412c-8e44-c3602d55b284,0x974dD3B4e5E00BC3117Fbba15E521B6B5aFC151C,0x26a54955a5fb9472d3edfeac9b8e4c0ab5779ed3
37,BUILD,App,Community & Curation,Base,https://basescan.org/address/0x3c281a39944a2319aa653d81cfd93ca10983d234,token_contract,metrics_available,236731.0,50356.0,871.0,30915.0,388406.0,61979.0,655.0,35003.0,9833b9ba-50c0-4119-a480-1815f0b8fd3f,0xC925bD0E839E8e22A7DDEbe7f4C21b187deeC358,0x3c281a39944a2319aa653d81cfd93ca10983d234
38,BUZZAR,App,Donations,Base,https://basescan.org/address/0xc1b6844d5134c8e550043f01ffbf49ca66efc77f,token_contract,metrics_available,209.0,68.0,2.0,1.0,333.0,77.0,1.0,1.0,7f2d11e3-2b97-4e36-b732-ac349ed2f1c7,0x9dE1C45449258a21B51fe69eB6cef1Fd71E459a4,0xc1b6844d5134c8e550043f01ffbf49ca66efc77f
39,Cat Town | Gacha,App,Gaming,Base,https://basescan.org/address/0xb75ff8958891ccf264dab717ccd9722acc939f0d,dapp_contract,metrics_available,43.0,4.0,0.0,3.0,43.0,4.0,0.0,3.0,77e31db9-a73e-4aad-a8eb-694bd5c0ae54,0xf40eD759BF4C05DF1Af180FE27d470E52D7ca611,0xb75ff8958891ccf264dab717ccd9722acc939f0d
40,Cat Town,App,Gaming,Base,https://basescan.org/address/0x8f9c456c928a33a3859fa283fb57b23c908fe843,dapp_contract,metrics_available,60262.0,1258.0,54.0,96.0,66079.0,1274.0,28.0,99.0,2501e7cb-57f8-4e70-ac38-bcf8efdeae08,0xa6BeE3f99eE2b70672A34A983AF0bBF79C028CD9,0x8f9c456c928a33a3859fa283fb57b23c908fe843
41,Cat Town,App,Gaming,Base,https://basescan.org/address/0x10a77395a07917c5eb71feeb86696b7612f9730f,dapp_contract,metrics_available,79874.0,4285.0,696.0,240.0,89682.0,4462.0,394.0,258.0,3838464c-4733-491d-8c02-6c4cad6d53b1,0xa6BeE3f99eE2b70672A34A983AF0bBF79C028CD9,0x10a77395a07917c5eb71feeb86696b7612f9730f
42,CC: App Type 8.20.24,App,Other Media NFTs,Base,https://basescan.org/address/0xe0fe6dd851187c62a79d00a211953fe3b5cec7fe,dapp_contract,metrics_available,24515.0,22132.0,256.0,2299.0,24515.0,22132.0,128.0,2299.0,1e90433c-90da-444b-a9c0-7f2a50caf423,0x265985d0a57A4339509cd785f854668055924AF5,0xe0fe6dd851187c62a79d00a211953fe3b5cec7fe
43,Charged Particles - Web3 Packs,App,Other Category,Mode,https://explorer.mode.network/address/0x2c1ef27186ae0d306c195b40c8907eef7586f388,dapp_contract,metrics_available,65.0,23.0,0.0,9.0,65.0,23.0,0.0,9.0,5f081f0e-9834-449a-b748-fa86bcfd08c7,0x75F2Ef654919CA7fd03E73BfDF60b9460e5cDE8D,0x2c1ef27186ae0d306c195b40c8907eef7586f388
44,Checkin: Location-based ‚ÄúCheckin and Earn‚Äù social to connect IRL and onchain,App,Gaming,Base,https://basescan.org/address/0x224b2491f28f4a6bde6b515b2371136fe38f5ba2,dapp_contract,metrics_available,1922.0,320.0,4.0,290.0,1922.0,320.0,2.0,290.0,649e921b-3f19-4a5a-8d8e-6a42508c2741,0x357843d6d1ECE85ABA4032EfA31a2e813F519261,0x224b2491f28f4a6bde6b515b2371136fe38f5ba2
45,Collectr,App,Art NFTs,Base,https://basescan.org/address/0x5d594f484fd286e77363ef5c1deac44d255b5484,dapp_contract,metrics_available,217.0,164.0,2.0,52.0,217.0,164.0,1.0,52.0,cb6ef65c-3136-4af7-9be1-c993d8789376,0x08D816526BdC9d077DD685Bd9FA49F58A5Ab8e48,0x5d594f484fd286e77363ef5c1deac44d255b5484
46,Copin.io,App,DEX,Optimism,https://optimistic.etherscan.io/address/0xb27a14fa98608a95d81c22023f09648f2cb714c2,dapp_contract,metrics_available,4.0,3.0,0.0,0.0,437.0,427.0,2.0,2.0,1f2e7de2-fd5e-4df9-ba8c-f37e1bec64fd,0xcb8515FD5A82e9aCf0c4A96959504ffcAB891B97,0xb27a14fa98608a95d81c22023f09648f2cb714c2
47,Daimo,App,Payments,Base,https://basescan.org/address/0xf9d643f5645c6140b8eeb7ef42878b71ebfee40b,dapp_contract,metrics_available,1965.0,2.0,1.0,0.0,4373.0,2.0,1.0,0.0,dcb7fb46-54dd-4887-954f-53c69f819f8e,0xF05b5f04B7a77Ca549C0dE06beaF257f40C66FDB,0xf9d643f5645c6140b8eeb7ef42878b71ebfee40b
48,Da Performers,App,Gaming,Base,https://basescan.org/address/0xafa0c0a5a706538c40031224b89d9a5ac6004c65,dapp_contract,metrics_available,9.0,6.0,0.0,5.0,48.0,9.0,0.0,6.0,ad7d7772-20a5-4786-b34a-3df2cdbe2ff3,0x99Fc221482ca78664d0288FfC6531cb6dfEB0c5a,0xafa0c0a5a706538c40031224b89d9a5ac6004c65
49,datalatte,App,Frames,Base,https://basescan.org/address/0x79e2b756f9c4c12bd8f80c0aeeb7b954e52ff23c,dapp_contract,metrics_available,73.0,4.0,0.0,3.0,73.0,4.0,0.0,3.0,78f0eac0-c56e-489c-a4e3-9c700ccf4ce8,0x022541dF816F50CfC6ce60c9de80619F44f7CeF1,0x79e2b756f9c4c12bd8f80c0aeeb7b954e52ff23c
50,Definitive Finance,App,DEX,Base,https://basescan.org/address/0xd056c0eee354b24fe7c5d4ee762c4d7574badac1,trace_contract,metrics_available,84544.0,170.0,9.0,0.0,192279.0,515.0,14.0,0.0,6a11ad77-d1d4-47ce-ba2f-d89cf853fd00,0x9ff6d5452a0847949683F97E868d706254a05007,0xd056c0eee354b24fe7c5d4ee762c4d7574badac1
51,Degenfans gated frames,App,Frames,Base,https://basescan.org/address/0x66009decff7db78480bec8a87e042a7eb4bfd23b,trace_contract,metrics_available,41.0,18.0,0.0,15.0,41.0,18.0,0.0,15.0,c6bad58d-bae9-443d-baa4-40f2548a7e3c,0xBc57373c9B99524f6300664e2602A0427A9ec0db,0x66009decff7db78480bec8a87e042a7eb4bfd23b
52,Degen Name Service,App,Identity,Base,https://basescan.org/address/0x465ea4967479a96d4490d575b5a6cc2b4a4bee65,dapp_contract,metrics_available,52.0,19.0,0.0,2.0,52.0,19.0,0.0,2.0,6d5a0660-c0c9-4936-8621-406289645d2b,0x2462B983E444B317C999b85CE3BBa79840D36F76,0x465ea4967479a96d4490d575b5a6cc2b4a4bee65
53,Demo STG Project - Contract - Prelaunch,App,Real World Assets,Optimism,https://optimistic.etherscan.io/address/0xe3c332a5dce0e1d9bc2cc72a68437790570c28a4,token_contract,metrics_available,59.0,25.0,0.0,2.0,361.0,95.0,1.0,17.0,3ef45361-b5be-4fea-9ca7-841ca479a89f,0x4A29c8fF7D6669618580A68dc691565B07b19e25,0xe3c332a5dce0e1d9bc2cc72a68437790570c28a4
54,dHEDGE Base,App,DEX,Base,https://basescan.org/address/0x49afe3abcf66cf09fab86cb1139d8811c8afe56f,dapp_contract,metrics_available,26.0,17.0,0.0,2.0,57.0,35.0,0.0,5.0,e1020776-ad77-4f46-9736-180038ff0896,0x5083602Bc796Ff1435769a4C66AFD482a4e6E08A,0x49afe3abcf66cf09fab86cb1139d8811c8afe56f
55,dHEDGE,App,DEX,Optimism,https://optimistic.etherscan.io/address/0x5e61a079a178f0e5784107a4963baae0c5a680c6,dapp_contract,metrics_available,22.0,21.0,0.0,1.0,88.0,57.0,0.0,5.0,3df2cd3b-06f9-42d3-8a5f-a8e5b377a127,0x5083602Bc796Ff1435769a4C66AFD482a4e6E08A,0x5e61a079a178f0e5784107a4963baae0c5a680c6
56,Dot,App,Gaming,Base,https://basescan.org/address/0xdc50bffdc67d3657e45aa9fe0d3d426d16b33ae7,dapp_contract,metrics_available,17553.0,1503.0,20.0,60.0,18936.0,1511.0,10.0,62.0,7184f549-29f4-47c2-bdef-d5c6d569f678,0xFE35e15bE885750D9b2363cbB6aBDd57AC9C4c40,0xdc50bffdc67d3657e45aa9fe0d3d426d16b33ae7
57,Dragon Academy,App,Identity,Base,https://basescan.org/address/0xcb1e86b32cf0b7f5949e829716408f6d6ab373fe,trace_contract,metrics_available,21.0,12.0,0.0,4.0,21.0,12.0,0.0,4.0,d43a073e-a744-43a7-804c-3e1c402c2c9a,0x8d17B248525EDB99cc36c4D458871aDC8B025cD0,0xcb1e86b32cf0b7f5949e829716408f6d6ab373fe
58,EFIHUB,App,Gaming,Base,https://basescan.org/address/0x2be665ab9b4507278b0965332a4d0907f7cffdc2,dapp_contract,metrics_available,62.0,21.0,0.0,4.0,109.0,30.0,0.0,11.0,ddbf8816-6804-4541-8e2a-1b99cd1a4d5a,0xbB08A11275989a00b0bFbEE807dfb5e18AA3d19B,0x2be665ab9b4507278b0965332a4d0907f7cffdc2
59,Ethereum Ecosystem,App,Community & Curation,Optimism,https://optimistic.etherscan.io/address/0x4200000000000000000000000000000000000021,dapp_contract,metrics_available,12886.0,834.0,19.0,346.0,40355.0,1694.0,23.0,685.0,e76e956b-4d97-4568-ab35-3f2753f37969,0xB03E094e643a50E145E804b35787C28292E6Afe4,0x4200000000000000000000000000000000000021
60,Event Horizon DEX,App,DEX,Optimism,https://optimistic.etherscan.io/address/0x948c634086661bda90cd15246ea4fe98b03530a2,dapp_contract,metrics_available,46207.0,45660.0,510.0,5226.0,46224.0,45677.0,255.0,5229.0,278bd0d9-4887-44bb-bbdd-37f88a5f0e6b,0x091Ce12B4592f1b434e597374BF6F054904F200A,0x948c634086661bda90cd15246ea4fe98b03530a2
61,Event Horizon DEX,App,DEX,Optimism,https://optimistic.etherscan.io/address/0x026968b5ced079eccd6cc78f35a5dfddc13f9af8,dapp_contract,metrics_available,3157.0,2373.0,32.0,312.0,3157.0,2373.0,16.0,312.0,3b2e3fce-6673-4e1d-8b7d-83431ad27ee6,0x091Ce12B4592f1b434e597374BF6F054904F200A,0x026968b5ced079eccd6cc78f35a5dfddc13f9af8
62,Event Horizon DEX,App,DEX,Optimism,https://optimistic.etherscan.io/address/0x7101f6810ee5af89bc669aff7684e3f3bf30d568,dapp_contract,metrics_available,497.0,215.0,2.0,13.0,497.0,215.0,1.0,13.0,3bbe2463-0d9b-4d12-bf59-1eaab405e941,0x091Ce12B4592f1b434e597374BF6F054904F200A,0x7101f6810ee5af89bc669aff7684e3f3bf30d568
63,Event Horizon DEX,App,DEX,Optimism,https://optimistic.etherscan.io/address/0xa3afba1b88eab52db731ad1cf618ce5254b2592b,dapp_contract,metrics_available,1780.0,1765.0,19.0,176.0,1780.0,1765.0,9.0,176.0,4c5edadc-00b0-4063-a62c-fc768c164921,0x091Ce12B4592f1b434e597374BF6F054904F200A,0xa3afba1b88eab52db731ad1cf618ce5254b2592b
64,Event Horizon DEX,App,DEX,Optimism,https://optimistic.etherscan.io/address/0x459b604d9528a7de94d6bd2e1dc06907682ff6d6,dapp_contract,metrics_available,869.0,35.0,2.0,7.0,880.0,36.0,1.0,7.0,578a22eb-31d1-47d4-90fe-516b380b588a,0x091Ce12B4592f1b434e597374BF6F054904F200A,0x459b604d9528a7de94d6bd2e1dc06907682ff6d6
65,Event Horizon DEX,App,DEX,Optimism,https://optimistic.etherscan.io/address/0x1dc046482737c267bc597a24cbb8404ccdc61705,dapp_contract,metrics_available,897.0,897.0,9.0,87.0,897.0,897.0,4.0,87.0,643b9cf2-c91b-4b10-9efc-3afa8beec654,0x091Ce12B4592f1b434e597374BF6F054904F200A,0x1dc046482737c267bc597a24cbb8404ccdc61705
66,Event Horizon DEX,App,DEX,Optimism,https://optimistic.etherscan.io/address/0x5fb24bd9538e857bb65053f2623adeaeb6fca907,dapp_contract,metrics_available,1115.0,1115.0,12.0,102.0,1115.0,1115.0,6.0,102.0,8280bdf5-79bf-4d5e-88c0-2ab18741e0f9,0x091Ce12B4592f1b434e597374BF6F054904F200A,0x5fb24bd9538e857bb65053f2623adeaeb6fca907
67,Event Horizon DEX,App,DEX,Optimism,https://optimistic.etherscan.io/address/0x4b2f4f777e043b470dae9a1bea4874f4be13c2bf,dapp_contract,metrics_available,268.0,12.0,0.0,1.0,268.0,12.0,0.0,1.0,8e56e88c-f02d-48cd-8208-9ebef2287d21,0x091Ce12B4592f1b434e597374BF6F054904F200A,0x4b2f4f777e043b470dae9a1bea4874f4be13c2bf
68,Event Horizon DEX,App,DEX,Optimism,https://optimistic.etherscan.io/address/0x1ee981c521f3c6cd520c0a30ef7a1d2910fdd057,dapp_contract,metrics_available,50730.0,49934.0,558.0,3817.0,50748.0,49952.0,279.0,3820.0,a8e6bf30-59cb-4b11-b938-8353effd846c,0x091Ce12B4592f1b434e597374BF6F054904F200A,0x1ee981c521f3c6cd520c0a30ef7a1d2910fdd057
69,Event Horizon DEX,App,DEX,Optimism,https://optimistic.etherscan.io/address/0x1ee981c521f3c6cd520c0a30ef7a1d2910fdd057,dapp_contract,metrics_available,50730.0,49934.0,558.0,3817.0,50748.0,49952.0,279.0,3820.0,baa4fa61-e1e8-4e5f-91a4-9fceb08796ff,0x091Ce12B4592f1b434e597374BF6F054904F200A,0x1ee981c521f3c6cd520c0a30ef7a1d2910fdd057
70,far.quest - Farcaster Super App,App,Community & Curation,Optimism,https://optimistic.etherscan.io/address/0x8db531fe6bea7b474c7735879e9a1000e819bd1d,dapp_contract,metrics_available,24321.0,16445.0,205.0,7985.0,62655.0,43557.0,280.0,24712.0,2963e6a6-0d53-47b8-b239-f40182f7746c,0x997b0CcEd542b6d2A7e0Bae5649aFd9d0861CB4e,0x8db531fe6bea7b474c7735879e9a1000e819bd1d
71,Feed,App,Community & Curation,Base,https://basescan.org/address/0xdd528829749d6a4656d84cddbdc65e7dc5b350a7,dapp_contract,metrics_available,91.0,8.0,0.0,1.0,91.0,8.0,0.0,1.0,8b32b54d-42e7-4b11-8e97-d2c95a160164,0x3363b291a21cC692A5e07C9C63E3DF45F135EFcd,0xdd528829749d6a4656d84cddbdc65e7dc5b350a7
72,Flappycaster,App,Gaming,Base,https://basescan.org/address/0x3273674a8ad56810426828a205cd9840f5aa4c64,dapp_contract,metrics_available,53.0,52.0,0.0,47.0,53.0,52.0,0.0,47.0,30e2ef09-65f0-49de-9f98-6625a67353e4,0xA5D224B43EAB837aa2Ee9C6Ed727f1613f301A5E,0x3273674a8ad56810426828a205cd9840f5aa4c64
73,Fractal Visions,App,Art Marketplace,Optimism,https://optimistic.etherscan.io/address/0xb50875d250fca66775f7b6c2cc4e79cd8cbbba34,dapp_contract,metrics_available,519.0,17.0,0.0,7.0,1084.0,251.0,2.0,37.0,0c01f116-4cbb-4123-90a7-b8067be7907a,0xC4FC57Dedd2463314A3fD2DBadB86B4404C257e5,0xb50875d250fca66775f7b6c2cc4e79cd8cbbba34
74,fxhash,App,Art Marketplace,Base,https://basescan.org/address/0x6e625892c739bfd960671db5544e260757480725,dapp_contract,metrics_available,8095.0,3959.0,61.0,1614.0,136948.0,49057.0,298.0,18719.0,74f31cd5-dcd5-4ae5-a481-a2b70b2d5200,0x1014f9499259988e35F1C45F6aE6Aa9FBA011E80,0x6e625892c739bfd960671db5544e260757480725
75,Gambit Finance,App,Betting & Prediction Markets,Base,https://basescan.org/address/0x6b4819f78d886ef37d4f9972fd55b0302c947277,dapp_contract,metrics_available,73842.0,384.0,45.0,59.0,73842.0,384.0,22.0,59.0,1c8d19aa-789f-4a52-a624-ee7bda2c885a,0x984195f93DB193EDB0023F321Fd1a4e2278c43f3,0x6b4819f78d886ef37d4f9972fd55b0302c947277
76,Gaslite Drop,App,Airdrop,Base,https://basescan.org/address/0x09350f89e2d7b6e96ba730783c2d76137b045fef,dapp_contract,metrics_available,45937.0,239.0,9.0,12.0,81157.0,502.0,8.0,46.0,98dc9e5e-44d2-4c74-85fc-ea192fc2a251,0x3d4aaFbe86059d17C6263332c560f18C4F1Fec34,0x09350f89e2d7b6e96ba730783c2d76137b045fef
77,Gloom,App,Meme Community,Base,https://basescan.org/address/0x4ff77748e723f0d7b161f90b4bc505187226ed0d,token_contract,metrics_available,132.0,111.0,1.0,49.0,41802.0,8195.0,78.0,5182.0,b7e11cb2-d643-4f5f-99ce-803f396b31a5,0x073f0DC58e9989C827bA5b7b35570B7315652e63,0x4ff77748e723f0d7b161f90b4bc505187226ed0d
78,HAM,App,Gaming,Base,https://basescan.org/address/0xc81c65fcd3727fd56d410756f298d587ae226b82,trace_contract,metrics_available,9.0,6.0,0.0,3.0,9.0,6.0,0.0,3.0,56c0530e-aa91-46ae-9cae-66d17ebb639b,0xb854e45662770848f0809Ed0764dc1d226125a26,0xc81c65fcd3727fd56d410756f298d587ae226b82
79,herocast,App,Community & Curation,Optimism,https://optimistic.etherscan.io/address/0x00000000fc6c5f01fc30151999387bb99a9f489b,dapp_contract,metrics_available,34026.0,316.0,11.0,80.0,39655.0,508.0,12.0,142.0,1e96baa9-afe3-429c-a3e0-ce88fe2a3d1c,0x6d9fFaede2c6CD9bb48becE230ad589e0E0D981c,0x00000000fc6c5f01fc30151999387bb99a9f489b
80,Idle,App,Lending,Optimism,https://optimistic.etherscan.io/address/0x9ebcb025949ffb5a77ff6ccc142e0de649801697,token_contract,metrics_available,87.0,39.0,1.0,4.0,197.0,54.0,1.0,6.0,320999ba-11c1-420f-bdfa-d86f53e2e0a9,0xF7032A9261BbB04b0E7b4d2bb3E8f96aCF825AE4,0x9ebcb025949ffb5a77ff6ccc142e0de649801697
81,I'm Tired Of Being Hypersurveilled: Art Collection,App,Art NFTs,Base,https://basescan.org/address/0x4b130ef4051a35883e3b399b67d13b9bd4224798,dapp_contract,metrics_available,59.0,49.0,0.0,29.0,4358.0,3676.0,21.0,1722.0,d415ba93-8f6e-409a-bd9b-d310c6112dc8,0xcfBf34d385EA2d5Eb947063b67eA226dcDA3DC38,0x4b130ef4051a35883e3b399b67d13b9bd4224798
82,Ionic,App,Lending,Mode,https://explorer.mode.network/address/0xfb3323e24743caf4add0fdccfb268565c0685556,dapp_contract,metrics_available,4325.0,2491.0,31.0,1076.0,189826.0,38293.0,413.0,10926.0,62fc6280-e66f-4e03-a93f-c04f2b11f383,0x1395348Cb0E7b62E9DbaadA079B10A4E6AC26a8F,0xfb3323e24743caf4add0fdccfb268565c0685556
83,Ironclad Finance,App,Lending,Mode,https://explorer.mode.network/address/0xb702ce183b4e1faa574834715e5d4a6378d0eed3,dapp_contract,metrics_available,33317.0,5656.0,104.0,2336.0,274467.0,30615.0,359.0,10935.0,0faedca5-9e1f-48c5-817e-c21defb36379,0xDB15fcEa49836C09672DeBf8EF53FFe4400cE377,0xb702ce183b4e1faa574834715e5d4a6378d0eed3
84,Kiwi News,App,Community & Curation,Optimism,https://optimistic.etherscan.io/address/0x08b7ecfac2c5754abafb789c84f8fa37c9f088b0,dapp_contract,metrics_available,287.0,178.0,2.0,128.0,444.0,263.0,2.0,198.0,63ccc515-d1aa-4f68-b5a4-2177b10f81cc,0xee324c588ceF1BF1c1360883E4318834af66366d,0x08b7ecfac2c5754abafb789c84f8fa37c9f088b0
85,KRASH WORLD: DA GAME PASS,App,Gaming,Base,https://basescan.org/address/0x1bf81236cacd7fd0c630fe0bb36e49cffda37b4c,trace_contract,metrics_available,48.0,3.0,0.0,1.0,48.0,3.0,0.0,1.0,00df8f90-6f06-4b92-8ed9-13f3fbe8cbcf,0x6A08A2b9C30174506bF4922d0C580995136c762D,0x1bf81236cacd7fd0c630fe0bb36e49cffda37b4c
86,L2Pass,App,Bridges,Optimism,https://optimistic.etherscan.io/address/0x0000049f63ef0d60abe49fdd8bebfa5a68822222,dapp_contract,metrics_available,604.0,310.0,3.0,33.0,55785.0,22749.0,153.0,572.0,25ed3a90-eaff-43c3-b108-e4203e6b748b,0xEAF56cF68C38281252E49b460c5a66925991475B,0x0000049f63ef0d60abe49fdd8bebfa5a68822222
87,L2Pass,App,Bridges,Base,https://basescan.org/address/0x0000049f63ef0d60abe49fdd8bebfa5a68822222,dapp_contract,metrics_available,975.0,716.0,8.0,64.0,74750.0,31635.0,238.0,965.0,670de93f-62ec-4b06-b88b-682b641c4e06,0xEAF56cF68C38281252E49b460c5a66925991475B,0x0000049f63ef0d60abe49fdd8bebfa5a68822222
88,L2Pass,App,Bridges,Base,https://basescan.org/address/0x222228060e7efbb1d78bb5d454581910e3922222,dapp_contract,metrics_available,1667.0,1338.0,17.0,45.0,53554.0,32266.0,253.0,785.0,9eabb839-0400-443c-bc8f-9870d8ede259,0xEAF56cF68C38281252E49b460c5a66925991475B,0x222228060e7efbb1d78bb5d454581910e3922222
89,L2Pass,App,Bridges,Zora,https://zora.thesuperscan.io/address/0x222228060e7efbb1d78bb5d454581910e3922222,dapp_contract,metrics_available,239.0,161.0,2.0,25.0,2783.0,2274.0,13.0,105.0,afdbf54a-2292-4771-b8a5-8d6f2df3fe8d,0xEAF56cF68C38281252E49b460c5a66925991475B,0x222228060e7efbb1d78bb5d454581910e3922222
90,L2Pass,App,Bridges,Zora,https://zora.thesuperscan.io/address/0x0000049f63ef0d60abe49fdd8bebfa5a68822222,dapp_contract,metrics_available,599.0,507.0,5.0,42.0,23185.0,12947.0,84.0,731.0,ef1a8dd7-8708-4b0d-87a5-2560df048a80,0xEAF56cF68C38281252E49b460c5a66925991475B,0x0000049f63ef0d60abe49fdd8bebfa5a68822222
91,L2Pass,App,Bridges,Optimism,https://optimistic.etherscan.io/address/0x222228060e7efbb1d78bb5d454581910e3922222,dapp_contract,metrics_available,640.0,584.0,6.0,18.0,64330.0,29313.0,238.0,476.0,f62ec95e-b0ff-4aa6-a255-8b706700dc36,0xEAF56cF68C38281252E49b460c5a66925991475B,0x222228060e7efbb1d78bb5d454581910e3922222
92,Lizard,App,Airdrop,Base,https://basescan.org/address/0xf17a42f18c3cf4e58d238e95dd60b4d148eeb47e,token_contract,metrics_available,844802.0,1198.0,22.0,76.0,863075.0,1398.0,14.0,78.0,4d172a4b-7c8e-40b6-84f6-475906c42d67,0x9A1d17c82b8FdD83aB3004bEd20C44d3b0131C0b,0xf17a42f18c3cf4e58d238e95dd60b4d148eeb47e
93,Merkl,App,Other Category,Optimism,https://optimistic.etherscan.io/address/0x3ef3d8ba38ebe18db133cec108f4d14ce00dd9ae,dapp_contract,metrics_available,40786.0,11756.0,399.0,3434.0,45126.0,12095.0,217.0,3462.0,76a5ab6c-a252-4c73-90c9-cff05b85a2b1,0x92caBFc81734bf827B037065076eF8C78AcBd12F,0x3ef3d8ba38ebe18db133cec108f4d14ce00dd9ae
94,Metronome,App,Lending,Optimism,https://optimistic.etherscan.io/address/0xe01df4ac1e1e57266900e62c37f12c986495a618,trace_contract,metrics_available,4.0,3.0,0.0,0.0,70.0,24.0,0.0,0.0,76e7ae2e-7aa9-4d6b-832a-6a838772da18,0x37A6156e4a6E8B60b2415AF040546cF5e91699bd,0xe01df4ac1e1e57266900e62c37f12c986495a618
95,Moonwell,App,Lending,Base,https://basescan.org/address/0xe9005b078701e2a0948d2eac43010d35870ad9d2,dapp_contract,metrics_available,39.0,1.0,0.0,0.0,131.0,1.0,0.0,0.0,90db12ec-ba0c-4d85-a2d0-4c207ddc2092,0x4ECfFE726461504516B6B0A93Ab1CE33793E878B,0xe9005b078701e2a0948d2eac43010d35870ad9d2
96,Moshicam,App,Other Media NFTs,Base,https://basescan.org/address/0xaceb0de9f3efab3c50bf4dc6b14706f119e39dd8,dapp_contract,metrics_available,12926.0,2.0,0.0,0.0,12926.0,2.0,0.0,0.0,ad694136-109e-4227-a214-1329f099aff0,0x4Dd958cA0455BFb231770cD06898894b4c974671,0xaceb0de9f3efab3c50bf4dc6b14706f119e39dd8
97,motoDEX,App,Gaming,Base,https://basescan.org/address/0x1c050ea3673fad2ac2f8559c81f2cd23a9ec195e,dapp_contract,metrics_available,272.0,139.0,1.0,3.0,293.0,155.0,0.0,11.0,8dcfac3e-f424-4589-9f63-ac08d3783d0a,0x963D564CA6377Ee5581eE6204A13184bb887bfc8,0x1c050ea3673fad2ac2f8559c81f2cd23a9ec195e
98,Namespace - ENS Subname Sorcery,App,Frames,Base,https://basescan.org/address/0x62e5271bc935e25f6e6e48d3c8b8b88b2d483985,dapp_contract,metrics_available,1683.0,143.0,1.0,117.0,1683.0,143.0,0.0,117.0,45ca2132-cb78-4e41-aca2-61f2fe8c71c1,0x035eBd096AFa6b98372494C7f08f3402324117D3,0x62e5271bc935e25f6e6e48d3c8b8b88b2d483985
99,NFTarot,App,Other Media NFTs,Base,https://basescan.org/address/0x67d7e7bcc964de5bef0951eb818e3a9a136312b5,dapp_contract,metrics_available,2150.0,1540.0,18.0,642.0,2150.0,1540.0,9.0,642.0,9b4e49fb-b436-41eb-8cf2-d66f53bab05a,0x1b9706227704F49e412ABC9da7Dd7D35aFa60c22,0x67d7e7bcc964de5bef0951eb818e3a9a136312b5
100,Nouns Boy,App,Art NFTs,Base,https://basescan.org/address/0xb8a2be3d9baf934d89c81eb63dc9aec0d2110875,trace_contract,metrics_available,3.0,3.0,0.0,0.0,3.0,3.0,0.0,0.0,d4661317-9967-4a9a-bda9-f6a19b2ca498,0xAa66fC4433DFD254F05A720A8c8a2f1F2fbDCB58,0xb8a2be3d9baf934d89c81eb63dc9aec0d2110875
101,nounspace,App,Community & Curation,Base,https://basescan.org/address/0x48c6740bcf807d6c47c864faeea15ed4da3910ab,trace_contract,metrics_available,5.0,3.0,0.0,0.0,5.0,3.0,0.0,0.0,7ec52321-6065-4cbf-b763-dec8b0ad5290,0x06AE622bF2029Db79Bdebd38F723f1f33f95F6C5,0x48c6740bcf807d6c47c864faeea15ed4da3910ab
102,NPC Labs,App,Art NFTs,Base,https://basescan.org/address/0xe3074dac808848cbbf2e221834b0b3fd6a356b36,dapp_contract,metrics_available,102.0,85.0,1.0,6.0,102.0,85.0,0.0,6.0,0c682377-2b21-414c-8ae2-51a2aec4fc10,0x1e23166194aB72B70Faf90aA20Adab36607B4c78,0xe3074dac808848cbbf2e221834b0b3fd6a356b36
103,Omni X,App,Other Media NFTs,Optimism,https://optimistic.etherscan.io/address/0xd12999440402d30f69e282d45081999412013844,dapp_contract,metrics_available,144.0,126.0,1.0,28.0,29172.0,17554.0,140.0,365.0,34035eff-5a57-4d55-9a4d-a065b399babb,0xF764467b8c6aBb2c2a3B9835547A2468B04dBa9a,0xd12999440402d30f69e282d45081999412013844
104,Omni X,App,Other Media NFTs,Base,https://basescan.org/address/0x061a883e8c2feffb4f3ea42046abd4be88e1333f,dapp_contract,metrics_available,400.0,268.0,3.0,53.0,8569.0,5502.0,38.0,391.0,7f4c65a6-d3c1-4c34-bf64-65db0b60348a,0xF764467b8c6aBb2c2a3B9835547A2468B04dBa9a,0x061a883e8c2feffb4f3ea42046abd4be88e1333f
105,Omni X,App,Other Media NFTs,Base,https://basescan.org/address/0x87f7f414e2ff3d8b051cf0fb3ebd3d7811435ebe,dapp_contract,metrics_available,9.0,8.0,0.0,4.0,2547.0,1329.0,8.0,229.0,9867fb53-d3a6-46de-be0e-c4b6b21a0fa0,0xF764467b8c6aBb2c2a3B9835547A2468B04dBa9a,0x87f7f414e2ff3d8b051cf0fb3ebd3d7811435ebe
106,Omni X,App,Other Media NFTs,Zora,https://zora.thesuperscan.io/address/0x87f7f414e2ff3d8b051cf0fb3ebd3d7811435ebe,dapp_contract,metrics_available,4.0,4.0,0.0,2.0,1080.0,605.0,3.0,186.0,ccbb4b92-d95b-4de5-a252-b52d0a5fa90a,0xF764467b8c6aBb2c2a3B9835547A2468B04dBa9a,0x87f7f414e2ff3d8b051cf0fb3ebd3d7811435ebe
107,Onchain Affiliates,App,Frames,Base,https://basescan.org/address/0xceb5f8c24e1ac27d116dc7d6789b20e981a36866,dapp_contract,metrics_available,334.0,329.0,3.0,300.0,334.0,329.0,1.0,300.0,67209e62-be17-43ad-9259-b8cd4a8ae1b2,0x68E08371d1D0311b7c81961c431D71F71a94dd1a,0xceb5f8c24e1ac27d116dc7d6789b20e981a36866
108,Onchain Mecha,App,Other Media NFTs,Base,https://basescan.org/address/0xf9bacd83ee9bbc0819897382c3dac57b270b720c,trace_contract,metrics_available,44.0,2.0,0.0,0.0,44.0,2.0,0.0,0.0,1dd6cb56-dfe3-4082-a6d0-1531d1f902e3,0x5f97Cf9DD2cb7b53C47f6b1c26Ab4Bd143325d45,0xf9bacd83ee9bbc0819897382c3dac57b270b720c
109,Opti.Domains,App,Identity,Optimism,https://optimistic.etherscan.io/address/0xb02edc247246acd78294c62f403b3e64d5917031,dapp_contract,metrics_available,1.0,1.0,0.0,0.0,2078.0,1910.0,10.0,343.0,4d7a1967-86d1-4818-820f-5b2695243cbc,0xf01Dd015Bc442d872275A79b9caE84A6ff9B2A27,0xb02edc247246acd78294c62f403b3e64d5917031
110,Optimism Fractal Respect Game,App,Gaming,Optimism,https://optimistic.etherscan.io/address/0x53c9e3a44b08e7ecf3e8882996a500eb06c0c5cc,dapp_contract,metrics_available,82.0,17.0,0.0,9.0,206.0,31.0,0.0,12.0,17d8f473-a44a-40c9-ad70-41d479db86e3,0xf1B8c360317bf1249F976ab82c78aE50365822ec,0x53c9e3a44b08e7ecf3e8882996a500eb06c0c5cc
111,Overtime Markets,App,Betting & Prediction Markets,Optimism,https://optimistic.etherscan.io/address/0xfb4e4811c7a811e098a556bd79b64c20b479e431,dapp_contract,metrics_available,207521.0,2974.0,130.0,1532.0,207593.0,2975.0,65.0,1532.0,3fe23b54-e0a8-4869-9e59-c2d1ef8fa5c7,0x1e4c7ff127B2321eD05c43AF5E1015dFd8885F30,0xfb4e4811c7a811e098a556bd79b64c20b479e431
112,Payflow,App,Payments,Base,https://basescan.org/address/0x4e1dcf7ad4e460cfd30791ccc4f9c8a4f820ec67,dapp_contract,metrics_available,826.0,131.0,1.0,40.0,1888.0,136.0,1.0,40.0,211197d4-6273-40cd-aae1-3638143438cb,0x5b7a11ba3f66Bd2365B5f489B72DbB46d528Da7a,0x4e1dcf7ad4e460cfd30791ccc4f9c8a4f820ec67
113,Pixotchi,App,Gaming,Base,https://basescan.org/address/0x546d239032b24eceee0cb05c92fc39090846adc7,token_contract,metrics_available,138627.0,10898.0,203.0,1499.0,188240.0,14307.0,156.0,1740.0,55ea809f-3a8b-4ccf-abbf-4e25374dd239,0x44e156CBb4506cee55A96b45D10A77806E012469,0x546d239032b24eceee0cb05c92fc39090846adc7
114,PokPok Protocol,App,Gaming,Base,https://basescan.org/address/0x1c142d5449b581a49616ac879631913b43e579e2,dapp_contract,metrics_available,4512.0,61.0,3.0,17.0,4512.0,61.0,1.0,17.0,5df30ae5-bda9-4799-998f-a82e794396d9,0x6CeBc0bBc501d73Fe71D9fe3063fA22d1B17f3f4,0x1c142d5449b581a49616ac879631913b43e579e2
115,PoolTogether,App,Other Category,Optimism,https://optimistic.etherscan.io/address/0xf35fe10ffd0a9672d0095c435fd8767a7fe29b55,dapp_contract,metrics_available,37.0,7.0,0.0,0.0,52.0,11.0,0.0,0.0,e9aa7925-c471-4c63-961a-c35abfe20159,0x9F36A6bB398118bdCD5B1bC3343D8FEB6d7d02B9,0xf35fe10ffd0a9672d0095c435fd8767a7fe29b55
116,Privy,App,Community & Curation,Base,https://basescan.org/address/0xf2a919977c6de88dd8ed90feaadfcc5d65d66038,trace_contract,metrics_available,59.0,12.0,0.0,0.0,73.0,17.0,0.0,0.0,97a50e6a-18df-4572-bcb5-235b63f7e256,0x89213f11E4A356d450Ab89A876F4c1cb5B8996DA,0xf2a919977c6de88dd8ed90feaadfcc5d65d66038
117,PSILOCYBIN,App,Art NFTs,Zora,https://zora.thesuperscan.io/address/0x763390a0fa5e5090da1c1c5e3640e7f2423d18e7,dapp_contract,metrics_available,305.0,273.0,3.0,115.0,305.0,273.0,1.0,115.0,44cceb66-8501-40b7-b977-b9aecf4d4b3b,0x6A08A2b9C30174506bF4922d0C580995136c762D,0x763390a0fa5e5090da1c1c5e3640e7f2423d18e7
118,Quidli,App,Frames,Base,https://basescan.org/address/0x948092958c66f228e6c7afcc96935661eea4a3c5,dapp_contract,metrics_available,114.0,17.0,0.0,13.0,114.0,17.0,0.0,13.0,be4c1824-c482-4316-b5c6-706e926061da,0x2055149768d71910aA4125CcBb9fDc46EdeB2436,0x948092958c66f228e6c7afcc96935661eea4a3c5
119,Recipes Onchain,App,Community & Curation,Base,https://basescan.org/address/0x2843b40a3ac54044f94480417c2d3698ebc94583,trace_contract,metrics_available,19.0,1.0,0.0,0.0,19.0,1.0,0.0,0.0,c89a18cb-081f-4a9b-b580-e1285163613a,0xF63B3cE2D038f11CA4fC5e11265B7b4417a16aDc,0x2843b40a3ac54044f94480417c2d3698ebc94583
120,RubyScore,App,Identity,Optimism,https://optimistic.etherscan.io/address/0x009dbfee9e155766af434ed1652ca3769b05e76f,dapp_contract,metrics_available,1156.0,1141.0,12.0,481.0,9016.0,8798.0,49.0,2583.0,02439dc9-9d63-4ba9-a0b0-b995251586ed,0xD50A234082C1CEa12A7A9DD6F37a85fcc55ED459,0x009dbfee9e155766af434ed1652ca3769b05e76f
121,RubyScore,App,Other Category,Zora,https://zora.thesuperscan.io/address/0xbdb018e21ad1e5756853fe008793a474d329991b,dapp_contract,metrics_available,3537.0,1533.0,26.0,525.0,10699.0,3774.0,39.0,1168.0,44f074aa-6ccd-4f72-be91-92c406f0bdca,0xD50A234082C1CEa12A7A9DD6F37a85fcc55ED459,0xbdb018e21ad1e5756853fe008793a474d329991b
122,RubyScore,App,Identity,Base,https://basescan.org/address/0xe10add2ad591a7ac3ca46788a06290de017b9fb4,dapp_contract,metrics_available,208580.0,23463.0,842.0,3083.0,399873.0,63043.0,1177.0,5650.0,5f969f7d-8725-48d9-9249-e7655827caba,0xD50A234082C1CEa12A7A9DD6F37a85fcc55ED459,0xe10add2ad591a7ac3ca46788a06290de017b9fb4
123,RubyScore,App,Other Category,Base,https://basescan.org/address/0xbdb018e21ad1e5756853fe008793a474d329991b,dapp_contract,metrics_available,6931.0,2899.0,44.0,880.0,34507.0,11341.0,113.0,2898.0,860b6f97-d7d3-4da6-85f0-3d83d94a8256,0xD50A234082C1CEa12A7A9DD6F37a85fcc55ED459,0xbdb018e21ad1e5756853fe008793a474d329991b
124,RubyScore,App,Identity,Zora,https://zora.thesuperscan.io/address/0xdc3d8318fbaec2de49281843f5bba22e78338146,dapp_contract,metrics_available,57295.0,8142.0,522.0,1713.0,121865.0,18523.0,562.0,2428.0,cbd87620-2028-4bc0-a2a2-d915bb2454b9,0xD50A234082C1CEa12A7A9DD6F37a85fcc55ED459,0xdc3d8318fbaec2de49281843f5bba22e78338146
125,Safaricaster,App,Frames,Base,https://basescan.org/address/0xd2bf1158aa670dcdcf5197821d153195dd8d8f4f,dapp_contract,metrics_available,131.0,81.0,1.0,69.0,131.0,81.0,0.0,69.0,f229ae60-0332-47ad-8f82-87ab52e06b68,0x4A0658bdADEF6CBbF7cB6d55eb7CB684886Fc74B,0xd2bf1158aa670dcdcf5197821d153195dd8d8f4f
126,Savings-USX $sUSX,App,Lending,Optimism,https://optimistic.etherscan.io/address/0xbc404429558292ee2d769e57d57d6e74bbd2792d,token_contract,metrics_available,25.0,11.0,0.0,0.0,25.0,11.0,0.0,0.0,07cbabee-44a5-4fb9-96d3-f03d52f3dd37,0x300ecEb6f549c14779DdCBD9BdFce4a2B1C7DFaB,0xbc404429558292ee2d769e57d57d6e74bbd2792d
127,Scoop,App,Gaming,Base,https://basescan.org/address/0xaeea89678b36c20493e2c069cdcea72e1b34a9ed,dapp_contract,metrics_available,161652.0,3070.0,191.0,10.0,161652.0,3070.0,95.0,10.0,3922c00b-976f-43dd-8e1a-616b686efee1,0x0B3CF56E7dF3BB3Fb7201fFcD96d279b05DDd2E3,0xaeea89678b36c20493e2c069cdcea72e1b34a9ed
128,Seamless Protocol,App,Lending,Base,https://basescan.org/address/0x36291d2d51a0122b9facbe3c3f989cc6b1f859b3,trace_contract,metrics_available,2.0,1.0,0.0,0.0,10.0,2.0,0.0,0.0,70454ef1-f5d4-4b74-a3d0-ce63504972fe,0xc87e97a6219725ce2A184A668Ae74f3733D4C510,0x36291d2d51a0122b9facbe3c3f989cc6b1f859b3
129,/send,App,Payments,Base,https://basescan.org/address/0x008c9561857b6555584d20ac55110335759aa2c2,dapp_contract,metrics_available,4216.0,1.0,0.0,0.0,4216.0,1.0,0.0,0.0,40e9c64b-e468-4a27-8dfa-b392f5813c2e,0x02cdD55Bea4d8Ef7E7dDA6A60305a03dfaB0C128,0x008c9561857b6555584d20ac55110335759aa2c2
130,/send,App,Payments,Base,https://basescan.org/address/0x36f43082d01df4801af2d95aeed1a0200c5510ae,trace_contract,metrics_available,844.0,405.0,4.0,0.0,844.0,405.0,2.0,0.0,91d27ce9-b7f8-4c31-bba2-f8a0ba72eadb,0x02cdD55Bea4d8Ef7E7dDA6A60305a03dfaB0C128,0x36f43082d01df4801af2d95aeed1a0200c5510ae
131,/send,App,Payments,Base,https://basescan.org/address/0x592e1224d203be4214b15e205f6081fbbacfcd2d,trace_contract,metrics_available,17450.0,6.0,1.0,1.0,17450.0,6.0,0.0,1.0,b6cb620b-63ad-4ff7-b9bf-53c66db71dad,0x02cdD55Bea4d8Ef7E7dDA6A60305a03dfaB0C128,0x592e1224d203be4214b15e205f6081fbbacfcd2d
132,/send,App,Payments,Base,https://basescan.org/address/0x3f14920c99beb920afa163031c4e47a3e03b3e4a,token_contract,metrics_available,11126.0,1409.0,40.0,129.0,23456.0,3358.0,57.0,293.0,f7e0b2d9-b0c5-4464-9994-9ae3984a3579,0x02cdD55Bea4d8Ef7E7dDA6A60305a03dfaB0C128,0x3f14920c99beb920afa163031c4e47a3e03b3e4a
133,Silo Finance,App,Lending,Optimism,https://optimistic.etherscan.io/address/0x1ebf59146ccdc4650044fc70cafac298a6083f5f,trace_contract,metrics_available,40185.0,143.0,14.0,0.0,40188.0,145.0,7.0,0.0,0e554b3f-68d3-4b76-9850-4d7e639bb06d,0x41a8709A508f07e6fA33dB0111813C5084fDC50D,0x1ebf59146ccdc4650044fc70cafac298a6083f5f
134,Silo Finance,App,Lending,Optimism,https://optimistic.etherscan.io/address/0x12ee4be944b993c81b6840e088ba1dcc57f07b1d,trace_contract,metrics_available,69439.0,107.0,9.0,0.0,69439.0,107.0,4.0,0.0,2d687960-ac06-4525-86d4-c6f4550eee07,0x41a8709A508f07e6fA33dB0111813C5084fDC50D,0x12ee4be944b993c81b6840e088ba1dcc57f07b1d
135,Silo Finance,App,Lending,Optimism,https://optimistic.etherscan.io/address/0x8ed1609d796345661d36291b411992e85de7b224,trace_contract,metrics_available,29656.0,40.0,12.0,0.0,29659.0,42.0,6.0,0.0,79ca5360-e99c-4b63-a147-3b9ba74f81ac,0x41a8709A508f07e6fA33dB0111813C5084fDC50D,0x8ed1609d796345661d36291b411992e85de7b224
136,Silo Finance,App,Lending,Optimism,https://optimistic.etherscan.io/address/0xd9b605f0b9e64328ae50d1b44ec14d38c009a702,trace_contract,metrics_available,4037.0,15.0,1.0,0.0,4037.0,15.0,0.0,0.0,7f3f7eda-5a61-44c8-b8d3-e89fd718c4b3,0x41a8709A508f07e6fA33dB0111813C5084fDC50D,0xd9b605f0b9e64328ae50d1b44ec14d38c009a702
137,Silo Finance,App,Lending,Optimism,https://optimistic.etherscan.io/address/0x03d0b417b7bcd0c399f1db3321985353a515b2b8,trace_contract,metrics_available,7412.0,43.0,10.0,0.0,7415.0,45.0,5.0,0.0,fef42e13-7204-4f1f-a20c-065e6baf2b51,0x41a8709A508f07e6fA33dB0111813C5084fDC50D,0x03d0b417b7bcd0c399f1db3321985353a515b2b8
138,Smellcheckmate,App,Community & Curation,Base,https://basescan.org/address/0x3f3c9fcd3d34b568c5c1e9caa2ae4c6d5775c651,dapp_contract,metrics_available,37.0,32.0,0.0,28.0,37.0,32.0,0.0,28.0,c4d583a8-91fc-424e-861f-f995e976f58d,0x7639b96593B2E34F27Ee57f4B1583c4b33dd9679,0x3f3c9fcd3d34b568c5c1e9caa2ae4c6d5775c651
139,Snickerdoodle,App,Frames,Base,https://basescan.org/address/0x4054ad4648a2c33e1be07ba05d381b4ca032cefc,trace_contract,metrics_available,133808.0,6.0,0.0,1.0,135362.0,8.0,0.0,3.0,951cae03-ee9e-4408-8e5e-203d97be52e9,0x7A254a1271f338995d4768C5066508B1b0946aA8,0x4054ad4648a2c33e1be07ba05d381b4ca032cefc
140,Songbirdz,App,Gaming,Base,https://basescan.org/address/0x7c3b795e2174c5e0c4f7d563a2fb34f024c8390b,dapp_contract,metrics_available,4119.0,1688.0,20.0,739.0,4209.0,1690.0,10.0,739.0,ec336ada-b777-42e2-9878-812a87d7bf13,0x3fb4920e09493b2bC7e9b7e14EA7585Ca8bAbF21,0x7c3b795e2174c5e0c4f7d563a2fb34f024c8390b
141,Spotlight,App,Community & Curation,Base,https://basescan.org/address/0x4abdc4cfd98fc6eaa21514ab3005f0310e255b65,trace_contract,metrics_available,99.0,39.0,0.0,1.0,99.0,39.0,0.0,1.0,2b3eb503-4f39-4737-ac25-8b78b54aac7e,0xe999E0cEf99050b59DbE9472aa9a3c3E0816FdB5,0x4abdc4cfd98fc6eaa21514ab3005f0310e255b65
142,Starta x Degen Bridge,App,Bridges,Base,https://basescan.org/address/0x67e2ef29a62a7827823ebed495115458286b7d12,dapp_contract,metrics_available,18.0,12.0,0.0,7.0,183.0,85.0,0.0,65.0,628e384f-7826-4f97-8509-aff80c9bf4f2,0xee5a3e1C0049089683F6183Cb5a4928085b330c0,0x67e2ef29a62a7827823ebed495115458286b7d12
143,Sturdy,App,Lending,Mode,https://explorer.mode.network/address/0xd60dd6981ec336fda40820f8ca5e99cd17dd25a0,dapp_contract,metrics_available,4079.0,2461.0,35.0,777.0,33772.0,7756.0,84.0,2151.0,480aae5a-3e1b-4b9e-a8e8-3a06a47f78af,0x56eeD2aa6DF7da7FD721629a99f3890E814167DB,0xd60dd6981ec336fda40820f8ca5e99cd17dd25a0
144,Sunnypunx,App,Art NFTs,Optimism,https://optimistic.etherscan.io/address/0x2da61a0ec93e3209c0046397ba9aa3e2bcc339f9,dapp_contract,metrics_available,47.0,15.0,0.0,9.0,56.0,22.0,0.0,14.0,63313238-bd94-43ab-b981-b9e778917ad2,0x73f6F1eD2B4246Aa5313abD8799164F632E4409C,0x2da61a0ec93e3209c0046397ba9aa3e2bcc339f9
145,Supa,App,Community & Curation,Base,https://basescan.org/address/0xb0057ed0100643b4b2852799a3c3fed33947d47c,dapp_contract,metrics_available,1.0,1.0,0.0,1.0,1039.0,60.0,0.0,35.0,6b6c1870-6136-488d-a8bb-d55a65a3f69a,0x9d8a155f084741fF4C69c3B1272b5b30A8373d1b,0xb0057ed0100643b4b2852799a3c3fed33947d47c
146,SuperBoring,App,DEX,Base,https://basescan.org/address/0x37d607bd9dfff80acf37184c1f27e88388914262,dapp_contract,metrics_available,2730.0,186.0,16.0,149.0,2730.0,186.0,8.0,149.0,29f32cfe-7faa-4d47-829c-440137a7899c,0x4E030653a39B3478aDc03d2c7B6F8C45aE685882,0x37d607bd9dfff80acf37184c1f27e88388914262
147,Superbridge,App,Bridges,Base,https://basescan.org/address/0x3154cf16ccdb4c6d922629664174b904d80f2c35,dapp_contract,metrics_available,44.0,40.0,0.0,2.0,91.0,72.0,0.0,3.0,c091964f-8f72-433b-a294-effd324e34ed,0xc9a5cb4bDA310fBcDcd83Fc502C146645280Ce7A,0x3154cf16ccdb4c6d922629664174b904d80f2c35
148,Superform,App,Other Category,Base,https://basescan.org/address/0xa195608c2306a26f727d5199d5a382a4508308da,dapp_contract,metrics_available,91890.0,41033.0,817.0,11284.0,123151.0,50024.0,536.0,13351.0,7c20aa1a-9c30-4a6c-aa77-f1fdf0570c59,0xec14D5F694841Ca7b851013F096B0060026FD38C,0xa195608c2306a26f727d5199d5a382a4508308da
149,Surreal,App,Other Media Marketplace,Zora,https://zora.thesuperscan.io/address/0x5675fa187311ab57794c5c2bb99cd4502353f6aa,dapp_contract,metrics_available,119.0,69.0,1.0,38.0,266.0,154.0,1.0,65.0,e50d1f7e-57e9-4d5c-8e71-ec627032d4b0,0xA582360DA4ae1fBb912C975fcce1A0C0e2af91e8,0x5675fa187311ab57794c5c2bb99cd4502353f6aa
150,SwapBased,App,DEX,Base,https://basescan.org/address/0xd07379a755a8f11b57610154861d694b2a0f615a,token_contract,metrics_available,116396.0,12191.0,329.0,489.0,462387.0,43262.0,662.0,1893.0,78f5358d-b614-42ec-a07b-7cad08ac4d9b,0x11a434254794e96d2606f249c6911E94765a5796,0xd07379a755a8f11b57610154861d694b2a0f615a
151,Swaye,App,Betting & Prediction Markets,Base,https://basescan.org/address/0x1674035ddbfa10efd75762a3f102883f6390cdfa,dapp_contract,metrics_available,96.0,36.0,0.0,1.0,96.0,36.0,0.0,1.0,bf0f3f7d-e39c-43eb-a546-a0d383a1cae5,0x288262DcdF3e2f3dbcb2DcFbF9DCC0D9AdC50f8a,0x1674035ddbfa10efd75762a3f102883f6390cdfa
152,SynFutures,App,DEX,Base,https://basescan.org/address/0xec6c44e704eb1932ec5fe1e4aba58db6fee71460,dapp_contract,metrics_available,622027.0,85773.0,2089.0,114.0,622027.0,85773.0,1044.0,114.0,223128bf-802d-40f8-9c33-25f88a114c7e,0x7aA49f55A538586764b65a0C4C7e1D8C6243C027,0xec6c44e704eb1932ec5fe1e4aba58db6fee71460
153,Talent Protocol,App,Identity,Base,https://basescan.org/address/0xb477a9bd2547ad61f4ac22113172dd909e5b2331,trace_contract,metrics_available,18659.0,2.0,0.0,0.0,18659.0,2.0,0.0,0.0,f3a42626-c33e-40c6-bea0-fbfc53aa402a,0xC925bD0E839E8e22A7DDEbe7f4C21b187deeC358,0xb477a9bd2547ad61f4ac22113172dd909e5b2331
154,Target Onchain üéØ,App,Frames,Base,https://basescan.org/address/0x4200000000000000000000000000000000000021,dapp_contract,metrics_available,50518.0,273.0,7.0,139.0,60008.0,677.0,7.0,338.0,b1b4f593-14a5-4eb0-8b08-f08aea75137d,0x372082138ea420eBe56078D73F0359D686A7E981,0x4200000000000000000000000000000000000021
155,Tasseo,App,Art NFTs,Base,https://basescan.org/address/0x2fbdb8d7c9e4d6ab341541361895ce8a2611717c,dapp_contract,metrics_available,193.0,92.0,1.0,43.0,193.0,92.0,0.0,43.0,7c4ccb00-8e0d-4b6f-8f95-befe7d702d10,0xCFFbda2841Ef95DF3e977982eCc55429B8D82eB5,0x2fbdb8d7c9e4d6ab341541361895ce8a2611717c
156,Thales Protocol,App,DEX,Optimism,https://optimistic.etherscan.io/address/0x170a5714112daeff20e798b6e92e25b86ea603c1,dapp_contract,metrics_available,1461.0,257.0,8.0,78.0,9865.0,1021.0,23.0,239.0,4c2bd46d-c518-4798-84f8-27b0bdca3c73,0x1e4c7ff127B2321eD05c43AF5E1015dFd8885F30,0x170a5714112daeff20e798b6e92e25b86ea603c1
157,TOCD Studio,App,Gaming,Base,https://basescan.org/address/0x868517f2542381fb116d77fce094d31ed966fe71,trace_contract,metrics_available,279.0,10.0,1.0,1.0,4067.0,11.0,1.0,1.0,e9644a11-f9dd-4efd-b4dc-0d197047512d,0xd271e65Ff057cE4aDE07c52Da78d54b391AD4dcD,0x868517f2542381fb116d77fce094d31ed966fe71
158,Top Test,App,Airdrop,Base,https://basescan.org/address/0xc42c77b6b2a2b220b9502f357bbf51334db3c93f,trace_contract,metrics_available,15.0,12.0,0.0,0.0,46.0,21.0,0.0,0.0,869cb124-1c70-477c-936d-449a9bccd567,0xc42c77b6B2A2B220b9502F357bBf51334Db3C93f,0xc42c77b6b2a2b220b9502f357bbf51334db3c93f
159,Toros (Base),App,DEX,Base,https://basescan.org/address/0xe10ed1e5354eed0f7c9d2e16250ba8996c12db7a,dapp_contract,metrics_available,9149.0,6507.0,94.0,1432.0,9402.0,6582.0,48.0,1434.0,11c708c3-7202-47ef-83eb-93128333efea,0x5c54560B6da16dCEdFAeF1d9118c547ED2F373eC,0xe10ed1e5354eed0f7c9d2e16250ba8996c12db7a
160,Toros (Optimism),App,DEX,Optimism,https://optimistic.etherscan.io/address/0x3988513793bce39f0167064a9f7fc3617faf35ab,dapp_contract,metrics_available,48375.0,4593.0,283.0,148.0,52060.0,5539.0,157.0,314.0,b0de8ea4-0efe-4cd0-95be-d3fd697b8986,0x5c54560B6da16dCEdFAeF1d9118c547ED2F373eC,0x3988513793bce39f0167064a9f7fc3617faf35ab
161,Uniswap Position,App,DEX,Base,https://basescan.org/address/0x37418c1ee8145121c628b8f19d6dae1e435f359b,trace_contract,metrics_available,1.0,1.0,0.0,0.0,1.0,1.0,0.0,0.0,ac82dcda-5f32-48b2-9117-b2e348ff6c35,0xF660c9E24A79aE74215A2e2300113CE79094c9C6,0x37418c1ee8145121c628b8f19d6dae1e435f359b
162,Velodrome Finance,App,DEX,Optimism,https://optimistic.etherscan.io/address/0x9560e827af36c94d2ac33a39bce1fe78631088db,token_contract,metrics_available,7272044.0,49244.0,1853.0,15345.0,9712930.0,76271.0,2015.0,18900.0,b607f3fb-dd0e-4a9e-b56e-191f8f28fa01,0xc687f7c9BDfF8d40cF4f789FA105f7dCF0771d6a,0x9560e827af36c94d2ac33a39bce1fe78631088db
163,Vesper Finance,App,Staking,Optimism,https://optimistic.etherscan.io/address/0x32934ad7b1121defc631080b58599a0eaab89878,trace_contract,metrics_available,8.0,6.0,0.0,0.0,50.0,25.0,0.0,0.0,6104ece1-68f7-40a9-aeef-723f33e440ce,0x37A6156e4a6E8B60b2415AF040546cF5e91699bd,0x32934ad7b1121defc631080b58599a0eaab89878
164,Votecaster,App,Frames,Base,https://basescan.org/address/0x52b7fdb72db7b1279919ec1cf69d3f5cb51d1243,trace_contract,metrics_available,23.0,4.0,0.0,3.0,23.0,4.0,0.0,3.0,1c0ae0df-9238-497d-8fa0-ad05f381cf34,0xf3B06b503652a5E075D423F97056DFde0C4b066F,0x52b7fdb72db7b1279919ec1cf69d3f5cb51d1243
165,WebHash.com,App,Identity,Base,https://basescan.org/address/0x8448860bff06fb2f942270402a4a846b864abd92,dapp_contract,metrics_available,598.0,271.0,3.0,55.0,1563.0,481.0,3.0,137.0,d4a2d1b2-ae53-4e4a-a860-8fcbffb48351,0x8dA48e5846c06B558970ACd42EDc7Da8799481E4,0x8448860bff06fb2f942270402a4a846b864abd92
166,Welcome Onchain,App,Other Category,Base,https://basescan.org/address/0x4200000000000000000000000000000000000021,dapp_contract,metrics_available,50518.0,273.0,7.0,139.0,60008.0,677.0,7.0,338.0,d1571cc0-0d88-455b-be2e-91447ddac859,0x84EEb7dB3f93feb5A8A98F56Dabb970A6797c187,0x4200000000000000000000000000000000000021
167,WOOFi,App,DEX,Optimism,https://optimistic.etherscan.io/address/0x4c4af8dbc524681930a27b2f1af5bcc8062e6fb7,dapp_contract,metrics_available,5007.0,3510.0,42.0,216.0,14321.0,9738.0,62.0,652.0,b27c62f4-d5f7-4b9a-8769-468b5fa4c792,0x26a65cA76E1Bd0E3962DF3795fd160782Db24fc4,0x4c4af8dbc524681930a27b2f1af5bcc8062e6fb7
168,Yunan90,App,DEX,Base,https://basescan.org/address/0x9b7816f3eb2d35a24edd9bb4f33f05e9a2332494,dapp_contract,metrics_available,13.0,7.0,0.0,0.0,43.0,17.0,0.0,1.0,49ee3492-1af1-41e2-8ef2-f5f388470d46,0x9b7816f3eb2d35A24edD9BB4F33f05E9a2332494,0x9b7816f3eb2d35a24edd9bb4f33f05e9a2332494
169,5050IO,App,Donations,Base,https://basescan.org/address/0x0ce9a74dc442b8b7dc4b3edd5833cad8ac52afb9,factory_contract,pending_factory_indexing,,,,,,,,,9dbc583f-6672-48cd-9ddc-90d35e1a9474,0xA89946F00052Bc385B3121b45420316a7cE20E60,0x0ce9a74dc442b8b7dc4b3edd5833cad8ac52afb9
170,AlfaFrens,App,Community & Curation,Base,https://basescan.org/address/0x30e0b740acfb45b6edb9eed40094134f24d8f159,factory_contract,pending_factory_indexing,,,,,,,,,62729a7e-c90a-4494-8391-3646724a2fce,0x908f23Be36C2447db79Df2aE3A8A21c079217546,0x30e0b740acfb45b6edb9eed40094134f24d8f159
171,Avantis ,App,DEX,Base,https://basescan.org/address/0x2d898e46a20ebfc1424d4bbf69bacd92dc1ae8bb,dapp_contract,no_onchain_activity_90D,,,,,,,,,0592c036-8570-4c55-83bd-759ac99860ad,0xeAb4717efb29f91429dB6322F42Edc53C94F0941,0x2d898e46a20ebfc1424d4bbf69bacd92dc1ae8bb
172,baby Dragon,App,Meme Community,Base,https://basescan.org/address/0xa5f8daa537afeca842cdd39758744fd3155a26cb,token_contract,no_onchain_activity_90D,,,,,,,,,9a65dbec-2fb8-4889-9ef3-e1e2bbef14d4,0xAa66fC4433DFD254F05A720A8c8a2f1F2fbDCB58,0xa5f8daa537afeca842cdd39758744fd3155a26cb
173,Bankless Academy,App,Other Media NFTs,Optimism,https://optimistic.etherscan.io/address/0x235f3dfe5106f137d8b137c1b7fa115076e8b476,unknown,no_onchain_activity_180D,,,,,,,,,51f04987-614d-412f-bd4b-d6ac060f5b41,0xe1887fF140BfA9D3b45D0B2077b7471124acD242,0x235f3dfe5106f137d8b137c1b7fa115076e8b476
174,Bankless Academy,App,Frames,Base,https://basescan.org/address/0xbdded96eb5334406b4c204c02b08f9a9fb0a92dc,unknown,no_onchain_activity_180D,,,,,,,,,b20f0560-d71d-4d4f-aeae-e65092a146ca,0xe1887fF140BfA9D3b45D0B2077b7471124acD242,0xbdded96eb5334406b4c204c02b08f9a9fb0a92dc
175,Bitmon ,App,Community & Curation,Cyber,https://cyberscan.co/address/0x684f866bb78bdd2def3474152ca3426cdc9c8d4a,cyber,pending_chain_indexing,,,,,,,,,5225cd1b-ea62-411e-afc6-8b0b28164186,0x18C18eFB421B205a77d5cE858eb640059542F6a5,0x684f866bb78bdd2def3474152ca3426cdc9c8d4a
176,Bitsave Protocol,App,Other Category,Lisk,https://blockscout.lisk.com/address/0x01f0443daec78fbabb2d0927fedff5c20a4a39b5,lisk,pending_chain_indexing,,,,,,,,,f921c6a9-824a-4423-a35e-dcb31fa996d7,0x9DCbA70B2dfe5807e2A847E065EBb666791F8b8A,0x01f0443daec78fbabb2d0927fedff5c20a4a39b5
177,Bond,App,Meme Community,Base,https://basescan.org/address/0x35706dfbe28425dc831af3517b41b176e009cd0d,factory_contract,pending_factory_indexing,,,,,,,,,22a0a8ea-0acf-4669-9d8d-d0cfa10e1104,0x16420FC422F1Ae747Cc6BbC7075C466efBA07b4d,0x35706dfbe28425dc831af3517b41b176e009cd0d
178,Bored Town,App,Art NFTs,Optimism,https://optimistic.etherscan.io/address/0x28e43bb3ee202e1da587c88b0a8398309e8d4c2d,dapp_contract,no_onchain_activity_90D,,,,,,,,,0674ed13-3026-4dad-9565-b522a40c8eff,0x9D63038e7f74bc089eb38e61Be8Da937918900D6,0x28e43bb3ee202e1da587c88b0a8398309e8d4c2d
179,CantinaVerse,App,Art Marketplace,Optimism,https://optimistic.etherscan.io/address/0xd19fd90fd1e0e0e4399d341deaefe18de5565bfd,unknown,no_onchain_activity_180D,,,,,,,,,7c031575-b308-4dd8-901d-70dd45c9a29f,0x0cE9e1336158d6600C11DA0610A3282b82817834,0xd19fd90fd1e0e0e4399d341deaefe18de5565bfd
180,CantinaVerse,App,Art Marketplace,Base,https://basescan.org/address/0xa999dc0749657e77ac3216d8fa6be16874f8e50c,unknown,no_onchain_activity_180D,,,,,,,,,ed6040e7-515a-436e-ab8b-869011a58f00,0x0cE9e1336158d6600C11DA0610A3282b82817834,0xa999dc0749657e77ac3216d8fa6be16874f8e50c
181,Cat Town | Supermarket,App,Gaming,Base,https://basescan.org/address/0xa27aaf29f94c40589e7fb523c96b5e03311dff4f,unknown,no_onchain_activity_180D,,,,,,,,,60263648-dc1a-4778-85a6-66d6ba111304,0xf40eD759BF4C05DF1Af180FE27d470E52D7ca611,0xa27aaf29f94c40589e7fb523c96b5e03311dff4f
182,Chainnode,App,Other Category,SwanChain,https://mainnet-explorer.swanchain.io/address/0x35b107de530d75d730bda32ffe7d72a1be41474b,swanchain,pending_chain_indexing,,,,,,,,,e54a93fb-ec4c-482f-9765-e67d7b84bf87,0xFf0A5E35E2400d7f0610d8Ae2Eda108366C9a5C2,0x35b107de530d75d730bda32ffe7d72a1be41474b
183,Clutch,App,Gaming,Kroma,https://kromascan.com/address/0xe84ccdd7bc243a021df06a2062785d933c0ca274,kroma,pending_chain_indexing,,,,,,,,,aa0baef9-7dda-4cf5-a235-b2a8265a0ce2,0xb6A2Db1a7bE6d7C41f397f49dfB258468580f33E,0xe84ccdd7bc243a021df06a2062785d933c0ca274
184,Comet Protocol,App,Bridges,Mint,https://explorer.mintchain.io/address/0xb50ac92d6d8748ac42721c25a3e2c84637385a6b,mint,pending_chain_indexing,,,,,,,,,96eacee2-22ed-498e-9423-3ed4a545c1b1,0x5D06A3EDC921B5F69bE1D21b66A5160C3b5e2856,0xb50ac92d6d8748ac42721c25a3e2c84637385a6b
185,coNFT,App,Art Marketplace,Mint,https://explorer.mintchain.io/address/0x7990414a50e306972b54f7d1c8a58fb1da4315c3,mint,pending_chain_indexing,,,,,,,,,c34b5ac9-9ccc-44ea-81a7-86b2971dce51,0xb4D0E8Be45395E72e9C1aF25f59d854bc7Dc5B48,0x7990414a50e306972b54f7d1c8a58fb1da4315c3
186,Crypto: The Game S2,App,Gaming,Base,https://basescan.org/address/0x3abb25038da5a6ee9f524cc16c7f7ec68db7eb3b,factory_contract,pending_factory_indexing,,,,,,,,,1986d0d8-3cfc-4685-899e-909464944ae5,0xc446b8Dee9721C1E28A2Cd2E010bcAd7e3BC5909,0x3abb25038da5a6ee9f524cc16c7f7ec68db7eb3b
187,Crypto: The Game S2,App,Gaming,Base,https://basescan.org/address/0x3abb25038da5a6ee9f524cc16c7f7ec68db7eb3b,factory_contract,pending_factory_indexing,,,,,,,,,7ffac1e8-4d34-4e95-b9a6-5bbe40ac81ff,0xc446b8Dee9721C1E28A2Cd2E010bcAd7e3BC5909,0x3abb25038da5a6ee9f524cc16c7f7ec68db7eb3b
188,EFIHUB,App,Gaming,Kroma,https://kromascan.com/address/0x7580f82c279401f4d1f49fdae63396f306c4e859,kroma,pending_chain_indexing,,,,,,,,,700f7d42-49f5-4a42-a75c-09fae7f20a6b,0xbB08A11275989a00b0bFbEE807dfb5e18AA3d19B,0x7580f82c279401f4d1f49fdae63396f306c4e859
189,EVM Builder's Challenge,App,DEX,Base,https://basescan.org/address/0xfecfbc1da8fb941c6838c470b8d4a10b3a16c10e,unknown,no_onchain_activity_180D,,,,,,,,,faf04b5f-abdb-463b-af10-138a6ca5d589,0xF40479CAd328803c418084f9E6f7407C2810c795,0xfecfbc1da8fb941c6838c470b8d4a10b3a16c10e
190,Flat Money,App,DEX,Base,https://basescan.org/address/0x95fa1ddc9a78273f795e67abe8f1cd2cd39831ff,factory_contract,pending_factory_indexing,,,,,,,,,b85791b4-89d0-4eb5-89a6-a3e5f2e5e30c,0xB9e0caEA4304b4716f33Cbe08f2Cb6c34b5440cb,0x95fa1ddc9a78273f795e67abe8f1cd2cd39831ff
191,Glass,App,Frames,Base,https://basescan.org/address/0x704cf202792341d79a9fd6dd97046aa7ef3f4319,factory_contract,pending_factory_indexing,,,,,,,,,b81130c1-7f80-46f2-a26e-dfa4fcc1ce7d,0x704CF202792341d79A9Fd6DD97046aa7eF3F4319,0x704cf202792341d79a9fd6dd97046aa7ef3f4319
192,HALP,App,Payments,Base,https://basescan.org/address/0x008e42e3c360946d94d25baa2d66b7f13fc5b75a,factory_contract,pending_factory_indexing,,,,,,,,,d12ccce1-4376-421c-989e-bc7c48d3fd13,0xF6bA9cFAA9EB5b3a23D8a837Bc326f2C297ae283,0x008e42e3c360946d94d25baa2d66b7f13fc5b75a
193,Hypersub,App,Payments,Base,https://basescan.org/address/0x90e1c94ca5e161acb420e59d8be5041db931c9dd,unknown,no_onchain_activity_180D,,,,,,,,,a3bb33f3-4bdd-4eb7-942d-14a54fcfa318,0xb6f6Dce6000cA88cC936B450cEDB16a5c15f157f,0x90e1c94ca5e161acb420e59d8be5041db931c9dd
194,ImaginAIryNFTs,App,Art NFTs,Mint,https://explorer.mintchain.io/address/0xb99e5534d42500eb1d5820fba3bb8416ccb76396,mint,pending_chain_indexing,,,,,,,,,3464991c-1190-4445-97c3-0ae78521592c,0x1426FBd146942e153653863cbe633780c17268DA,0xb99e5534d42500eb1d5820fba3bb8416ccb76396
195,Imperfect Form,App,Other Category,Base,https://basescan.org/address/0x8b62d610c83c42ea8a8fc10f80581d9b7701cd37,unknown,no_onchain_activity_180D,,,,,,,,,98d9efb2-6c5a-49fd-8d6c-8dc46441f29e,0x55A5705453Ee82c742274154136Fce8149597058,0x8b62d610c83c42ea8a8fc10f80581d9b7701cd37
196,jumper,App,DEX,Optimism,https://optimistic.etherscan.io/address/0xe88d5d3b7abe28ef7d80ed26d05d133a61c8f703,unknown,no_onchain_activity_180D,,,,,,,,,ef16ccd0-57d9-4182-b843-5b9340da2b21,0xb1734CF72feD961b32C8c4de1a10eAEbd78A1E24,0xe88d5d3b7abe28ef7d80ed26d05d133a61c8f703
197,Kim Exchange,App,DEX,Mode,https://explorer.mode.network/address/0xc02155946dd8c89d3d3238a6c8a64d04e2cd4500,factory_contract,pending_factory_indexing,,,,,,,,,3ea994a4-c20a-4849-8b72-5b0c33c12b73,0x6f1130E4b96C681e2721667DDfFcA99dD6824a2d,0xc02155946dd8c89d3d3238a6c8a64d04e2cd4500
198,Kismet Gachapon,App,Frames,Optimism,https://optimistic.etherscan.io/address/0x9d48005c15f7d79221de09fc9677c3b0f3bb81a3,unknown,no_onchain_activity_180D,,,,,,,,,a6dbd777-0437-4832-ad60-cf58d20cfdce,0x58f19e55058057B04feAe2EEA88F90B84b7714Eb,0x9d48005c15f7d79221de09fc9677c3b0f3bb81a3
199,Lagrange,App,Other Category,SwanChain,https://mainnet-explorer.swanchain.io/address/0xdde9e4456a7c822ce3b6452d29e52d9e477e5a0f,swanchain,pending_chain_indexing,,,,,,,,,b549f7dd-8bec-465a-b88a-e85d82e5e11e,0xFf0A5E35E2400d7f0610d8Ae2Eda108366C9a5C2,0xdde9e4456a7c822ce3b6452d29e52d9e477e5a0f
200,Light,App,Other Category,Optimism,https://optimistic.etherscan.io/address/0x0000000000756d3e6464f5efe7e413a0af1c7474,factory_contract,pending_factory_indexing,,,,,,,,,7c519bb4-5e06-403d-92ff-e713860d2c8c,0x4fd9D0eE6D6564E80A9Ee00c0163fC952d0A45Ed,0x0000000000756d3e6464f5efe7e413a0af1c7474
201,LogX,App,DEX,Orderly,https://explorer.orderly.network/address/0x816f722424b49cf1275cc86da9840fbd5a6167e9,orderly,pending_chain_indexing,,,,,,,,,51ed6802-9581-4be5-bc0e-4226d93a0241,0xE46714C0A87E3A1e1E67C6B050b77DcE2614053e,0x816f722424b49cf1275cc86da9840fbd5a6167e9
202,LottoPGF,App,Donations,Base,https://basescan.org/address/0xded85d9e814c4c23d2632511d3be9ac4e49524b0,factory_contract,pending_factory_indexing,,,,,,,,,e889e847-33a4-4363-a002-5770bc036123,0x35267Fa7083Eb6b22104c1bBB2d25ff402B7072A,0xded85d9e814c4c23d2632511d3be9ac4e49524b0
203,MintSwap,App,DEX,Mint,https://explorer.mintchain.io/address/0x9f7bd1ce3412960524e86183b8f005271c09a5e0,mint,pending_chain_indexing,,,,,,,,,eca9c362-f6db-42a6-b4bb-2240104e2af8,0xdBe66793535889268fb707993b636d6144962fF9,0x9f7bd1ce3412960524e86183b8f005271c09a5e0
204,motoDEX,App,Gaming,Kroma,https://kromascan.com/address/0x1c050ea3673fad2ac2f8559c81f2cd23a9ec195e,kroma,pending_chain_indexing,,,,,,,,,2625454f-6714-4b8f-bdda-31b886e25702,0x963D564CA6377Ee5581eE6204A13184bb887bfc8,0x1c050ea3673fad2ac2f8559c81f2cd23a9ec195e
205,Multichain.Storage,App,Other Category,SwanChain,https://mainnet-explorer.swanchain.io/address/0x9b10a384a8508fd9eced992815340f8e00f55e6a,swanchain,pending_chain_indexing,,,,,,,,,09db96df-c12d-40ed-8573-48fd12f417f3,0xE6D4f21aF1483ffe091e0541f23717bCeB509680,0x9b10a384a8508fd9eced992815340f8e00f55e6a
206,NERZO,App,Art NFTs,Mint,https://explorer.mintchain.io/address/0x3c34a3659be90b6517f5cbc365dd84922e11a151,mint,pending_chain_indexing,,,,,,,,,b487b366-6a76-4860-8842-1c419d32fe81,0x1d2a50Ab3252413a63008cb7d7524db4ea99103a,0x3c34a3659be90b6517f5cbc365dd84922e11a151
207,NFTFeed,App,Art NFTs,Kroma,https://kromascan.com/address/0xaf1ff8e04aa97d2c155fba9829cb152169bfd8fd,kroma,pending_chain_indexing,,,,,,,,,9cf6c84e-ef1e-40c7-91eb-2070876ad8eb,0xd1c29F8d87b6b881dF4CD0F7C02F59ED1692f02E,0xaf1ff8e04aa97d2c155fba9829cb152169bfd8fd
208,OmniHub,App,Other Media NFTs,Mint,https://explorer.mintchain.io/address/0xd473b08745288ef9b412a339accfacce5cebdd90,mint,pending_chain_indexing,,,,,,,,,a1f7553b-18c4-4768-9194-f9e19f1de784,0xeD59D863310d387455B5077de2D08055d7E39C61,0xd473b08745288ef9b412a339accfacce5cebdd90
209,OpenALCHI,App,Gaming,Mint,https://explorer.mintchain.io/address/0x7814df368d1bae3ed7b666bbb3e2129b58510702,mint,pending_chain_indexing,,,,,,,,,52edcb9e-1859-4e5a-b123-abefca4bd69c,0xe7ccFBaF5375da67F6609aDa8023B4033e3cA0d0,0x7814df368d1bae3ed7b666bbb3e2129b58510702
210,OpenCover,App,Other Category,Base,https://basescan.org/address/0x8101f97d399e110067ff785b783d61545b5f18d2,unknown,no_onchain_activity_180D,,,,,,,,,eb6218ee-8de5-4348-8d79-30117601812a,0xA71c76409dE10E24ed4fad16c839941CD6D0Cf8F,0x8101f97d399e110067ff785b783d61545b5f18d2
211,Orderly Network,App,DEX,Orderly,https://explorer.orderly.network/address/0x816f722424b49cf1275cc86da9840fbd5a6167e9,orderly,pending_chain_indexing,,,,,,,,,18efb6c8-d437-4a4d-a521-6552edf4ee74,0xc5C10592e6eE2e5aEdd464b3601700c9FB78Ad2F,0x816f722424b49cf1275cc86da9840fbd5a6167e9
212,Pairwise,App,Community & Curation,Optimism,https://optimistic.etherscan.io/address/0xd00b6da2278ce5c8ca18065ccecad3417e77893e,factory_contract,pending_factory_indexing,,,,,,,,,9bf08440-e460-47a9-ad4d-147186967721,0x3EF1b0db4D10d2e3cE06699C0BD4EF0aAf897614,0xd00b6da2278ce5c8ca18065ccecad3417e77893e
213,Party.app + Party Protocol,App,Community & Curation,Base,https://basescan.org/address/0x68e9fc0e4d7af69ba64dd6827bfce5cd230b8f3d,factory_contract,pending_factory_indexing,,,,,,,,,4d3333d7-8b36-44e6-b69d-79cef9768c7a,0xEdDeb6f119cbFE24741a6333Dc69BffFCBD1dCA1,0x68e9fc0e4d7af69ba64dd6827bfce5cd230b8f3d
214,Pin Save,App,Meme Community,Optimism,https://optimistic.etherscan.io/address/0x40f320cd3cd616e59599568c4ea011e2ee49a175,dapp_contract,no_onchain_activity_90D,,,,,,,,,1cda49ae-4a15-4437-a24e-260f4d43cbaa,0x48294a067D1bC5a58BCbAB4b3bE329d078D9E1Af,0x40f320cd3cd616e59599568c4ea011e2ee49a175
215,Polynomial Trade,App,DEX,Polynomial,https://polynomialscan.io/address/0xb43c0899eccf98bc7a0f3e2c2a211d6fc4f9b3fe,polynomial,pending_chain_indexing,,,,,,,,,95b21f64-232d-4507-bc70-d7424f7b700f,0xC1d7d33c5E91C768116466a33a222B8e7606D971,0xb43c0899eccf98bc7a0f3e2c2a211d6fc4f9b3fe
216,Polynomial Trade,App,DEX,Polynomial,https://polynomialscan.io/address/0xe2c5658cc5c448b48141168f3e475df8f65a1e3e,polynomial,pending_chain_indexing,,,,,,,,,dcbaaa8b-e7da-48a1-a5fc-8ee55f4e7650,0x8136Efbaf75D7b13F033573666f393d65Da35953,0xe2c5658cc5c448b48141168f3e475df8f65a1e3e
217,Raffle Base,App,Betting & Prediction Markets,Base,https://basescan.org/address/0x2d5d128710b7bdd531c074be62123827ab8d5d52,unknown,no_onchain_activity_180D,,,,,,,,,14cad899-40f6-478b-8d59-4c465dc20f50,0x34045c937742C8AD6222A10eb21c7CfFF8Bf870E,0x2d5d128710b7bdd531c074be62123827ab8d5d52
218,Raindoge,App,Other Category,Base,https://basescan.org/address/0x1fe75e90c97d24a3912a2e785bc02f89b4442a3e,unknown,no_onchain_activity_180D,,,,,,,,,59931c2c-ea64-4bfa-a3b4-1cc3eabd9f09,0x5ae019F7eE28612b058381f4Fea213Cc90ee88A4,0x1fe75e90c97d24a3912a2e785bc02f89b4442a3e
219,Sablier,App,Payments,Optimism,https://optimistic.etherscan.io/address/0xfcf737582d167c7d20a336532eb8bcca8cf8e350,unknown,no_onchain_activity_180D,,,,,,,,,5b3cbcfd-ba89-4b03-b757-c10dd8f571a4,0x516f949f66E0F4bf8Bd0AC335C377997659fD0Cf,0xfcf737582d167c7d20a336532eb8bcca8cf8e350
220,Scoop3,App,Other Media NFTs,Base,https://basescan.org/address/0x3f5ccf453072c3841dd6a0b531fa5d07c4a401ff,unknown,no_onchain_activity_180D,,,,,,,,,6a33df9a-3761-441f-9f28-1042db9dbc0b,0xDa469A6C78D12996895721fceBA62E510b38FAf3,0x3f5ccf453072c3841dd6a0b531fa5d07c4a401ff
221,Scry,App,Other Category,Optimism,https://optimistic.etherscan.io/address/0x0000000000071821e8033345a7be174647be0706,trace_contract,no_onchain_activity_90D,,,,,,,,,4b8a828b-14c0-47fb-9688-48706601ebc7,0x3363b291a21cC692A5e07C9C63E3DF45F135EFcd,0x0000000000071821e8033345a7be174647be0706
222,/send,App,Payments,Base,https://basescan.org/address/0xe269194e41cd50e2986f82fc23a2b95d8bafed2b,unknown,no_onchain_activity_180D,,,,,,,,,02873c40-7e3f-4f0c-b9ff-ba12466b834c,0x02cdD55Bea4d8Ef7E7dDA6A60305a03dfaB0C128,0xe269194e41cd50e2986f82fc23a2b95d8bafed2b
223,/send,App,Payments,Base,https://basescan.org/address/0xb9310dae45e71c7a160a13d64204623071a8e347,unknown,no_onchain_activity_180D,,,,,,,,,3600073d-fe30-4c55-84b6-5cf388843fd2,0x02cdD55Bea4d8Ef7E7dDA6A60305a03dfaB0C128,0xb9310dae45e71c7a160a13d64204623071a8e347
224,song.camp: mint your music,App,Other Media NFTs,Base,https://basescan.org/address/0x50b1e01fbb9adfdd8aeaead47c1b3d4062af5c08,trace_contract,no_onchain_activity_90D,,,,,,,,,339045ef-ff61-4c5e-be0c-fd092be8f7dd,0xfC4852B5e3aF65058CdfE1D1dce26946c0C1975f,0x50b1e01fbb9adfdd8aeaead47c1b3d4062af5c08
225,StreamNFT,App,Other Category,Base,https://basescan.org/address/0x4cc09d3aab71cdfb652c3cda3c34c157767e35f7,unknown,no_onchain_activity_180D,,,,,,,,,58dccd77-5892-429d-83bf-ac9972153a97,0xF45a5Fdb84e6a887B69F2F5c92fE765433d34CFf,0x4cc09d3aab71cdfb652c3cda3c34c157767e35f7
226,StreamNFT,App,Other Category,Mint,https://explorer.mintchain.io/address/0xc69cbc5b96229f69106f2e912736397c85907e49,mint,pending_chain_indexing,,,,,,,,,c7c34284-ebe9-4a5e-a5de-4a2cd746507b,0xF45a5Fdb84e6a887B69F2F5c92fE765433d34CFf,0xc69cbc5b96229f69106f2e912736397c85907e49
227,Sushiswap,App,DEX,Optimism,https://optimistic.etherscan.io/address/0xfbc12984689e5f15626bad03ad60160fe98b303c,factory_contract,pending_factory_indexing,,,,,,,,,2fa49154-5fd8-46ea-b594-84491efdc590,0x45d2Cc0c0a4641079B3203ED0d3B66456a02d4CF,0xfbc12984689e5f15626bad03ad60160fe98b303c
228,SwanSwap,App,DEX,SwanChain,https://mainnet-explorer.swanchain.io/address/0xc02f1a7c9e7fa9ca0ddec1ae6866c18fa2799a58,swanchain,pending_chain_indexing,,,,,,,,,cffd93db-2896-48f4-a6aa-a288209e05ba,0x812EC7e3f898F3aCAC1e366694d4787657208378,0xc02f1a7c9e7fa9ca0ddec1ae6866c18fa2799a58
229,Test 2,App,Payments,Base,https://basescan.org/address/0x90e1c94ca5e161acb420e59d8be5041db931c9dd,unknown,no_onchain_activity_180D,,,,,,,,,4f7025f1-4a4d-4d8d-9d94-514779ac382f,0x66525057AC951a0DB5C9fa7fAC6E056D6b8997E2,0x90e1c94ca5e161acb420e59d8be5041db931c9dd
230,Testing testing,App,DEX,Base,https://basescan.org/address/0x90e1c94ca5e161acb420e59d8be5041db931c9dd,unknown,no_onchain_activity_180D,,,,,,,,,94685eed-3fee-462f-b141-862a016f363f,0xb1b9FFF08F3827875F91ddE929036a65f2A5d27d,0x90e1c94ca5e161acb420e59d8be5041db931c9dd
231,TLX,App,DEX,Optimism,https://optimistic.etherscan.io/address/0x4a1ee35f7a41b72c65ac429ec92c1221be78404c,dapp_contract,no_onchain_activity_90D,,,,,,,,,ca0f8386-dd66-4486-8a50-060e2beb29aa,0x839d36595175E1F678110d52D8265a2FEa9607bA,0x4a1ee35f7a41b72c65ac429ec92c1221be78404c
232,UNI-Bridge,App,Bridges,Optimism,https://optimistic.etherscan.io/address/0xf9982e648ee8f9e3e9039b0071ba939c3bc19652,unknown,no_onchain_activity_180D,,,,,,,,,c798394d-fb13-4db6-b2a6-11dba0abae2f,0xcDe21819d2bd07A44DE9365523FC870a31f755f1,0xf9982e648ee8f9e3e9039b0071ba939c3bc19652
233,Vault,App,Payments,Base,https://basescan.org/address/0x00000000000052068951aed201da868e29db48ac,factory_contract,pending_factory_indexing,,,,,,,,,ceac6653-ea1d-43b8-9e02-8329e5ee2a90,0x3363b291a21cC692A5e07C9C63E3DF45F135EFcd,0x00000000000052068951aed201da868e29db48ac
234,XO - AI-powered Matchmaking Protocol,App,Community & Curation,Cyber,https://cyberscan.co/address/0x84583e7d2d92d87d5b3bac850ab4bad37ae568e8,cyber,pending_chain_indexing,,,,,,,,,87826993-859c-4365-92f2-39e2032e52ea,0xB819Fd6050D6225785D4D688971b3bF4ACB45252,0x84583e7d2d92d87d5b3bac850ab4bad37ae568e8
